"hospital_id","name","certifier","certification_type","address","city","state","zip","fips_county","latitude","longitude"
10735007,"SHELBY BAPTIST MEDICAL CENTER","JC","Primary","1000 FIRST STREET, NORTH","ALABASTER","AL","35007","01117",33.252364867,-86.8130430149999
335211,"BAPTIST MEDICAL CENTER - PRINCETON","JC","Primary","701 PRINCETON AVENUE, S.W.","BIRMINGHAM","AL","35211","01073",33.498006532,-86.8471877759999
11935233,"UNIVERSITY OF ALABAMA HOSPITAL","JC","Comprehensive","619 SOUTH 19TH STREET","BIRMINGHAM","AL","35233","01073",33.505603292,-86.8020353969999
13535243,"GRANDVIEW MEDICAL CENTER","JC","Primary","3690 GRANDVIEW PARKWAY","BIRMINGHAM","AL","35243","01073",33.43293355,-86.717441464
535259,"SELECT SPECIALTY HOSPITAL","JC","Primary","2010 BROOKWOOD MEDICAL CENTER DRIVE","BIRMINGHAM","AL","35259","01073",33.463730942,-86.776253389
11036301,"SOUTHEAST ALABAMA MEDICAL CENTER","DNV","Comprehensive","1108 ROSS CLARK CIRCLE","DOTHAN","AL","36301","01069",31.2163036480001,-85.3636311239999
1636302,"FLOWERS HOSPITAL","JC","Primary","4370 WEST MAIN STREET","DOTHAN","AL","36302","01069",31.237429987,-85.45704246
5336330,"MEDICAL CENTER ENTERPRISE","JC","Acute Stroke Ready","400 NORTH EDWARDS STREET","ENTERPRISE","AL","36330","01031",31.318772396,-85.855369739
900000009,"NORTH ALABAMA MEDICAL CENTER","JC","Primary","1701 VETERANS DRIVE","FLORENCE","AL","35630",,34.80479914,-87.65098822
8636535,"SOUTH BALDWIN REGIONAL MEDICAL CENTER","JC","Primary","1613 NORTH MCKENZIE STREET","FOLEY","AL","36535","01003",30.425835684,-87.684685647
4135968,"DEKALB REGIONAL MEDICAL CENTER","JC","Primary","200 MEDICAL CENTER DRIVE","FORT PAYNE","AL","35968","01049",34.4412798390001,-85.756218367
4935903,"GADSDEN REGIONAL MEDICAL CENTER","JC","Primary","1007 GOODYEAR AVENUE","GADSDEN","AL","35903","01055",34.0077362820001,-85.965982141
8435801,"CRESTWOOD MEDICAL CENTER","JC","Primary","ONE HOSPITAL DRIVE","HUNTSVILLE","AL","35801","01089",34.693611397,-86.572171543
6335801,"HUNTSVILLE HOSPITAL, THE","JC","Primary","101 SIVLEY ROAD","HUNTSVILLE","AL","35801","01089",34.721433099,-86.580805509
9836617,"UNIVERSITY OF SOUTH ALABAMA MEDICAL CENTER","DNV","Comprehensive","2451 FILLINGIM STREET","MOBILE","AL","36617","01097",30.70706198,-88.0983348569999
13636652,"MOBILE INFIRMARY MEDICAL CENTER","JC","Primary","5 MOBILE INFIRMARY CENTER","MOBILE","AL","36652","01097",30.695724958,-88.0797761919999
10136685,"PROVIDENCE HOSPITAL","JC","Primary","6801 AIRPORT BOULEVARD","MOBILE","AL","36685","01097",30.679327657,-88.199079374
6636106,"JACKSON HOSPITAL AND CLINIC","JC","Primary","1725 PINE STREET","MONTGOMERY","AL","36106","01101",32.3669529960001,-86.2853855449999
1736111,"BAPTIST MEDICAL CENTER SOUTH","JC","Primary","2105 EAST SOUTH BOULEVARD","MONTGOMERY","AL","36111","01101",32.3281539480001,-86.27754935
9500000,"WASHINGTON REGIONAL MEDICAL CENTER","JC","Comprehensive","3215 NORTH NORTHHILLS BOULEVARD","FAYETTEVILLE","AR","72703","05143",36.1092826170001,-94.160051564
9172901,"BAPTIST HEALTH MEDICAL CENTER - FORT SMITH","JC","Primary","1001 TOWSON AVE","FORT SMITH","AR","72901","05131",35.374947809,-94.419457299
372903,"MERCY HOSPITAL FORT SMITH","JC","Primary","7301 ROGERS AVENUE","FORT SMITH","AR","72903","05131",35.355865991,-94.352054967
7372205,"BAPTIST HEALTH MEDICAL CENTER - LITTLE ROCK","JC","Primary","9601 INTERSTATE 630, EXIT 7","LITTLE ROCK","AR","72205","05119",34.743893346,-92.380651036
3072205,"UAMS MEDICAL CENTER","JC","Comprehensive","4301 WEST MARKHAM STREET","LITTLE ROCK","AR","72205","05119",34.7490251460001,-92.320137314
63072758,"MERCY HOSPITAL ROGERS","JC","Primary","2710 RIFE MEDICAL LANE","ROGERS","AR","72758","05007",36.3089928530001,-94.18297802
2972764,"NORTHWEST MEDICAL CENTER","JC","Primary","609 WEST MAPLE AVENUE","SPRINGDALE","AR","72764","05143",36.179877156,-94.13664285
2306606,"ST VINCENT'S MEDICAL CENTER","JC","Primary","2800 MAIN ST","BRIDGEPORT","CT","06606","09001",41.2010451800001,-73.201702241
906610,"BRIDGEPORT HOSPITAL","JC","Primary","267 GRANT STREET","BRIDGEPORT","CT","06610","09001",41.189377382,-73.166594716
2606810,"DANBURY HOSPITAL","JC","Primary","24 HOSPITAL AVE","DANBURY","CT","06810","09001",41.4050509030001,-73.446194863
2506418,"GRIFFIN HOSPITAL","JC","Acute Stroke Ready","130 DIVISION ST","DERBY","CT","06418","09009",41.3356129970001,-73.089205142
2906032,"JOHN DEMPSEY HOSPITAL","JC","Primary","263 FARMINGTON AVE","FARMINGTON","CT","06032","09003",41.7307648830001,-72.790584516
1506830,"GREENWICH HOSPITAL ASSOCIATION","JC","Primary","5 PERRYRIDGE RD","GREENWICH","CT","06830","09001",41.033826091,-73.63029318
2106102,"HARTFORD HOSPITAL","JC","Comprehensive","80 SEYMOUR STREET","HARTFORD","CT","06102","09003",41.754125421,-72.6791778899999
206105,"ST FRANCIS HOSPITAL & MEDICAL CENTER","JC","Primary","114 WOODLAND STREET","HARTFORD","CT","06105","09003",41.773813874,-72.698680086
2206040,"MANCHESTER MEMORIAL HOSPITAL","JC","Primary","71 HAYNES ST","MANCHESTER","CT","06040","09003",41.781508165,-72.5256751599999
1406450,"MIDSTATE MEDICAL CENTER","JC","Primary","435 LEWIS AVE","MERIDEN","CT","06450","09009",41.549391773,-72.801229113
1706457,"MIDDLESEX HOSPITAL","JC","Primary","28 CRESCENT ST","MIDDLETOWN","CT","06457","09007",41.554337263,-72.647569381
2806050,"THE HOSPITAL OF CENTRAL CONNECTICUT","JC","Primary","100 GRAND STREET","NEW BRITAIN","CT","06050","09003",41.661048674,-72.787748396
1906504,"YALE-NEW HAVEN HOSPITAL","JC","Comprehensive","20 YORK ST","NEW HAVEN","CT","06504","09009",41.30469134,-72.9354136589999
706320,"LAWRENCE & MEMORIAL HOSPITAL","JC","Primary","365 MONTAUK AVE","NEW LONDON","CT","06320","09011",41.336451777,-72.104976458
2706856,"NORWALK HOSPITAL","JC","Primary","34 MAPLE ST","NORWALK","CT","06856","09001",41.111596648,-73.422623625
2006360,"WILLIAM W BACKUS HOSPITAL","JC","Primary","326 WASHINGTON ST","NORWICH","CT","06360","09011",41.5427735580001,-72.089318809
306260,"DAY KIMBALL HOSPITAL","JC","Primary","320 POMFRET STREET","PUTNAM","CT","06260","09015",41.9066599810001,-71.914455204
806076,"JOHNSON MEMORIAL HOSPITAL","JC","Acute Stroke Ready","201 CHESTNUT HILL RD","STAFFORD SPRINGS","CT","06076","09013",41.980101679,-72.390886381
606904,"STAMFORD HOSPITAL","JC","Thrombectomy","30 SHELBURNE ROAD, PO BOX 9317","STAMFORD","CT","06904","09001",41.0550166850001,-73.5531250769999
1106066,"ROCKVILLE GENERAL HOSPITAL","JC","Primary","31 UNION ST","VERNON","CT","06066","09013",41.8666005470001,-72.451211292
1306706,"SAINT MARYS HOSPITAL","JC","Primary","56 FRANKLIN ST","WATERBURY","CT","06706","09009",41.5532058590001,-73.036710488
506721,"WATERBURY HOSPITAL","JC","Primary","64 ROBBINS ST","WATERBURY","CT","06721","09009",41.5597588460001,-73.058705204
1806226,"WINDHAM COMMUNITY MEMORIAL HOSPITAL","JC","Acute Stroke Ready","112 MANSFIELD AVE","WILLIMANTIC","CT","06226","09015",41.7173006410001,-72.226375264
720001,"HOWARD UNIVERSITY HOSPITAL","JC","Primary","2041 GEORGIA AVENUE NW","WASHINGTON","DC","20001","11001",38.917548406,-77.020093747
75420007,"MEDSTAR-GEORGETOWN UNIVERSITY MEDICAL CENTER","JC","Comprehensive","3800 RESERVOIR ROAD, NW","WASHINGTON","DC","20007","11001",38.9119585080001,-77.0752545729999
620010,"MEDSTAR WASHINGTON HOSPITAL CENTER","JC","Comprehensive","110 IRVING STREET NW","WASHINGTON","DC","20010","11001",38.9296519440001,-77.015648297
320016,"SIBLEY MEMORIAL HOSPITAL","JC","Primary","5255 LOUGHBORO ROAD NW","WASHINGTON","DC","20016","11001",38.936220796,-77.1092388979999
1220037,"GEORGE WASHINGTON UNIVERSITY HOSPITAL","JC","Comprehensive","900 23RD STREET NW","WASHINGTON","DC","20037","11001",38.901319008,-77.050636676
10532701,"ADVENTHEALTH ALTAMONTE SPRINGS","DNV","Primary","601 E ALTAMONTE DR","ALTAMONTE SPRINGS","FL","32701","12117",28.665379482,-81.370158392
10832703,"ADVENTHEALTH APOPKA","DNV","Primary","201 N PARK AVE","APOPKA","FL","32703","12095",28.680891758,-81.508075864
19233462,"JFK MEDICAL CENTER","JC","Primary","5301 S CONGRESS AVE","ATLANTIS","FL","33462","12099",26.5985861500001,-80.091168304
933180,"AVENTURA HOSPITAL AND MEDICAL CENTER","JC","Thrombectomy","20900 BISCAYNE BLVD","AVENTURA","FL","33180","12086",25.970203182,-80.145396222
2333831,"BARTOW REGIONAL MEDICAL CENTER","DNV","Acute Stroke Ready","2200 OSPREY BLVD","BARTOW","FL","33831","12105",27.918895922,-81.844210222
3633486,"BOCA RATON REGIONAL HOSPITAL","DNV","Comprehensive","800 MEADOWS RD","BOCA RATON","FL","33486","12099",26.35873272,-80.102834805
3333435,"BETHESDA HOSPITAL EAST","JC","Primary","2815 S SEACREST BLVD","BOYNTON BEACH","FL","33435","12099",26.5050572330001,-80.070563971
23534208,"MANATEE MEMORIAL HOSPITAL","JC","Primary","206 2ND ST E","BRADENTON","FL","34208","12081",27.4970119180001,-82.561997648
3434209,"BLAKE MEDICAL CENTER","JC","Primary","2020 59TH ST W","BRADENTON","FL","34209","12081",27.4822005890001,-82.623741753
3833511,"BRANDON REGIONAL HOSPITAL","DNV","Comprehensive","119 OAKFIELD DR","BRANDON","FL","33511","12057",27.932998883,-82.287810196
4134601,"BAYFRONT HEALTH BROOKSVILLE","JC","Acute Stroke Ready","17240 CORTEZ BLVD","BROOKSVILLE","FL","34601","12053",28.5388338240001,-82.443491598
28934613,"OAK HILL HOSPITAL","JC","Primary","11375 CORTEZ BLVD","BROOKSVILLE","FL","34613","12053",28.5362240580001,-82.534096049
5533990,"CAPE CORAL HOSPITAL","DNV","Primary","636 DEL PRADO BLVD","CAPE CORAL","FL","33990","12071",26.6392051770001,-81.942022498
26833756,"MORTON PLANT HOSPITAL","DNV","Comprehensive","300 PINELLAS ST","CLEARWATER","FL","33756","12103",27.952816747,-82.803696838
36834711,"SOUTH LAKE HOSPITAL","JC","Primary","1900 DON WICKHAM DR","CLERMONT","FL","34711","12069",28.5523736590001,-81.721776592
5432931,"CAPE CANAVERAL HOSPITAL","JC","Primary","701 W COCOA BEACH CSWY","COCOA BEACH","FL","32931","12009",28.3601248030001,-80.6229851699999
4233065,"BROWARD HEALTH CORAL SPRINGS","JC","Primary","3000 CORAL HILLS DR","CORAL SPRINGS","FL","33065","12011",26.268752781,-80.255656216
34834428,"BAYFRONT HEALTH SEVEN RIVERS","JC","Primary","6201 N SUNCOAST BLVD","CRYSTAL RIVER","FL","34428","12017",28.9519580530001,-82.624502738
31233525,"ADVENT HEALTH DADE CITY","JC","Primary","13100 FORT KING RD","DADE CITY","FL","33525","12101",28.3479628600001,-82.2007200799999
16833837,"HEART OF FLORIDA REGIONAL MEDICAL CENTER","JC","Primary","40100 US HWY 27 N","DAVENPORT","FL","33837","12105",28.18143194,-81.641412745
15132114,"HALIFAX HEALTH MEDICAL CENTER","JC","Primary","303 N CLYDE MORRIS BLVD","DAYTONA BEACH","FL","32114","12127",29.202384954,-81.054827885
7233484,"DELRAY MEDICAL CENTER","DNV","Comprehensive","5352 LINTON BLVD","DELRAY BEACH","FL","33484","12099",26.4371928410001,-80.127787747
24534698,"MEASE DUNEDIN HOSPITAL","DNV","Primary","601 MAIN ST","DUNEDIN","FL","34698","12103",28.0135453180001,-82.78322148
9434223,"ENGLEWOOD COMMUNITY HOSPITAL","JC","Acute Stroke Ready","700 MEDICAL BLVD","ENGLEWOOD","FL","34223","12115",26.9502084480001,-82.326606469
1732034,"BAPTIST MEDICAL CENTER - NASSAU","JC","Acute Stroke Ready","1250 S 18TH ST","FERNANDINA BEACH","FL","32034","12089",30.653209803,-81.449123492
4433308,"BROWARD HEALTH IMPERIAL POINT","JC","Primary","6401 N FEDERAL HWY","FORT LAUDERDALE","FL","33308","12011",26.207051762,-80.1108702019999
17533308,"HOLY CROSS HOSPITAL","JC","Thrombectomy","4725 N FEDERAL HWY","FORT LAUDERDALE","FL","33308","12011",26.186461072,-80.1199379029999
4633316,"BROWARD HEALTH MEDICAL CENTER","JC","Primary","1600 S ANDREWS AVE","FORT LAUDERDALE","FL","33316","12011",26.1026354900001,-80.140889637
22233901,"LEE MEMORIAL HOSPITAL","DNV","Primary","2776 CLEVELAND AVE","FORT MYERS","FL","33901","12071",26.6283919100001,-81.8740243029999
14833912,"GULF COAST MEDICAL CENTER LEE MEMORIAL H","DNV","Comprehensive","13681 DOCTORS WAY","FORT MYERS","FL","33912","12071",26.5436460180001,-81.8500077859999
22134950,"LAWNWOOD REGIONAL MEDICAL CENTER & HEART","JC","Primary","1700 S 23RD ST","FORT PIERCE","FL","34950","12111",27.4319697330001,-80.3457183099999
13932547,"FORT WALTON BEACH MEDICAL CENTER","JC","Primary","1000 MAR-WALT DR","FORT WALTON BEACH","FL","32547","12091",30.454438731,-86.633210019
27832605,"NORTH FLORIDA REGIONAL MEDICAL CENTER","DNV","Comprehensive","6500 NEWBERRY RD","GAINESVILLE","FL","32605","12001",29.6606130370001,-82.4121661579999
35032610,"SHANDS HOSPITAL","JC","Comprehensive","1600 SW ARCHER RD","GAINESVILLE","FL","32610","12001",29.639990133,-82.342864823
14332561,"GULF BREEZE HOSPITAL","DNV","Primary","1110 GULF BREEZE PKWY","GULF BREEZE","FL","32561","12113",30.3604819450001,-87.157054651
30133012,"LARKIN COMMUNITY HOSPITAL PALM SPRINGS CAMPUS","JC","Primary","1475 W 49TH ST","HIALEAH","FL","33012","12086",25.868542426,-80.312269678
17133013,"HIALEAH HOSPITAL","JC","Primary","651 E 25TH ST","HIALEAH","FL","33013","12086",25.845561822,-80.268961621
30233016,"PALMETTO GENERAL HOSPITAL","JC","Comprehensive","2001 W 68TH ST","HIALEAH","FL","33016","12086",25.885766892,-80.3263609749999
25933021,"MEMORIAL REGIONAL HOSPITAL","JC","Comprehensive","3501 JOHNSON ST","HOLLYWOOD","FL","33021","12011",26.018941806,-80.1800219899999
32734667,"REGIONAL MEDICAL CENTER BAYONET POINT","DNV","Comprehensive","14000 FIVAY RD","HUDSON","FL","34667","12101",28.3619604850001,-82.688255924
6634452,"CITRUS MEMORIAL HOSPITAL","JC","Primary","502 HIGHLAND BLVD","INVERNESS","FL","34452","12017",28.834034386,-82.335795713
33432204,"ASSENCION SAINT VINCENT'S MEDICAL CENTER RIVERSIDE","JC","Primary","1 SHIRCLIFF WAY","JACKSONVILLE","FL","32204","12031",30.3075286320001,-81.6906105259999
1932207,"BAPTIST MEDICAL CENTER JACKSONVILLE","JC","Comprehensive","800 PRUDENTIAL DR","JACKSONVILLE","FL","32207","12031",30.315651152,-81.664707397
35332209,"UF HEALTH JACKSONVILLE","DNV","Comprehensive","655 W 8TH ST","JACKSONVILLE","FL","32209","12031",30.3485052390001,-81.664274824
25032216,"MEMORIAL HOSPITAL JACKSONVILLE","JC","Primary","3625 UNIVERSITY BLVD S","JACKSONVILLE","FL","32216","12031",30.288061779,-81.601508032
39532216,"ASSENCION ST VINCENT'S MEDICAL CENTER SOUTHSIDE","JC","Primary","4201 BELFORT RD","JACKSONVILLE","FL","32216","12031",30.253377782,-81.582368845
24032224,"MAYO CLINIC","JC","Comprehensive","4500 SAN PABLO RD","JACKSONVILLE","FL","32224","12031",30.2639131290001,-81.441082678
1632250,"BAPTIST MEDICAL CENTER - BEACHES","JC","Primary","1350 13TH AVE S","JACKSONVILLE BEACH","FL","32250","12031",30.2733735680001,-81.398316289
19433458,"JUPITER MEDICAL CENTER","JC","Primary","1210 S OLD DIXIE HWY","JUPITER","FL","33458","12099",26.9228733090001,-80.096366679
22933040,"LOWER KEYS MEDICAL CENTER","JC","Primary","5900 COLLEGE RD","KEY WEST","FL","33040","12087",24.580824948,-81.742580275
29834741,"OSCEOLA REGIONAL MEDICAL CENTER","DNV","Comprehensive","700 W OAK ST","KISSIMMEE","FL","34741","12097",28.29968039,-81.40919031
36034758,"POINCIANA MEDICAL CENTER","JC","Primary","325 CYPRESS PKWY","KISSIMMEE","FL","34758","12097",28.144780763,-81.476687855
20932055,"LAKE CITY MEDICAL CENTER","JC","Primary","340 NW COMMERCE DR","LAKE CITY","FL","32055","12023",30.1837289960001,-82.687744749
21433805,"LAKELAND REGIONAL MEDICAL CENTER","JC","Primary","1324 LAKELAND HILLS BLVD","LAKELAND","FL","33805","12105",28.060381948,-81.954076325
900000109,"BARDMOOR EMERGENCY CENTER","DNV","Acute Stroke Ready","8839 BRYAN DAIRY RD","LARGO","FL","33777",,27.87384218,-82.76151179
21833770,"LARGO MEDICAL CENTER","JC","Primary","201 14TH ST SW","LARGO","FL","33770","12103",27.9141474940001,-82.8036486569999
22434748,"LEESBURG REGIONAL MEDICAL CENTER","JC","Primary","600 E DIXIE AVE","LEESBURG","FL","34748","12069",28.807834788,-81.868314286
38833558,"ST JOSEPH'S HOSPITAL NORTH","DNV","Primary","4211 VAN DYKE RD","LUTZ","FL","33558","12057",28.1295801160001,-82.509675586
28833063,"NORTHWEST MEDICAL CENTER","JC","Primary","2801 N STATE RD 7","MARGATE","FL","33063","12011",26.2629748140001,-80.2028860349999
17432901,"HOLMES REGIONAL MEDICAL CENTER","JC","Thrombectomy","1350 S HICKORY ST","MELBOURNE","FL","32901","12009",28.087198017,-80.614437596
41532940,"VIERA HOSPITAL","JC","Primary","8745 N WICKHAM RD","MELBOURNE","FL","32940","12009",28.227967877,-80.729332052
18433136,"JACKSON MEMORIAL HOSPITAL","JC","Comprehensive","1611 NW 12TH AVE","MIAMI","FL","33136","12086",25.792347385,-80.213487745
41033136,"UNIVERSITY OF MIAMI HOSPITAL","JC","Primary","1400 NW 12TH AVE","MIAMI","FL","33136","12086",25.7886720110001,-80.215915662
36933143,"SOUTH MIAMI HOSPITAL","JC","Primary","6200 SW 73RD ST","MIAMI","FL","33143","12086",25.702107773,-80.294273177
28133150,"NORTH SHORE MEDICAL CENTER","JC","Thrombectomy","1100 NW 95TH ST","MIAMI","FL","33150","12086",25.8597859490001,-80.214704105
19633175,"KENDALL REGIONAL MEDICAL CENTER","JC","Thrombectomy","11750 BIRD RD","MIAMI","FL","33175","12086",25.7309701130001,-80.3860672979999
1333176,"BAPTIST HOSPITAL OF MIAMI","JC","Comprehensive","8900 N KENDALL DR","MIAMI","FL","33176","12086",25.684430047,-80.338801862
27333140,"MOUNT SINAI MEDICAL CENTER","JC","Primary","4300 ALTON RD","MIAMI BEACH","FL","33140","12086",25.813219094,-80.139681562
36232068,"ASSENCION ST. VINCENT'S MEDICAL CENTER CLAY COUNTY","JC","Primary","1670 ST. VINCENT'S WAY","MIDDLEBURG","FL","32068","12019",30.108762428,-81.832688692
78634102,"NAPLES COMMUNITY HOSPITAL","JC","Primary","350 SEVENTH ST N","NAPLES","FL","34102","12021",26.150644889,-81.798742969
27034652,"MORTON PLANT NORTH BAY HOSPITAL","DNV","Primary","6600 MADISON ST","NEW PORT RICHEY","FL","34652","12101",28.2540628880001,-82.714890457
40632578,"TWIN CITIES HOSPITAL","JC","Acute Stroke Ready","2190 HWY 85 N","NICEVILLE","FL","32578","12091",30.533589098,-86.49547732
27534471,"KINDRED HOSPITAL OCALA","JC","Primary","1500 SW 1ST AVE","OCALA","FL","34471","12083",29.1749043930001,-82.138994824
29034474,"OCALA REGIONAL MEDICAL CENTER","JC","Primary","1431 SW 1ST AVE","OCALA","FL","34474","12083",29.175396415,-82.1367917809999
15534761,"HEALTH CENTRAL","JC","Primary","10000 W COLONIAL DR","OCOEE","FL","34761","12095",28.549662416,-81.5276599279999
29232073,"ORANGE PARK MEDICAL CENTER","JC","Primary","2001 KINGSLEY AVE","ORANGE PARK","FL","32073","12019",30.165840239,-81.737589642
10232803,"ADVENTHEALTH ORLANDO","DNV","Comprehensive","601 E ROLLINS ST","ORLANDO","FL","32803","12095",28.574414351,-81.369996427
11832822,"ADVENTHEALTH EAST ORLANDO","DNV","Primary","7727 LAKE UNDERHILL RD","ORLANDO","FL","32822","12095",28.5399802540001,-81.281540116
178432765,"OVIEDO MEDICAL CENTER","JC","Primary","8300 RED BUG LAKE RD","OVIEDO","FL","32765","12117",28.6578410000001,-81.228064
32232177,"PUTNAM COMMUNITY MEDICAL CENTER","JC","Primary","611 ZEAGLER DR","PALATKA","FL","32177","12107",29.6423617140001,-81.69241585
29932907,"PALM BAY HOSPITAL","JC","Primary","1425 MALABAR RD NE","PALM BAY","FL","32907","12009",27.99942824,-80.610948849
30033410,"PALM BEACH GARDENS MEDICAL CENTER","JC","Primary","3360 BURNS RD","PALM BEACH GARDENS","FL","33410","12099",26.8296139,-80.086569916
2632401,"BAY AREA CENTER SACRED HEART HEALTH SYSTEM","JC","Primary","615 N BONITA AVE","PANAMA CITY","FL","32401","12005",30.1597318300001,-85.6475323779999
14632405,"GULF COAST MEDICAL CENTER","JC","Primary","449 W 23RD ST","PANAMA CITY","FL","32405","12005",30.187915882,-85.665176203
25633024,"MEMORIAL HOSPITAL PEMBROKE","JC","Primary","7800 SHERIDAN ST","PEMBROKE PINES","FL","33024","12011",26.029793102,-80.245584816
25733028,"MEMORIAL HOSPITAL WEST","JC","Thrombectomy","703 N FLAMINGO RD","PEMBROKE PINES","FL","33028","12011",26.0130154080001,-80.310800362
1132501,"BAPTIST HOSPITAL","DNV","Thrombectomy","1000 W MORENO ST","PENSACOLA","FL","32501","12033",30.429417895,-87.230420903
184632504,"ASCENSION SACRED HEART HOSPITAL PENSACOLA","DNV","Comprehensive","5151 NORTH 9TH AVENUE","PENSACOLA","FL","32504","12033",30.4757070000001,-87.211843
42232514,"WEST FLORIDA HOSPITAL","JC","Primary","8383 N DAVIS HWY","PENSACOLA","FL","32514","12033",30.5156806420001,-87.217895142
36433563,"SOUTH FLORIDA BAPTIST HOSPITAL","DNV","Primary","301 N ALEXANDER ST","PLANT CITY","FL","33563","12057",28.0156788480001,-82.138929363
31733317,"PLANTATION GENERAL HOSPITAL","JC","Primary","401 NW 42ND AVE","PLANTATION","FL","33317","12011",26.1264094490001,-80.205267662
43133324,"WESTSIDE REGIONAL MEDICAL CENTER","JC","Thrombectomy","8201 W BROWARD BLVD","PLANTATION","FL","33324","12011",26.1232936660001,-80.2597341539999
31433952,"BAYFRONT HEALTH PORT CHARLOTTE","JC","Primary","2500 HARBOR BLVD","PORT CHARLOTTE","FL","33952","12015",26.988925185,-82.0956902579999
9533952,"FAWCETT MEMORIAL HOSPITAL","JC","Primary","21298 OLEAN BLVD","PORT CHARLOTTE","FL","33952","12015",26.9884183120001,-82.098069287
39034952,"ST LUCIE MEDICAL CENTER","JC","Primary","1800 SE TIFFANY AVE","PORT SAINT LUCIE","FL","34952","12111",27.288428004,-80.294296028
6333950,"BAYFRONT HEALTH PUNTA GORDA","JC","Primary","809 E MARION AVE","PUNTA GORDA","FL","33950","12015",26.9409464170001,-82.040277401
36533578,"ST JOSEPH'S HOSPITAL SOUTH","DNV","Primary","6901 SIMMONS LOOP","RIVERVIEW","FL","33578","12057",27.787781212,-82.34510464
44032955,"ROCKLEDGE REGIONAL MEDICAL CENTER","JC","Primary","110 LONGWOOD AVE","ROCKLEDGE","FL","32955","12009",28.334993796,-80.7228254409999
24334695,"MEASE COUNTRYSIDE HOSPITAL","DNV","Primary","3231 MCMULLEN BOOTH RD","SAFETY HARBOR","FL","34695","12103",28.0387469780001,-82.707985172
9832086,"FLAGLER HOSPITAL","JC","Primary","400 HEALTH PARK BLVD","SAINT AUGUSTINE","FL","32086","12109",29.86302203,-81.31709583
3133701,"BAYFRONT HEALTH ST PETERSBURG","DNV","Comprehensive","701 6TH ST S","SAINT PETERSBURG","FL","33701","12103",27.7634206110001,-82.6420818679999
37833705,"ST ANTHONYS HOSPITAL","DNV","Primary","1200 7TH AVE N","SAINT PETERSBURG","FL","33705","12103",27.7786166170001,-82.650529722
30433707,"PALMS OF PASADENA HOSPITAL","JC","Primary","1501 PASADENA AVE S","SAINT PETERSBURG","FL","33707","12103",27.7530805050001,-82.740141461
28633709,"NORTHSIDE HOSPITAL","DNV","Comprehensive","6000 49TH ST N","SAINT PETERSBURG","FL","33709","12103",27.8255595960001,-82.702111988
39333710,"ST PETERSBURG GENERAL HOSPITAL","JC","Primary","6500 38TH AVE N","SAINT PETERSBURG","FL","33710","12103",27.8054392110001,-82.727538744
6232771,"CENTRAL FLORIDA REGIONAL HOSPITAL","JC","Primary","1401 W SEMINOLE BLVD","SANFORD","FL","32771","12117",28.814536167,-81.28363207
7834233,"DOCTORS HOSPITAL OF SARASOTA","JC","Primary","5731 BEE RIDGE RD","SARASOTA","FL","34233","12115",27.3019576310001,-82.453350609
33734239,"SARASOTA MEMORIAL HOSPITAL","DNV","Comprehensive","1700 S TAMIAMI TRL","SARASOTA","FL","34239","12115",27.317850784,-82.5310823419999
12233872,"ADVENTHEALTH SEBRING","JC","Primary","4200 SUN N LAKE BLVD","SEBRING","FL","33872","12055",27.539751274,-81.5092099839999
23934994,"CLEVELAND CLINIC MARTIN NORTH","JC","Primary","200 SE HOSPITAL AVE","STUART","FL","34994","12085",27.1999986600001,-80.2428133619999
36233573,"SOUTH BAY HOSPITAL","JC","Primary","4016 SUN CITY CENTER BLVD","SUN CITY CENTER","FL","33573","12057",27.7135511270001,-82.365391411
5632308,"CAPITAL REGIONAL MEDICAL CENTER","JC","Primary","2626 CAPITAL MEDICAL BLVD","TALLAHASSEE","FL","32308","12073",30.475713462,-84.231545335
39632308,"TALLAHASSEE MEMORIAL HOSPITAL","JC","Primary","1300 MICCOSUKEE RD","TALLAHASSEE","FL","32308","12073",30.456880933,-84.261407288
40933321,"UNIVERSITY HOSPITAL AND MEDICAL CENTER","JC","Primary","7201 N UNIVERSITY DR","TAMARAC","FL","33321","12011",26.2121503280001,-80.254154295
39833606,"TAMPA GENERAL HOSPITAL","HFAP","Comprehensive","1 TAMPA GENERAL CIR","TAMPA","FL","33606","12057",27.9379627000001,-82.459155316
38533607,"ST JOSEPH'S HOSPITAL","DNV","Comprehensive","3001 W DR. MARTIN LUTHER KING JR BLVD","TAMPA","FL","33607","12057",27.98214009,-82.491851476
25233609,"MEMORIAL HOSPITAL OF TAMPA","JC","Primary","2901 SWANN AVE","TAMPA","FL","33609","12057",27.9379217800001,-82.4899045459999
13233613,"ADVENTHEALTH TAMPA","JC","Primary","3100 E FLETCHER AVE","TAMPA","FL","33613","12057",28.0710959690001,-82.4240611769999
41632159,"THE VILLAGES REGIONAL HOSPITAL, THE","JC","Primary","1451 EL CAMINO REAL","THE VILLAGES","FL","32159","12119",28.950158779,-81.958335351
30932796,"PARRISH MEDICAL CENTER","JC","Primary","951 N WASHINGTON AVE","TITUSVILLE","FL","32796","12009",28.63074177,-80.824201472
24634655,"MEDICAL CENTER OF TRINITY","JC","Primary","9330 FL-54","TRINITY","FL","34655","12101",28.2039334180001,-82.660060587
41334285,"VENICE REGIONAL MEDICAL CENTER","JC","Primary","540 THE RIALTO","VENICE","FL","34285","12115",27.0911641600001,-82.445089178
17932960,"CLEVELAND CLINIC INDIAN RIVER MEDICAL CENTER","JC","Primary","1000 36TH ST","VERO BEACH","FL","32960","12061",27.6584231050001,-80.3951633139999
41933414,"WELLINGTON REGIONAL MEDICAL CENTER","JC","Primary","10101 FOREST HILL BLVD","WELLINGTON","FL","33414","12099",26.6516621760001,-80.205063632
36833544,"ADVENTHEALTH WESLEY CHAPEL","DNV","Primary","2600 BRUCE B DOWNS BLVD","WESLEY CHAPEL","FL","33544","12101",28.195624133,-82.351142607
39133407,"ST MARY'S MEDICAL CENTER","JC","Primary","901 45TH ST","WEST PALM BEACH","FL","33407","12099",26.755871143,-80.0624620309999
6733326,"CLEVELAND CLINIC HOSPITAL","JC","Primary","3100 WESTON RD","WESTON","FL","33326","12011",26.0819221680001,-80.364894753
43433881,"WINTER HAVEN HOSPITAL","DNV","Thrombectomy","200 AVE F NE","WINTER HAVEN","FL","33881","12105",28.0284833370001,-81.725611687
43632792,"ADVENTHEALTH WINTER PARK MEMORIAL HOSPITAL","DNV","Primary","200 N LAKEMONT AVE","WINTER PARK","FL","32792","12095",28.5986447920001,-81.326911138
13533541,"ADVENTHEALTH ZEPHYRHILLS","JC","Primary","7050 GALL BLVD","ZEPHYRHILLS","FL","33541","12101",28.2615014730001,-82.185313218
14931701,"PHOEBE PUTNEY MEMORIAL HOSPITAL","DNV","Primary","417 THIRD AVENUE","ALBANY","GA","31701","13095",31.590219754,-84.1586234659999
15530606,"ST MARYS HEALTH CARE SYSTEM","JC","Primary","1230 BAXTER STREET","ATHENS","GA","30606","13059",33.9472213170001,-83.4052524589999
14030606,"PIEDMONT ATHENS REGIONAL MED CENTER","DNV","Primary","1199 PRINCE AVENUE","ATHENS","GA","30606","13059",33.961292466,-83.397945072
17930303,"GRADY MEMORIAL HOSPITAL","JC","Comprehensive","80 JESSE HILL, JR DRIVE SE","ATLANTA","GA","30303","13121",33.751988554,-84.3817915719999
86130308,"EMORY UNIVERSITY HOSPITAL MIDTOWN","JC","Primary","550 PEACHTREE ST NE","ATLANTA","GA","30308","13121",33.7691746610001,-84.386731573
15030309,"PIEDMONT HOSPITAL","DNV","Primary","1968 PEACHTREE ROAD NW","ATLANTA","GA","30309","13121",33.80881537,-84.394415344
17830312,"WELLSTAR ATLANTA MEDICAL CENTER","JC","Primary","303 PARKWAY DRIVE NE","ATLANTA","GA","30312","13121",33.76295,-84.37339
16230342,"NORTHSIDE HOSPITAL","JC","Primary","1000 JOHNSON FERRY ROAD NE","ATLANTA","GA","30342","13121",33.908911629,-84.353924636
18230901,"UNIVERSITY HEALTH CARE SYSTEM","JC","Primary","1350 WALTON WAY","AUGUSTA","GA","30901","13245",33.470684852,-81.982510565
18830909,"DOCTORS HOSPITAL","JC","Primary","3651 WHEELER ROAD","AUGUSTA","GA","30909","13245",33.4861599660001,-82.094432454
87230912,"AU MEDICAL CENTER","JC","Comprehensive","1120 15TH STREET","AUGUSTA","GA","30912","13245",33.470876334,-81.989705724
13130106,"WELLSTAR COBB HOSPITAL","JC","Primary","3950 AUSTELL ROAD","AUSTELL","GA","30106","13067",33.8575419690001,-84.6050249039999
900000197,"NORTHEAST GEORGIA MEDICAL CENTER, INC. – BRASELTON CAMPUS","DNV","Primary","1400 RIVER PL","BRASELTON","GA","30517",,34.12011456,-83.83813439
3830110,"HIGGINS GENERAL HOSPITAL","JC","Acute Stroke Ready","200 ALLEN MEMORIAL DRIVE","BREMEN","GA","30110","13143",33.7167272400001,-85.145020288
182330115,"NORTHSIDE HOSPITAL - CHEROKEE","JC","Primary","450 NORTHSIDE CHEROKEE BOULEVARD","CANTON","GA","30115","13057",34.2292380000001,-84.466259
86230117,"TANNER MEDICAL CENTER - CARROLLTON","JC","Primary","705 DIXIE STREET","CARROLLTON","GA","30117","13045",33.569477717,-85.0752261979999
12830120,"CARTERSVILLE MEDICAL CENTER","JC","Primary","960 JOE FRANK HARRIS PARKWAY","CARTERSVILLE","GA","30120","13015",34.2004938920001,-84.794833594
24330125,"POLK MEDICAL CENTER","JC","Acute Stroke Ready","2360 ROCKMART HWY","CEDARTOWN","GA","30125","13233",34.0138168660001,-85.196271579
83531901,"PIEDMONT COLUMBUS REGIONAL MIDTOWN","JC","Primary","710 CENTER ST, BOX 951","COLUMBUS","GA","31901","13215",32.4808587160001,-84.981177019
15231904,"ST FRANCIS HOSPITAL","JC","Primary","2122 MANCHESTER EXPRESSWAY","COLUMBUS","GA","31904","13215",32.5063854160001,-84.960678994
2330012,"PIEDMONT ROCKDALE HOSPITAL","DNV","Acute Stroke Ready","1412 MILSTEAD AVENUE NE","CONYERS","GA","30012","13247",33.6807238280001,-84.001575245
6130041,"NORTHSIDE HOSPITAL FORSYTH","JC","Primary","1200 NORTHSIDE FORSYTH DR","CUMMING","GA","30041","13117",34.177597056,-84.141471795
83130720,"HAMILTON MEDICAL CENTER","JC","Primary","1200 MEMORIAL DRIVE","DALTON","GA","30720","13313",34.789734932,-84.984976922
83030033,"EMORY DECATUR HOSPITAL","JC","Primary","2701 N DECATUR ROAD","DECATUR","GA","30033","13089",33.791089135,-84.2829100989999
89630535,"HABERSHAM COUNTY MEDICAL CTR","DNV","Primary","541 HISTORIC HIGHWAY 441-NORTH","DEMOREST","GA","30535","13137",34.5814420840001,-83.536859052
17630322,"EMORY UNIVERSITY HOSPITAL","JC","Comprehensive","1364 CLIFTON ROAD NE","DRUID HILLS","GA","30322","13089",33.7920228250001,-84.322263202
11231021,"FAIRVIEW PARK HOSPITAL","JC","Primary","200 INDUSTRIAL BOULEVARD","DUBLIN","GA","31021","13175",32.5321545950001,-82.9504093149999
87630214,"PIEDMONT FAYETTE HOSPITAL","DNV","Primary","1255 HIGHWAY 54 WEST","FAYETTEVILLE","GA","30214","13113",33.452147106,-84.507989992
83830501,"NORTHEAST GEORGIA MEDICAL CENTER, INC","DNV","Primary","743 SPRING STREET","GAINESVILLE","GA","30501","13139",34.30325528,-83.817928197
85330223,"WELLSTAR SPALDING REGIONAL HOSPITAL","JC","Primary","601 SOUTH 8TH STREET","GRIFFIN","GA","30223","13255",33.2392302260001,-84.2676990479999
22730097,"EMORY JOHNS CREEK HOSPITAL","JC","Primary","6325 HOSPITAL PARKWAY","JOHNS CREEK","GA","30097","13121",34.06667514,-84.176628082
7130045,"NORTHSIDE HOSPITAL GWINNETT","JC","Primary","1000 MEDICAL CENTER BOULEVARD","LAWRENCEVILLE","GA","30045","13135",33.963676778,-84.0175634509999
87031201,"MEDICAL CENTER NAVICENT HEALTH","DNV","Primary","777 HEMLOCK STREET","MACON","GA","31201","13021",32.8332538830001,-83.635505317
3231210,"COLISEUM NORTHSIDE HOSPITAL","JC","Primary","400 CHARTER BOULEVARD","MACON","GA","31210","13021",32.871591962,-83.694710868
16431213,"COLISEUM MEDICAL CENTERS","JC","Primary","350 HOSPITAL DRIVE","MACON","GA","31213","13021",32.847408178,-83.618685211
14830060,"WELLSTAR KENNESTONE HOSPITAL","JC","Comprehensive","677 CHURCH STREET","MARIETTA","GA","30060","13067",33.967952542,-84.551352111
15930263,"PIEDMONT NEWNAN HOSPITAL","DNV","Primary","745 POPLAR ROAD","NEWNAN","GA","30263","13077",33.3571285530001,-84.755019036
13230274,"SOUTHERN REGIONAL MEDICAL CENTER","JC","Primary","11 UPPER RIVERDALE ROAD SW","RIVERDALE","GA","30274","13063",33.5790197910001,-84.389951417
14330165,"FLOYD MEDICAL CENTER","JC","Primary","304 TURNER MCCALL BOULEVARD","ROME","GA","30165","13115",34.2597534720001,-85.179145316
16530165,"REDMOND REGIONAL MEDICAL CENTER","JC","Primary","501 REDMOND ROAD","ROME","GA","30165","13115",34.2767933860001,-85.194929292
83630076,"WELLSTAR NORTH FULTON HOSPITAL","JC","Primary","3000 HOSPITAL BOULEVARD","ROSWELL","GA","30076","13121",34.0633213180001,-84.3199724679999
18130342,"SAINT JOSEPHS HOSPITAL OF ATLANTA","JC","Primary","5665 PEACHTREE DUNWOODY RD NE","SANDY SPRINGS","GA","30342","13121",33.908757978,-84.3489835
331404,"MEMORIAL HEALTH UNIV MED CEN, INC","DNV","Comprehensive","4700 WATERS AVENUE","SAVANNAH","GA","31404","13051",32.030530877,-81.088862423
84031412,"CANDLER HOSPITAL","JC","Primary","5353 REYNOLDS STREET","SAVANNAH","GA","31412","13051",32.0281666670001,-81.1001092509999
85531419,"ST JOSEPH'S HOSPITAL - SAVANNAH","JC","Primary","11705 MERCY BOULEVARD","SAVANNAH","GA","31419","13051",31.985430321,-81.154556369
12330078,"EASTSIDE MEDICAL CENTER","JC","Primary","1700 MEDICAL WAY","SNELLVILLE","GA","30078","13135",33.877568549,-84.021073872
10930458,"EAST GEORGIA REGIONAL MEDICAL CENTER","JC","Primary","1499 FAIR ROAD","STATESBORO","GA","30458","13031",32.414791392,-81.7699610069999
84130281,"PIEDMONT HENRY HOSPITAL","DNV","Primary","1133 EAGLE'S LANDING PARKWAY","STOCKBRIDGE","GA","30281","13151",33.5103354300001,-84.227295178
85131603,"SOUTH GEORGIA MEDICAL CENTER","JC","Primary","2501 NORTH PATTERSON STREET, PO BOX 1727","VALDOSTA","GA","31603","13185",30.86227044,-83.2864703609999
89730474,"MEADOWS REGIONAL MEDICAL CENTER","DNV","Acute Stroke Ready","ONE MEADOWS PARKWAY","VIDALIA","GA","30474","13279",32.208595266,-82.375247203
88530180,"TANNER MEDICAL CENTER VILLA RICA","JC","Primary","601 DALLAS HIGHWAY","VILLA RICA","GA","30180","13045",33.7442837610001,-84.916671019
3730680,"NORTHEAST GEORGIA MEDICAL CENTER BARROW","DNV","Primary","316 NORTH BROAD STREET","WINDER","GA","30680","13013",34.0080530000001,-83.707254
7050010,"MARY GREELEY MEDICAL CENTER","DNV","Primary","1111 DUFF AVE","AMES","IA","50010","19169",42.0325913280001,-93.611506033
13952722,"UNITY POINT HEALTH TRINITY","JC","Primary","4500 UTICA RIDGE ROAD","BETTENDORF","IA","52722","19163",41.566071806,-90.5197400609999
7352402,"ST. LUKE'S METHODIST HOSPITAL","JC","Primary","1026 A AVENUE NE","CEDAR RAPIDS","IA","52402","19113",41.9852377180001,-91.660586683
7452403,"MERCY MEDICAL CENTER","JC","Primary","701 TENTH STREET SE","CEDAR RAPIDS","IA","52403","19113",41.9782564650001,-91.655828564
11051502,"CHI HEALTH MERCY HOSPITAL","JC","Primary","800 MERCY DRIVE","COUNCIL BLUFFS","IA","51502","19155",41.2687867320001,-95.838794319
93151503,"METHODIST JENNIE EDMUNDSON","JC","Primary","933 EAST PIERCE STREET","COUNCIL BLUFFS","IA","51503","19155",41.2685824590001,-95.835357469
10152803,"GENESIS MEDICAL CENTER-DAVENPORT","JC","Primary","1227 EAST RUSHOLME STREET","DAVENPORT","IA","52803","19163",41.5421679670001,-90.557257401
9850308,"IOWA METHODIST MEDICAL CENTER","DNV","Primary","1200 PLEASANT STREET","DES MOINES","IA","50308","19153",41.589443326,-93.63381099
92950314,"MERCY MEDICAL CENTER-DES MOINES","JC","Primary","1111 6TH AVENUE","DES MOINES","IA","50314","19153",41.5987815890001,-93.6231191369999
95152001,"MERCY MEDICAL CENTER-DUBUQUE","JC","Primary","250 MERCY DRIVE","DUBUQUE","IA","52001","19061",42.4925056430001,-90.674778627
92452001,"UNITYPOINT HEALTHCARE-FINLEY HOSPITAL","JC","Primary","350 NORTH GRANDVIEW AVENUE","DUBUQUE","IA","52001","19061",42.496256982,-90.686159015
4850501,"TRINITY REGIONAL HOSPITAL","DNV","Primary","802 SOUTH KENYON ROAD","FORT DODGE","IA","50501","19187",42.492210175,-94.192179572
9052242,"UNIVERSITY OF IOWA HOSPITAL & CLINICS","JC","Comprehensive","200 HAWKINS DRIVE","IOWA CITY","IA","52242","19103",41.6608156890001,-91.5475474199999
8752245,"MERCY HOSPITAL","JC","Primary","500 EAST MARKET STREET","IOWA CITY","IA","52245","19103",41.663871483,-91.5279013639999
95250401,"MERCY MEDICAL CENTER-NORTH IOWA","JC","Primary","1000 FOURTH STREET SW","MASON CITY","IA","50401","19033",43.1500755810001,-93.216719309
11851566,"MONTGOMERY COUNTY MEMORIAL HOSPITAL","JC","Primary","2301 EASTERN AVENUE","RED OAK","IA","51566","19137",41.014317077,-95.216522459
4251101,"MERCY MEDICAL CENTER SIOUX CITY","JC","Primary","801 5TH STREET","SIOUX CITY","IA","51101","19193",42.4958422240001,-96.399903761
4051104,"ST. LUKES'S REGIONAL MEDICAL CENTER","DNV","Primary","2720 STONE PARK BOULEVARD","SIOUX CITY","IA","51104","19193",42.5194501730001,-96.405942017
4450703,"ALLEN MEMORIAL HOSPITAL","JC","Primary","1825 LOGAN AVENUE","WATERLOO","IA","50703","19013",42.5267548160001,-92.33893747
262002,"ALTON MEMORIAL HOSPITAL","JC","Primary","ONE MEMORIAL DRIVE","ALTON","IL","62002","17119",38.8995843230001,-90.159149644
2662002,"OSF SAINT ANTHONY'S HEALTH CENTER","JC","Primary","ST ANTHONY'S WAY","ALTON","IL","62002","17119",38.907995875,-90.173293381
11860005,"NORTHWEST COMMUNITY HOSPITAL","JC","Comprehensive","800 W CENTRAL ROAD","ARLINGTON HEIGHTS","IL","60005","17031",42.0682911060001,-87.992181634
1360504,"COPLEY MEMORIAL HOSPITAL INC DBA RUSH COPLEY MEDICAL CENTER","JC","Primary","2000 OGDEN AVENUE","AURORA","IL","60504","17089",41.7290071840001,-88.270615983
8460506,"PRESENCE CENTRAL AND SUBURBAN HOSPITALS NETWORK DBA PRESENCE MERCY MEDICAL CENTER","JC","Primary","1325 N HIGHLAND AVENUE","AURORA","IL","60506","17089",41.7858095500001,-88.325769044
12860010,"ADVOCATE GOOD SHEPHERD HOSPITAL","DNV","Primary","450 WEST HIGHWAY 22","BARRINGTON","IL","60010","17097",42.1953823710001,-88.1728188709999
2860402,"GOTTLEB CO HEALTH SERVICES CORPORATION DBA MACNEAL HOSPITAL","JC","Primary","3249 SOUTH OAK PARK AVENUE","BERWYN","IL","60402","17031",41.8319833210001,-87.792156701
7961701,"ST JOSEPH MEDICAL CENTER","JC","Primary","2200 E WASHINGTON","BLOOMINGTON","IL","61701","17113",40.4826765880001,-88.955562196
13360440,"ADVENTIST BOLINGBROOK HOSPITAL","JC","Primary","500 REMINGTON BOULEVARD","BOLINGBROOK","IL","60440","17197",41.6808649600001,-88.0846514409999
8062901,"MEMORIAL HOSPITAL OF CARBONDALE","JC","Primary","405 W JACKSON","CARBONDALE","IL","62901","17077",37.727445549,-89.220592531
1060608,"MT SINAI HOSPITAL MEDICAL CENTER","JC","Primary","15TH STREET AT CALIFORNIA","CHICAGO","IL","60608","17031",41.8608097260001,-87.694338583
12360611,"NORTHWESTERN MEMORIAL HOSPITAL","JC","Comprehensive","251 E HURON ST","CHICAGO","IL","60611","17031",41.894607713,-87.621024366
6260612,"JOHN H STROGER JR HOSPITAL","JC","Primary","1901 W HARRISON ST","CHICAGO","IL","60612","17031",41.8723348670001,-87.674398458
5960612,"RUSH UNIVERSITY MEDICAL CENTER","JC","Comprehensive","1653 WEST CONGRESS PARKWAY","CHICAGO","IL","60612","17031",41.8745718600001,-87.668909819
7360612,"UNIVERSITY OF ILLINOIS HOSPITAL","JC","Comprehensive","1740 WEST TAYLOR ST, SUITE 1400","CHICAGO","IL","60612","17031",41.869668774,-87.6705153729999
7660616,"MERCY HOSPITAL AND MEDICAL CENTER","HFAP","Primary","2525 S MICHIGAN AVE","CHICAGO","IL","60616","17031",41.8468895830001,-87.621491598
2260617,"ADVOCATE TRINITY HOSPITAL","DNV","Primary","2320 E 93RD ST","CHICAGO","IL","60617","17031",41.726504393,-87.567226181
99760622,"PRESENCE CHICAGO HOSPITALS NETWORK DBA PRESENCE SAINT ELIZABETH HOSPITAL","JC","Primary","1431 N. CLAREMONT AVENUE","CHICAGO","IL","60622","17031",41.9075855830001,-87.6863100959999
10060622,"NORWEGIAN-AMERICAN HOSPITAL","HFAP","Primary","1044 N FRANCISCO AVE","CHICAGO","IL","60622","17031",41.9007998380001,-87.699095477
4860623,"ST ANTHONY HOSPITAL","JC","Primary","2875 WEST 19TH STREET","CHICAGO","IL","60623","17031",41.855214534,-87.698276963
5460625,"SWEDISH COVENANT HOSPITAL","HFAP","Primary","5145 N CALIFORNIA AVE","CHICAGO","IL","60625","17031",41.975351554,-87.69946587
6660629,"HOLY CROSS HOSPITAL","HFAP","Primary","2701 W 68TH STREET","CHICAGO","IL","60629","17031",41.769406691,-87.6923803299999
99460631,"PRESENCE CHICAGO HOSPITALS NETWORK DBA PRESENCE RESURRECTION MEDICAL CENTER","DNV","Comprehensive","7435 WEST TALCOTT AVENUE","CHICAGO","IL","60631","17031",41.9875391960001,-87.813565535
11760634,"COMMUNITY FIRST HEALTHCARE OF ILLINOIS DBA MEDICAL CENTER","JC","Primary","5645 W ADDISON","CHICAGO","IL","60634","17031",41.945445508,-87.7678359129999
4360637,"THE UNIVERSITY OF CHICAGO MEDICAL CENTER","JC","Comprehensive","5841 SOUTH MARYLAND","CHICAGO","IL","60637","17031",41.788746851,-87.604337126
4060640,"PIPELINE WESS MEMORIAL HOSPITAL DBA LOUIS A WEISS MEMORIAL HOSPITAL","JC","Primary","4646 N MARINE DRIVE","CHICAGO","IL","60640","17031",41.966468354,-87.6496268079999
10860657,"PRESENCE SAINT JOSEPH HOSPITAL","JC","Primary","2900 NORTH LAKE SHORE DRIVE","CHICAGO","IL","60657","17031",41.9338207050001,-87.637069094
9060657,"ADVOCATE NORTHSIDE HEALTH NETWORK DBA ILLINOIS MASONIC MEDICAL CENTER","DNV","Comprehensive","836 WEST WELLINGTON AVENUE","CHICAGO","IL","60657","17031",41.9367408480001,-87.651371663
4761832,"OSF HEALTHCARESYSTEM DBA SACRED HEART MEDICAL CENTER","JC","Primary","812 N LOGAN","DANVILLE","IL","61832","17183",40.137832453,-87.6454332439999
8162521,"ST MARYS HOSPITAL","JC","Primary","1800 E LAKE SHORE DR","DECATUR","IL","62521","17115",39.8274529510001,-88.9316826309999
6762526,"DECATUR MEMORIAL HOSPITAL","JC","Primary","2300 NORTH EDWARD STREET","DECATUR","IL","62526","17115",39.8672533980001,-88.960982947
12460115,"KISHWAUKEE COMMUNITY HOSPITAL","JC","Primary","ONE KISH HOSPITAL DRIVE","DEKALB","IL","60115","17037",41.9613962110001,-88.7228915489999
12560515,"ADVOCATE GOOD SAMARITAN HOSPITAL","DNV","Primary","3815 HIGHLAND AVENUE","DOWNERS GROVE","IL","60515","17043",41.818466233,-88.008115655
10660123,"PRESENCE SAINT JOSEPH HOSPITAL","JC","Primary","77 N AIRLITE STREET","ELGIN","IL","60123","17089",42.035269532,-88.3269471309999
1460123,"ADVOCATE SHERMAN HOSPITAL","DNV","Primary","1425 NORTH RANDALL ROAD","ELGIN","IL","60123","17089",42.0705874240001,-88.330702301
11960007,"ALEXIAN BROTHERS MEDICAL CENTER","JC","Comprehensive","800 W BIESTERFIELD RD","ELK GROVE VILLAGE","IL","60007","17031",42.0046568230001,-88.0168922779999
9860126,"ELMHURST MEMORIAL HOSPITAL","JC","Primary","155 EAST BRUSH HILL ROAD","ELMHURST","IL","60126","17043",41.863761991,-87.935579144
97860201,"NORTHSHORE UNIVERSITY HEALTHSYSTEM DBA EVANSTON HOSPITAL","JC","Primary","2650 RIDGE AVENUE","EVANSTON","IL","60201","17031",42.065533499,-87.6847127729999
3960202,"PRESENCE CHICAGO HOSPITALS NETWORK DBA PRESENCE SAINT FRANCIS HOSPITAL","JC","Primary","355 RIDGE AVE","EVANSTON","IL","60202","17031",42.0243893370001,-87.684568052
8760805,"LITTLE COMPANY OF MARY HOSPITAL","JC","Primary","2800 W 95TH ST","EVERGREEN PARK","IL","60805","17031",41.721464999,-87.693028878
1961401,"GALESBURG COTTAGE HOSPITAL","JC","Primary","695 N KELLOGG ST","GALESBURG","IL","61401","17095",40.95579903,-90.365760264
10460134,"DELNOR COMMUNITY HOSPITAL","JC","Primary","300 RANDALL RD","GENEVA","IL","60134","17089",41.886614965,-88.343450363
12960139,"ADVENTIST GLENOAKS","JC","Primary","701 WINTHROP AVENUE","GLENDALE HEIGHTS","IL","60139","17043",41.9148248980001,-88.056976526
16760033,"MERCY HARVARD HOSPITAL","JC","Acute Stroke Ready","901 GRANT STREET","HARVARD","IL","60033","17111",42.426236913,-88.60704005
9660426,"INGALLS MEMORIAL HOSPITAL","DNV","Primary","ONE INGALLS DRIVE","HARVEY","IL","60426","17031",41.607379973,-87.65941817
11660429,"ADVOCATE SOUTH SUBURBAN HOSPITAL","DNV","Primary","17800 S KEDZIE AVE","HAZEL CREST","IL","60429","17031",41.5663040370001,-87.697569734
662948,"HERRIN HOSPITAL","JC","Primary","201 S 14TH ST","HERRIN","IL","62948","17199",37.8010121,-89.026313269
6160521,"ADVENTIST MIDWEST HEALTH DBA ADVENTIST HINSDALE HOSPITAL","JC","Primary","120 NORTH OAK ST","HINSDALE","IL","60521","17043",41.80591716,-87.9212213179999
12760169,"ST ALEXIUS MEDICAL CENTER","JC","Primary","1555 N BARRINGTON RD","HOFFMAN ESTATES","IL","60169","17031",42.052928459,-88.1410342249999
360435,"PRESENCE CENTRAL AND SUBURBAN HOSPITALS NETWORK DBA PRESENCE ST JOSEPH MEDICAL CENTER","DNV","Comprehensive","333 N MADISON","JOLIET","IL","60435","17197",41.5278489880001,-88.135787442
7560901,"PRESENCE CENTRAL AND SUBURBAN HOSPITALS NETWORK DBA PRECENCE ST MARYS HOSPITAL","JC","Primary","500 W COURT ST","KANKAKEE","IL","60901","17091",41.120716481,-87.8719724489999
9360901,"RIVERSIDE MEDICAL CENTER","DNV","Primary","350 N WALL ST","KANKAKEE","IL","60901","17091",41.125086857,-87.8818988909999
3460525,"ADVENTIST MIDWEST HEALTH DBA ADVENTIST LA GRANGE MEMORIAL HOSPITAL","JC","Primary","5101 S WILLOW SPRINGS RD","LA GRANGE","IL","60525","17031",41.7970605520001,-87.886394926
196060045,"NORTHWESTERN LAKE FOREST HOSPITAL","JC","Primary","1000 N WESTMORELAND RD","LAKE FOREST","IL","60045","17097",42.2557943240001,-87.865414748
9960048,"ADVOCATE CONDELL MEDICAL CENTER","DNV","Primary","801 S MILWAUKEE AVE","LIBERTYVILLE","IL","60048","17097",42.2742350020001,-87.957699742
12160153,"FOSTER G MCGAW HOSPITAL LOYOLA UNIVERSITY MEDICAL CENTER","JC","Comprehensive","2160 S 1ST AVENUE","MAYWOOD","IL","60141","17031",41.8606827780001,-87.8347220859999
5660050,"NORTHWESTERN MEDICINE MCHENRY WOODSTOCK HUNTLEY HOSPITAL","JC","Primary","4201 MEDICAL CENTER DRIVE","MCHENRY","IL","60050","17111",42.31779814,-88.279468003
5060450,"MORRIS HOSPITAL & HEALTHCARE CENTERS","HFAP","Primary","150 W HIGH ST","MORRIS","IL","60450","17063",41.3693259020001,-88.426753306
101262864,"GOOD SAMARITAN REGIONAL HEALTH CENTER MT VERNON","JC","Primary","1 GOOD SAMARITAN WAY","MT. VERNON","IL","62864","17081",38.2974176980001,-88.938580385
11060540,"EDWARD HOSPITAL","DNV","Comprehensive","801 SOUTH WASHINGTON","NAPERVILLE","IL","60540","17043",41.7609656440001,-88.1499847329999
10560451,"SILVER CROSS HOSPITAL AND MEDICAL CENTERS","JC","Primary","1900 SILVER CROSS BLVD","NEW LENOX","IL","60451","17197",41.54468733,-87.98343597
6461761,"ADVOCATE HEALTH AND HOSPITALS CORPORATION DBA ADVOCATE BROMENN HEALTHCARE","DNV","Primary","1304 FRANKLIN AVENUE","NORMAL","IL","61761","17113",40.496970979,-88.9908500019999
10160453,"ADVOCATE CHRIST HOSPITAL & MEDICAL CENTER","DNV","Comprehensive","4440 W 95TH STREET","OAK LAWN","IL","60453","17031",41.7216945170001,-87.732442245
2360302,"WEST SUBURBAN MEDICAL CENTER","JC","Primary","3 ERIE COURT","OAK PARK","IL","60302","17031",41.8914014040001,-87.776179564
3260304,"RUSH OAK PARK HOSPITAL","JC","Primary","520 S MAPLE AVE","OAK PARK","IL","60304","17031",41.878618014,-87.803351533
10760068,"LUTHERAN GENERAL HOSPITAL ADVOCATE","DNV","Comprehensive","1775 DEMPSTER ST","PARK RIDGE","IL","60068","17031",42.038802226,-87.847334384
3561603,"SAINT FRANCIS MEDICAL CENTER","JC","Comprehensive","530 NE GLEN OAK AVE","PEORIA","IL","61603","17143",40.702746817,-89.591965425
10261603,"METHODIST MEDICAL CENTER OF ILLINOIS","JC","Primary","221 N E GLEN OAK AVE","PEORIA","IL","61606","17143",40.7003057960001,-89.594916836
962301,"BLESSING HOSPITAL","DNV","Primary","BROADWAY AT 11TH STREET","QUINCY","IL","62301","17001",39.936358882,-91.399457202
12261201,"TRINITY MEDICAL CENTER(WEST) DBA TRINITY ROCK ISLAND","JC","Primary","2701 17TH ST","ROCK ISLAND","IL","61201","17161",41.482615267,-90.570418129
11361103,"JAVON BEA HOSPITAL DBA MERCY HEALTH HOSPITAL ROCKTON AVE","DNV","Comprehensive","2400 NORTH ROCKTON AVENUE","ROCKFORD","IL","61101","17201",42.298427168,-89.098441351
11161108,"SAINT ANTHONY MEDICAL CENTER","DNV","Comprehensive","5666 EAST STATE STREET","ROCKFORD","IL","61107","17201",42.2698860130001,-89.007721583
2762703,"ST JOHNS HOSPITAL","JC","Primary","800 E CARPENTER ST","SPRINGFIELD","IL","62702","17167",39.805439016,-89.644008038
7262702,"MEMORIAL MEDICAL CENTER","JC","Comprehensive","701 N FIRST ST","SPRINGFIELD","IL","62702","17167",39.80936884,-89.6557791019999
5361801,"OSF HEALTHCARE SYSTEM HEART OF MARY MEDICAL CENTER","JC","Primary","1400 WEST PARK AVENUE","URBANA","IL","61801","17019",40.1179711090001,-88.227107261
4661801,"THE CARLE FOUNDATION HOSPITAL","DNV","Comprehensive","611 WEST PARK STREET","URBANA","IL","61801","17019",40.117041763,-88.2149486599999
4260085,"WAUKEGAN ILLINOIS HOSPITAL CO LLC DBA VISTA MEDICAL CENTER EAST","JC","Primary","1324 NORTH SHERIDAN ROAD","WAUKEGAN","IL","60085","17097",42.3783591870001,-87.8323664759999
11560190,"CENTRAL DUPAGE HOSPITAL","JC","Comprehensive","25 NORTH WINFIELD ROAD","WINFIELD","IL","60190","17043",41.8735205630001,-88.155758695
1446011,"COMMUNITY HOSPITAL OF ANDERSON AND MADISON COUNTY","JC","Primary","1515 N MADISON AVE","ANDERSON","IN","46011","18095",40.130645588,-85.693209184
12746016,"ST. VINCENT ANDERSON REGIONAL HOSPITAL","JC","Primary","2015 JACKSON ST","ANDERSON","IN","46016","18095",40.095484936,-85.681305944
7546123,"INDIANA UNIVERSITY HEALTH WEST HOSPITAL","JC","Primary","1111 N RONALD REAGAN PKWY","AVON","IN","46123","18063",39.7805043930001,-86.340446634
9047006,"MARGARET MARY HEALTH","JC","Acute Stroke Ready","321 MITCHELL AVE","BATESVILLE","IN","47006","18137",39.3050248960001,-85.222526188
6547403,"INDIANA UNIVERSITY HEALTH BLOOMINGTON HOSPITAL","JC","Primary","601 W SECOND ST","BLOOMINGTON","IN","47403","18105",39.15989295,-86.539893595
6846032,"INDIANA UNIVERSITY HEALTH NORTH HOSPITAL","JC","Primary","11700 N MERIDIAN ST","CARMEL","IN","46032","18057",39.959344478,-86.159655667
16047842,"UNION HOSPITAL CLINTON","HFAP","Acute Stroke Ready","801 S MAIN ST","CLINTON","IN","47842","18165",39.6529025080001,-87.39918421
3347331,"FAYETTE REGIONAL HEALTH SYSTEM","HFAP","Acute Stroke Ready","1941 VIRGINIA AVE","CONNERSVILLE","IN","47331","18041",39.6562381750001,-85.1326609979999
3746307,"FRANCISCAN ST ANTHONY HEALTH - CROWN POINT","HFAP","Primary","1201 S MAIN ST","CROWN POINT","IN","46307","18089",41.3956203400001,-87.366975004
5546122,"HENDRICKS REGIONAL HEALTH","HFAP","Primary","1000 E MAIN ST","DANVILLE","IN","46122","18063",39.761912163,-86.50188213
4446311,"FRANCISCAN ST MARGARET HEALTH - DYER","HFAP","Primary","24 JOLIET ST","DYER","IN","46311","18089",41.4923514610001,-87.524717438
13546312,"ST CATHERINE HOSPITAL INC","JC","Primary","4321 FIR ST","EAST CHICAGO","IN","46312","18089",41.6347893290001,-87.448822321
2946514,"ELKHART GENERAL HOSPITAL","JC","Primary","600 EAST BLVD","ELKHART","IN","46514","18039",41.6793473500001,-85.993270563
2147747,"ENCOMPASS HEALTH DEACONESS HOSPITAL INC","HFAP","Primary","600 MARY ST","EVANSVILLE","IN","47747","18163",37.983739541,-87.571106776
13947750,"ST MARY'S VINCENT EVANSVILLE INC","JC","Primary","3700 WASHINGTON AVE","EVANSVILLE","IN","47750","18163",37.963344449,-87.5029261509999
8746804,"LUTHERAN HOSPITAL OF INDIANA","DNV","Comprehensive","7950 W JEFFERSON BLVD","FORT WAYNE","IN","46804","18003",41.039211687,-85.2498493959999
10746805,"PARKVIEW REGIONAL MEDICAL CENTER","JC","Primary","11109 PARKVIEW PLAZA DRIVE","FORT WAYNE","IN","46805","18003",41.188451983,-85.101793443
7846131,"JOHNSON MEMORIAL HOSPITAL","HFAP","Acute Stroke Ready","1125 W JEFFERSON ST","FRANKLIN","IN","46131","18081",39.4796677410001,-86.077000603
9646402,"METHODIST HOSPITALS INC","HFAP","Primary","600 GRANT ST","GARY","IN","46402","18089",41.599559432,-87.357670334
4546320,"FRANCISCAN ST MARGARET HEALTH - HAMMOND","HFAP","Primary","5454 HOHMAN AVE","HAMMOND","IN","46320","18089",41.61511211,-87.5239895029999
13846342,"ST MARY MEDICAL CENTER INC","JC","Primary","1500 S LAKE PARK AVE","HOBART","IN","46342","18089",41.5127491490001,-87.260791495
100,"IU HEALTH UNIVERSITY HOSPITAL","JC","Comprehensive","550 UNIVERSITY BLVD","INDIANAPOLIS","IN","46202","18097",39.7752833260001,-86.176561615
4646202,"RICHARD L. ROUDEBUSH VA MEDICAL CENTER","JC","Primary","1481 W 10TH ST","INDIANAPOLIS","IN","46202","18097",39.778463061,-86.18716442
1246219,"COMMUNITY HOSPITAL EAST","JC","Primary","1500 N RITTER AVE","INDIANAPOLIS","IN","46219","18097",39.7873137190001,-86.075498184
1646227,"COMMUNITY HOSPITAL SOUTH","JC","Primary","1402 E COUNTY LINE RD S","INDIANAPOLIS","IN","46227","18097",39.63680298,-86.132651341
4246237,"FRANCISCAN ST FRANCIS HEALTH - INDIANAPOLIS","HFAP","Primary","8111 S EMERSON AVE","INDIANAPOLIS","IN","46237","18097",39.6487177590001,-86.079467628
157146254,"ESKENAZI HEALTH","JC","Primary","720 ESKENAZI AVENUE","INDIANAPOLIS","IN","46254","18097",39.777882758,-86.183985886
1346256,"COMMUNITY HOSPITAL NORTH","JC","Primary","7150 CLEARVISTA DR","INDIANAPOLIS","IN","46256","18097",39.9011160920001,-86.0421630929999
14646260,"ST VINCENT HOSPITAL","JC","Comprehensive","2001 W 86TH ST","INDIANAPOLIS","IN","46260","18097",39.9089874470001,-86.195732218
1746904,"COMMUNITY HOWARD REGIONAL HEALTH INC","JC","Primary","3500 S LAFOUNTAIN ST","KOKOMO","IN","46904","18067",40.4472016930001,-86.1246590109999
13746904,"ST VINCENT KOKOMO","JC","Primary","1907 W SYCAMORE ST","KOKOMO","IN","46904","18067",40.4860802050001,-86.156694771
6646350,"LA PORTE HOSPITAL","JC","Primary","1007 LINCOLNWAY","LA PORTE","IN","46350","18091",41.610652171,-86.725290268
4147905,"FRANCISCAN ST ELIZABETH HEALTH - LAFAYETTE EAST","HFAP","Primary","1701 S CREASY LN","LAFAYETTE","IN","47905","18157",40.3940202320001,-86.834549059
6147905,"INDIANA UNIVERSITY HEALTH ARNETT HOSPITAL","HFAP","Primary","5165 MCCARTY LN","LAFAYETTE","IN","47905","18157",40.400530442,-86.806373219
104,"METHODIST HOSPITAL-SOUTHLAKE","HFAP","Thrombectomy","8701 BROADWAY","MERRILLVILLE","IN","46410","18089",41.458372829,-87.3329309009999
3846360,"FRANCISCAN ST ANTHONY HEALTH - MICHIGAN CITY","HFAP","Primary","301 W HOMER ST","MICHIGAN CITY","IN","46360","18091",41.7068411270001,-86.900461091
12846545,"SAINT JOSEPH REGIONAL MEDICAL CENTER","JC","Primary","5215 HOLY CROSS PKWY","MISHAWAKA","IN","46545","18141",41.7071773810001,-86.174469581
4346158,"FRANCISCAN ST FRANCIS HEALTH - MOORESVILLE","HFAP","Acute Stroke Ready","1201 HADLEY RD","MOORESVILLE","IN","46158","18109",39.6078571130001,-86.355692529
6247303,"INDIANA UNIVERSITY HEALTH BALL MEMORIAL HOSPITAL","JC","Primary","2401 UNIVERSITY AVE","MUNCIE","IN","47303","18035",40.196777534,-85.415555943
1146321,"COMMUNITY HOSPITAL","JC","Comprehensive","901 MACARTHUR BLVD","MUNSTER","IN","46321","18089",41.5506175090001,-87.505909606
3447150,"BAPTIST HEALTH FLOYD","HFAP","Primary","1850 STATE ST","NEW ALBANY","IN","47150","18043",38.301364386,-85.834335192
15847630,"THE HEART HOSPITAL AT DEACONESS GATEWAY LLC","HFAP","Primary","4007 GATEWAY BLVD","NEWBURGH","IN","47630","18173",37.9748831650001,-87.445107776
12946563,"SAINT JOSEPH'S REGIONAL MEDICAL CENTER - PLYMOUTH","JC","Acute Stroke Ready","1915 LAKE AVE","PLYMOUTH","IN","46563","18099",41.33350568,-86.3318612899999
12047374,"REID HOSPITAL & HEALTH CARE SERVICES","HFAP","Primary","1100 REID PKWY","RICHMOND","IN","47374","18177",39.864710013,-84.884284517
17146975,"WOODLAWN HOSPITAL","HFAP","Acute Stroke Ready","1400 E 9TH ST","ROCHESTER","IN","46975","18049",41.0639643420001,-86.195692053
13047274,"SCHNECK MEDICAL CENTER","JC","Acute Stroke Ready","411 W TIPTON ST","SEYMOUR","IN","47274","18071",38.955740442,-85.891833925
9446601,"MEMORIAL HOSPITAL OF SOUTH BEND","JC","Thrombectomy","615 N MICHIGAN ST","SOUTH BEND","IN","46601","18141",41.684055286,-86.25157885
15747802,"TERRE HAUTE REGIONAL HOSPITAL","JC","Primary","3901 S SEVENTH ST","TERRE HAUTE","IN","47802","18167",39.4193961560001,-87.409046743
16147804,"UNION HOSPITAL INC","HFAP","Primary","1606 N SEVENTH ST","TERRE HAUTE","IN","47804","18167",39.485864576,-87.406975608
11246383,"PORTER REGIONAL HOSPITAL","JC","Primary","85 EAST US HWY 6","VALPARAISO","IN","46383","18127",41.553276759,-87.049681709
4747591,"GOOD SAMARITAN HOSPITAL","JC","Primary","520 S 7TH ST","VINCENNES","IN","47591","18083",38.6733129290001,-87.532093359
8546580,"KOSCIUSKO COMMUNITY HOSPITAL","JC","Primary","2101 E DUBOIS DR","WARSAW","IN","46580","18085",41.2483438150001,-85.8288442419999
4267846,"ST CATHERINE HOSPITAL","JC","Primary","401 EAST SPRUCE","GARDEN CITY","KS","67846","20055",37.969866548,-100.868387832
1867601,"HAYS MEDICAL CENTER","DNV","Primary","2220 CANTERBURY DRIVE","HAYS","KS","67601","20051",38.880565501,-99.2960939499999
2567502,"HUTCHINSON REGIONAL MEDICAL CENTER INC","JC","Primary","1701 E 23RD AVENUE","HUTCHINSON","KS","67502","20155",38.0776338650001,-97.892043845
3466112,"PROVIDENCE MEDICAL CENTER","JC","Primary","8929 PARALLEL PARKWAY","KANSAS CITY","KS","66112","20209",39.1266564370001,-94.7867027409999
3866160,"UNIVERSITY OF KANSAS HOSPITAL","JC","Comprehensive","3901 RAINBOW BLVD","KANSAS CITY","KS","66160","20209",39.0561670070001,-94.611298916
5866044,"LAWRENCE MEMORIAL HOSPITAL","JC","Primary","325 MAINE ST","LAWRENCE","KS","66044","20045",38.97887459,-95.24868534
8166048,"SAINT JOHN HOSPITAL","JC","Acute Stroke Ready","3500 SOUTH 4TH STREET","LEAVENWORTH","KS","66048","20103",39.2826199790001,-94.903338844
9966061,"OLATHE MEDICAL CENTER","JC","Primary","20375 W 151ST ST, UNIT 303","OLATHE","KS","66061","20091",38.8527515230001,-94.8243562169999
10866209,"MENORAH MEDICAL CENTER","JC","Primary","5721 WEST 119TH STREET","OVERLAND PARK","KS","66209","20091",38.9105562240001,-94.651996571
11066213,"SAINT LUKE'S SOUTH HOSPITAL","JC","Primary","12300 METCALF AVENUE","OVERLAND PARK","KS","66213","20091",38.90396961,-94.66903502
10966215,"OVERLAND PARK REG MED CTR","JC","Primary","10500 QUIVIRA ROAD","OVERLAND PARK","KS","66215","20091",38.937464203,-94.726414012
11867401,"SALINA REGIONAL HEALTH CENTER","HFAP","Primary","400 SOUTH SANTA FE AVENUE","SALINA","KS","67401","20169",38.8334336990001,-97.6100313479999
12666204,"ADVENTHEALTH SHAWNEE MISSION MEDICAL CENTER","JC","Primary","9100 W 74TH STREET","SHAWNEE MISSION","KS","66204","20091",38.9955427940001,-94.6926594769999
13566604,"STORMONT VAIL HEALTHCARE","JC","Primary","1500 SW 10TH ST","TOPEKA","KS","66604","20177",39.050787975,-95.696512006
13266606,"UNIVERSITY HEALTH SYSTEM, ST. FRANCIS CAMPUS","JC","Primary","1700 SW 7TH STREET","TOPEKA","KS","66606","20177",39.0565991400001,-95.696217846
14667214,"ASCENSION VIA CHRISTI HOSPITALS WICHITA INC","JC","Comprehensive","929 NORTH ST FRANCIS STREET","WICHITA","KS","67214","20173",37.6998994530001,-97.332278145
15367214,"WESLEY MEDICAL CENTER","JC","Primary","550 N HILLSIDE ST","WICHITA","KS","67214","20173",37.6949930320001,-97.297903461
4541101,"KINGS DAUGHTERS MEDICAL CENTER","JC","Primary","2201 LEXINGTON AVE","ASHLAND","KY","41101","21019",38.469941405,-82.634516334
10942101,"THE MEDICAL CENTER AT BOWLING GREEN","JC","Primary","250 PARK STREET","BOWLING GREEN","KY","42101","21227",36.9959715050001,-86.42975938
2942102,"TRISTAR GREENVIEW REGIONAL HOSPITAL","JC","Primary","1801 ASHLEY CIRCLE","BOWLING GREEN","KY","42102","21227",36.9650376160001,-86.4359797719999
2140422,"EPHRAIM MCDOWELL REGIONAL MEDICAL CENTER","JC","Acute Stroke Ready","217 SOUTH THIRD STREET","DANVILLE","KY","40422","21021",37.6438733050001,-84.773001139
9941017,"ST. ELIZABETH EDGEWOOD","JC","Primary","1 MEDICAL VILLAGE DR.","EDGEWOOD","KY","41017","21117",39.013178162,-84.562789719
3042701,"HARDIN MEMORIAL HOSPITAL","JC","Primary","913 N DIXIE AVENUE","ELIZABETHTOWN","KY","42701","21093",37.7099441,-85.876296328
10041042,"ST. ELIZABETH FLORENCE","JC","Primary","4900 HOUSTON ROAD","FLORENCE","KY","41042","21015",39.0165918180001,-84.630767205
2440601,"FRANKFORT REGIONAL MEDICAL CENTER","JC","Primary","299 KINGS DAUGHTERS DRIVE","FRANKFORT","KY","40601","21073",38.160661745,-84.906893698
10141075,"ST. ELIZABETH FT. THOMAS","JC","Primary","85 NORTH GRAND AVENUE","FT. THOMAS","KY","41075","21037",39.078660723,-84.467677507
2840324,"GEORGETOWN COMMUNITY HOSPITAL","JC","Acute Stroke Ready","1140 LEXINGTON ROAD","GEORGETOWN","KY","40324","21209",38.186518506,-84.5609107939999
10442141,"T J SAMSON COMMUNITY HOSPITAL","JC","Acute Stroke Ready","1301 NORTH RACE STREET","GLASGOW","KY","42141","21009",37.011392389,-85.9045139739999
3140831,"HARLAN ARH HOSPITAL","DNV","Acute Stroke Ready","81 BALL PARK ROAD","HARLAN","KY","40831","21095",36.809455171,-83.3135983939999
10840330,"EPHRAIM MCDOWELL JAMES B. HAGGIN MEMORIAL HOSPITAL","JC","Acute Stroke Ready","464 LINDEN AVE.","HARRODSBURG","KY","40330","21167",37.7570638770001,-84.848739113
1240503,"BAPTIST HEALTH LEXINGTON","JC","Comprehensive","1740 NICHOLASVILLE ROAD","LEXINGTON","KY","40503","21067",38.018805193,-84.511857714
9140504,"SAINT JOSEPH HOSPITAL","JC","Primary","ONE ST JOSEPH DRIVE","LEXINGTON","KY","40504","21067",38.032339732,-84.52329929
11640536,"UNIVERSITY OF KY HOSPITAL","JC","Comprehensive","800 ROSE STREET","LEXINGTON","KY","40536","21067",38.030964612,-84.5074429909999
11241230,"THREE RIVERS MEDICAL CENTER","JC","Acute Stroke Ready","2485 HWY 644","LOUISA","KY","41230","21127",38.092486637,-82.604408295
7040202,"NORTON HOSPITAL","JC","Comprehensive","200 EAST CHESTNUT STREET","LOUISVILLE","KY","40202","21111",38.2477231460001,-85.7504603039999
11740202,"UNIVERSITY OF LOUISVILLE HOSPITAL","JC","Comprehensive","530 S JACKSON ST","LOUISVILLE","KY","40202","21111",38.248322961,-85.7443359649999
4040202,"JEWISH HOSPITAL & ST. MARY'S HEALTHCARE","JC","Primary","200 ABRAHAM FLEXNER WAY","LOUISVILLE","KY","40202","21111",38.2491316470001,-85.751189499
140207,"BAPTIST HEALTH LOUISVILLE","JC","Primary","4000 KRESGE WAY","LOUISVILLE","KY","40207","21111",38.238118248,-85.637144295
6840217,"NORTON AUDUBON HOSPITAL","JC","Primary","ONE AUDUBON PLAZA DRIVE","LOUISVILLE","KY","40217","21111",38.215127395,-85.722813645
6940241,"NORTON BROWNSBORO HOSPITAL","JC","Comprehensive","4960 NORTON HEALTHCARE BOULEVARD","LOUISVILLE","KY","40241","21111",38.3153256800001,-85.575894454
3742066,"JACKSON PURCHASE MEDICAL CENTER","JC","Primary","1099 MEDICAL CENTER CIRCLE","MAYFIELD","KY","42066","21083",36.759208992,-88.65125908
6040965,"MIDDLESBORO ARH HOSPITAL","DNV","Acute Stroke Ready","3600 W CUMBERLAND AVE","MIDDLESBORO","KY","40965","21013",36.6058264650001,-83.7401927339999
9340353,"SAINT JOSEPH MOUNT STERLING","HFAP","Acute Stroke Ready","225 FALCON DRIVE","MT. STERLING","KY","40353","21173",38.0771212540001,-83.945255796
187942303,"OWENSBORO HEALTH REGIONAL HOSPITAL","JC","Primary","1201 PLEASANT VALLEY ROAD","OWENSBORO","KY","42303","21059",37.779484499,-87.0642916529999
11942003,"BAPTIST HEALTH PADUCAH","JC","Primary","2501 KENTUCKY AVENUE","PADUCAH","KY","42003","21145",37.0737593790001,-88.6265971939999
5142003,"LOURDES HOSPITAL","JC","Primary","1530 LONE OAK RD","PADUCAH","KY","42003","21145",37.0506390190001,-88.647368956
8041501,"PIKEVILLE MEDICAL CENTER","JC","Primary","911 BYPASS RD","PIKEVILLE","KY","41501","21195",37.471241666,-82.522247497
4742502,"LAKE CUMBERLAND REGIONAL HOSPITAL","JC","Primary","305 LANGDON STREET","SOMERSET","KY","42502","21199",37.08600628,-84.620177051
12241858,"WHITESBURG ARH HOSPITAL","DNV","Acute Stroke Ready","240 HOSPITAL ROAD","WHITESBURG","KY","41858","21133",37.1129272210001,-82.812521793
161471301,"CHRISTUS DUBUIS HOSPITAL OF ALEXANDRIA","JC","Primary","3330 MASONIC DR., 4TH FLOOR UNIT","ALEXANDRIA","LA","71301","22079",31.283649117,-92.4624635489999
15471301,"RAPIDES REGIONAL MEDICAL CENTER","JC","Primary","211 4TH ST","ALEXANDRIA","LA","71301","22079",31.3150812120001,-92.449668699
14070808,"OUR LADY OF THE LAKE REGIONAL MEDICAL CENTER","JC","Primary","5000 HENNESSY BLVD","BATON ROUGE","LA","70808","22033",30.4037200560001,-91.106343827
670809,"BATON ROUGE GENERAL MEDICAL CENTER (BLUEBONNET)","JC","Primary","8585 PICARDY AVE","BATON ROUGE","LA","70809","22033",30.393726884,-91.094831778
19170433,"ST. TAMMANY PARISH HOSPITAL","JC","Primary","1202 S TYLER ST","COVINGTON","LA","70433","22103",30.4686638910001,-90.112929556
11470403,"NORTH OAKS MEDICAL CENTER","JC","Primary","15790 PAUL VEGA MD DR","HAMMOND","LA","70403","22105",30.4651110180001,-90.4611135649999
163470065,"OCHSNER MEDICAL CENTER- KENNER LLC","JC","Primary","180 WEST ESPLANDE AVENUE","KENNER","LA","70065","22051",30.02452407,-90.270808404
8970503,"LAFAYETTE GENERAL MEDICAL CENTER","JC","Primary","1214 COOLIDGE STREET","LAFAYETTE","LA","70503","22055",30.2026861030001,-92.019362739
13870506,"OUR LADY OF LOURDES REGIONAL MEDICAL CENTER","JC","Primary","4801 AMBASSADOR CAFFERY PKWY","LAFAYETTE","LA","70506","22055",30.1508905750001,-92.03636654
5270601,"CHRISTUS OCHSNER ST PATRICK HOSPITAL","JC","Primary","524 DR. MICHAEL DEBAKEY DRIVE","LAKE CHARLES","LA","70601","22019",30.215944237,-93.2279166169999
7570601,"LAKE CHARLES MEMORIAL HOSPITAL","JC","Primary","1701 OAK PARK BLVD","LAKE CHARLES","LA","70601","22019",30.2043187300001,-93.197443753
21170072,"WEST JEFFERSON MEDICAL CENTER","JC","Comprehensive","1101 MEDICAL CENTER BLVD","MARRERO","LA","70072","22051",29.8922135380001,-90.094804498
6370006,"EAST JEFFERSON GENERAL HOSPITAL","JC","Thrombectomy","4200 HOUMA BLVD","METAIRIE","LA","70006","22051",30.013039672,-90.180975248
20170112,"TULANE MEDICAL CENTER","JC","Primary","1415 TULANE AVE","NEW ORLEANS","LA","70112","22071",29.954800113,-90.0769039149999
28070112,"UNIVERSITY MEDICAL CENTER NEW ORLEANS","JC","Primary","2021 PERDIDO ST.","NEW ORLEANS","LA","70112","22071",29.960185762,-90.081948944
19870115,"TOURO INFIRMARY","JC","Primary","1401 FOUCHER ST","NEW ORLEANS","LA","70115","22071",29.9257767990001,-90.092152751
159770121,"OCHSNER MEDICAL CENTER","JC","Comprehensive","1516 JEFFERSON HIGHWAY","NEW ORLEANS","LA","70121","22051",29.961401752,-90.145550567
163170127,"NEW ORLEANS EAST HOSPITAL","JC","Primary","5620 READ BLVD","NEW ORLEANS","LA","70127","22071",30.028976302,-89.975170479
10471103,"OCHSNER LSU HEALTH SHREVEPORT","JC","Thrombectomy","1541 KINGS HWY","SHREVEPORT","LA","71103","22017",32.480737033,-93.761659924
21271103,"WILLIS-KNIGHTON MEDICAL CENTER","JC","Primary","2600 GREENWOOD RD","SHREVEPORT","LA","71103","22017",32.48441774,-93.779917203
17170458,"SLIDELL MEMORIAL HOSPITAL","JC","Primary","1001 GAUSE BLVD","SLIDELL","LA","70458","22103",30.284019974,-89.769723947
4621401,"ANNE ARUNDEL MEDICAL CENTER","JC","Primary","2001 MEDICAL PARKWAY","ANNAPOLIS","MD","21401","24003",38.98992672,-76.5346124329999
4121201,"UNIVERSITY OF MARYLAND MEDICAL CENTER","JC","Comprehensive","22 S GREENE ST","BALTIMORE","MD","21201","24510",39.287908572,-76.624925928
2321202,"MERCY MEDICAL CENTER","JC","Primary","301 ST PAUL PLACE","BALTIMORE","MD","21202","24510",39.2929215520001,-76.612884233
5121204,"GREATER BALTIMORE MEDICAL CENTER","JC","Primary","6701 NORTH CHARLES STREET","BALTIMORE","MD","21204","24005",39.39085636,-76.6245565099999
3721215,"SINAI HOSPITAL OF BALTIMORE","JC","Thrombectomy","2401 WEST BELVEDERE AVE","BALTIMORE","MD","21215","24510",39.352302514,-76.662090147
4921218,"MEDSTAR UNION MEMORIAL HOSPITAL","JC","Primary","201 EAST UNIVERSITY PARKWAY","BALTIMORE","MD","21218","24510",39.329040299,-76.6147393489999
4821224,"JOHNS HOPKINS BAYVIEW MEDICAL CENTER","JC","Comprehensive","4940 EASTERN AVENUE","BALTIMORE","MD","21224","24510",39.2906788110001,-76.5467781899999
2021225,"MEDSTAR HARBOR HOSPITAL","JC","Primary","3001 S HANOVER STREET","BALTIMORE","MD","21225","24510",39.2521638270001,-76.614173246
3621229,"SAINT AGNES HOSPITAL","JC","Primary","900 CATON AVENUE","BALTIMORE","MD","21229","24510",39.272769909,-76.672119105
5021237,"MEDSTAR FRANKLIN SQUARE MEDICAL CENTER","JC","Primary","9000 FRANKLIN SQUARE DR","BALTIMORE","MD","21237","24005",39.3507893990001,-76.479906714
1821239,"MEDSTAR GOOD SAMARITAN HOSPITAL","JC","Primary","5601 LOCH RAVEN BLVD","BALTIMORE","MD","21239","24510",39.3583957820001,-76.5872828239999
921287,"JOHNS HOPKINS HOSPITAL","JC","Comprehensive","600 NORTH WOLFE STREET","BALTIMORE","MD","21287","24510",39.2961086980001,-76.591972219
2220814,"SUBURBAN HOSPITAL","JC","Primary","8600 OLD GEORGETOWN RD","BETHESDA","MD","20814","24031",38.997402483,-77.110318402
2820785,"PRINCE GEORGES HOSPITAL CENTER","JC","Primary","3001 HOSPITAL DRIVE","CHEVERLY","MD","20785","24033",38.9310253800001,-76.9206679769999
103821061,"UNIVERITY OF MD BALTIMORE WASHINGTON MEDICAL CENTER","JC","Primary","301 HOSPITAL DRIVE","GLEN BURNIE","MD","21061","24003",39.137667675,-76.6232388559999
6321550,"GARRETT COUNTY MEMORIAL HOSPITAL","JC","Acute Stroke Ready","251 N FOURTH ST","OAKLAND","MD","21550","24023",39.4134407440001,-79.400978518
2120832,"MEDSTAR MONTGOMERY MEDICAL CENTER","JC","Primary","18101 PRINCE PHILIP DRIVE","OLNEY","MD","20832","24031",39.154039723,-77.054702689
4321801,"PENINSULA REGIONAL MEDICAL CENTER","JC","Primary","100 E CARROLL AVE","SALISBURY","MD","21801","24045",38.3621249980001,-75.5987021079999
1920910,"HOLY CROSS HOSPITAL","JC","Primary","1500 FOREST GLEN ROAD","SILVER SPRING","MD","20910","24031",39.0147221440001,-77.035735227
5764012,"BELTON REGIONAL MEDICAL CENTER","JC","Acute Stroke Ready","17065 S. 71 HIGHWAY","BELTON","MO","64012","29037",38.815813023,-94.503001913
7764014,"ST. MARY'S MEDICAL CENTER","JC","Primary","201 WEST R.D. MIZE RD","BLUE SPRINGS","MO","64014","29095",39.0260671460001,-94.2638575189999
12663044,"SSM HEALTH DEPAUL HEALTH CENTER","JC","Comprehensive","12303 DEPAUL DRIVE","BRIDGETON","MO","63044","29189",38.7505565430001,-90.433742501
663701,"SOUTHEASTHEALTH","JC","Primary","1701 LACEY STREET","CAPE GIRARDEAU","MO","63701","29031",37.3107343400001,-89.5398458189999
3363703,"SAINT FRANCIS MEDICAL CENTER","JC","Primary","211 SAINT FRANCIS DRIVE","CAPE GIRARDEAU","MO","63703","29031",37.3035819400001,-89.571144976
12863017,"ST. LUKE'S HOSPITAL","JC","Primary","232 SOUTH WOODS MILL ROAD","CHESTERFIELD","MO","63017","29189",38.6512908130001,-90.503223535
17864601,"HEDRICK MEDICAL CENTER","JC","Acute Stroke Ready","2799 NORTH WASHINGTON STREET","CHILLICOTHE","MO","64601","29117",39.817141598,-93.551016211
165201,"BOONE HOSPITAL CENTER","JC","Primary","1600 EAST BROADWAY","COLUMBIA","MO","65201","29019",38.949296788,-92.315813084
5065212,"UNIVERSITY OF MISSOURI HEALTH CARE","DNV","Comprehensive","ONE HOSPITAL DRIVE","COLUMBIA","MO","65212","29019",38.9383836580001,-92.328178114
12363640,"PARKLAND HEALTH CENTER-FARMINGTON","JC","Primary","1101 WEST LIBERTY STREET","FARMINGTON","MO","63640","29187",37.7813659240001,-90.4382447359999
13163026,"SSM ST. CLARE HEALTH CENTER","JC","Thrombectomy","1015 BOWLES AVE","FENTON","MO","63026","29189",38.5279236590001,-90.476414355
764701,"CASS REGIONAL MEDICAL CENTER","JC","Acute Stroke Ready","2800 E ROCK HAVEN ROAD","HARRISONVILLE","MO","64701","29037",38.66507203,-94.377496746
3564057,"CENTERPOINT MEDICAL CENTER","JC","Primary","19600 EAST 39TH STREET","INDEPENDENCE","MO","64057","29095",39.049544804,-94.348903822
17965109,"SSM HEALTH ST. MARY'S HOSPITAL - JEFFERSON CITY","JC","Primary","2505 MISSION DR","JEFFERSON CITY","MO","65109","29051",38.5586981870001,-92.22156912
18064804,"MERCY HOSPITAL JOPLIN","JC","Primary","100 MERCY WAY","JOPLIN","MO","64804","29145",37.036513395,-94.509709276
7264111,"SAINT LUKE'S HOSPITAL OF KANSAS CITY","JC","Comprehensive","4401 WORNALL ROAD","KANSAS CITY","MO","64111","29095",39.047433617,-94.5901959189999
4464114,"ST. JOSEPH MEDICAL CENTER","JC","Primary","1000 CARONDELET DRIVE","KANSAS CITY","MO","64114","29095",38.936135474,-94.6038177189999
6664132,"RESEARCH MEDICAL CENTER","JC","Comprehensive","2316 EAST MEYER BOULEVARD","KANSAS CITY","MO","64132","29095",39.008899844,-94.5581250879999
10164154,"SAINT LUKE'S NORTHLAND HOSPITAL - BARRY ROAD","JC","Primary","5830 NW BARRY ROAD","KANSAS CITY","MO","64154","29165",39.2489889940001,-94.648329066
11663367,"SSM ST. JOSEPH HOSPITAL WEST","JC","Primary","100 MEDICAL PLAZA","LAKE ST. LOUIS","MO","63367","29183",38.802796668,-90.7757467489999
7564063,"LEE'S SUMMIT MEDICAL CENTER","JC","Primary","2100 SE BLUE PARKWAY","LEE'S SUMMIT","MO","64063","29095",38.9036348540001,-94.33298166
75,"SAINT LUKE'S EAST HOSPITAL LEE'S SUMMIT","JC","Primary","100 NE ST LUKES BLVD","LEE'S SUMMIT","MO","64086","29095",38.94189729,-94.3815285599999
964116,"NORTH KANSAS CITY HOSPITAL","JC","Primary","2800 CLAY EDWARDS DRIVE NORTH","NORTH KANSAS CITY","MO","64116","29047",39.1489875820001,-94.551161615
10663368,"PROGRESS WEST HEALTHCARE CENTER","JC","Primary","2 PROGRESS POINT PKWY","O'FALLON","MO","63368","29183",38.7159526620001,-90.698142494
13563117,"SSM HEALTH ST. MARY'S HOSPITAL ST LOUIS","JC","Primary","6420 CLAYTON ROAD","RICHMOND HEIGHTS","MO","63117","29189",38.6330960430001,-90.31089581
9865301,"BOTHWELL REGIONAL HEALTH CENTER","JC","Acute Stroke Ready","601 EAST 14TH STREET","SEDALIA","MO","65301","29159",38.6995744490001,-93.221586111
2265804,"MERCY HOSPITAL SPRINGFIELD","JC","Primary","1235 EAST CHEROKEE STREET","SPRINGFIELD","MO","65804","29077",37.1789823730001,-93.275275993
1865807,"COX MEDICAL CENTERS SOUTH HOSPITAL","DNV","Comprehensive","3801 SOUTH NATIONAL AVENUE","SPRINGFIELD","MO","65807","29077",37.1449462520001,-93.27967732
11263301,"SSM ST. JOSEPH HEALTH CENTER","JC","Primary","300 1ST CAPITOL DRIVE","ST. CHARLES","MO","63301","29183",38.78090867,-90.4846205439999
15463104,"SSM HEALTH ST. LOUIS UNIVERSITY HOSPITAL - SOUTH CAMPUS","JC","Primary","1755 SOUTH GRAND","ST. LOUIS","MO","63104","29510",38.615601429,-90.240356608
14563110,"BARNES-JEWISH HOSPITAL","JC","Comprehensive","ONE BARNES-JEWISH HOSPITAL PLAZA","ST. LOUIS","MO","63110","29510",38.6356744670001,-90.264716055
13963128,"MERCY HOSPITAL SOUTH","JC","Primary","10010 KENNERLY ROAD","ST. LOUIS","MO","63128","29189",38.5063922030001,-90.380669999
14163128,"MERCY HOSPITAL ST. LOUIS","JC","Thrombectomy","615 SOUTH NEW BALLAS ROAD","ST. LOUIS","MO","63128","29189",38.6456311470001,-90.446253376
14463131,"MISSOURI BAPTIST MEDICAL CENTER","JC","Primary","3015 NORTH BALLAS ROAD TOWN","ST. LOUIS","MO","63131","29189",38.6363666550001,-90.446772347
13663136,"CHRISTIAN HOSPITAL NORTHEAST-NORTHWEST","JC","Primary","11133 DUNN ROAD","ST. LOUIS","MO","63136","29189",38.7765816890001,-90.240358059
11963376,"BARNES-JEWISH ST. PETERS HOSPITAL","JC","Primary","10 HOSPITAL DRIVE","ST. PETERS","MO","63376","29183",38.793605051,-90.579615313
6564093,"WESTERN MISSOURI MEDICAL CENTER","JC","Acute Stroke Ready","403 BURKARTH ROAD","WARRENSBURG","MO","64093","29101",38.7659332750001,-93.722295168
6065775,"OZARKS MEDICAL CENTER","HFAP","Primary","1100 KENTUCKY AVENUE","WEST PLAINS","MO","65775","29091",36.738187951,-91.874588081
6938821,"NORTH MISSISSIPPI HEALTH GILMORE MEMORIAL","JC","Acute Stroke Ready","1105 EARL FRYE BOULEVARD","AMORY","MS","38821","28095",33.9777292530001,-88.476604472
3039501,"MEMORIAL HOSPITAL AT GULFPORT","JC","Primary","4500 13TH STREET","GULFPORT","MS","39501","28047",30.367675408,-89.115569605
5239404,"FORREST GENERAL HOSPITAL","DNV","Primary","6051 U. S. HIGHWAY 49","HATTIESBURG","MS","39404","28035",31.318579786,-89.3295924719999
739202,"MS BAPTIST MEDICAL CENTER","JC","Primary","1225 NORTH STATE STREET","JACKSON","MS","39202","28049",32.314756398,-90.179445589
1039216,"ST. DOMINIC-JACKSON MEMORIAL HOSPITAL","JC","Comprehensive","969 LAKELAND DRIVE","JACKSON","MS","39216","28049",32.332565786,-90.1648566659999
3339216,"UNIVERSITY HOSPITAL AND CLINICS - THE UNIVERSITY OF MISSISSIPPI MEDICAL CENTER","JC","Primary","2500 NORTH STATE STREET","JACKSON","MS","39216","28049",32.3294722800001,-90.17314608
3939441,"SOUTH CENTRAL REGIONAL MEDICAL CENTER","DNV","Acute Stroke Ready","1220 JEFFERSON STREET","LAUREL","MS","39441","28067",31.6849522320001,-89.140794101
139120,"NATCHEZ COMMUNITY HOSPITAL","JC","Acute Stroke Ready","129 JEFFERSON DAVIS BOULEVARD","NATCHEZ","MS","39120","28001",31.5249081650001,-91.386823991
3539564,"OCEAN SPRINGS HOSPITAL","DNV","Primary","3109 BIENVILLE BOULEVARD","OCEAN SPRINGS","MS","39564","28059",30.4141352180001,-88.780714438
12638654,"METHODIST HEALTH CARE - OLIVE BRANCH HOSPITAL","DNV","Primary","4250 BETHEL ROAD","OLIVE BRANCH","MS","38654","28033",34.92264456,-89.792027019
1239581,"SINGING RIVER HOSPITAL","DNV","Primary","2809 DENNY AVENUE","PASCAGOULA","MS","39581","28059",30.3763940740001,-88.5334439109999
5438801,"NORTH MS MEDICAL CENTER","JC","Primary","830 SOUTH GLOSTER","TUPELO","MS","38801","28081",34.2419593390001,-88.716448112
8039183,"MERIT HEALTH RIVER REGION","JC","Acute Stroke Ready","2100 HIGHWAY 61 NORTH","VICKSBURG","MS","39183","28149",32.374372759,-90.824527328
9627910,"VIDANT ROANOKE-CHOWAN HOSPITAL","JC","Acute Stroke Ready","500 SOUTH ACADEMY STREET","AHOSKIE","NC","27910","37091",36.2854313030001,-76.9952349819999
10428002,"ATRIUM HEALTH STANLY","JC","Primary","301 YADKIN STREET","ALBEMARLE","NC","28002","37167",35.3644431970001,-80.1948226649999
628801,"MISSION HOSPITAL AND ASHEVILLE SURGERY CENTER","JC","Comprehensive","509 BILTMORE AVE","ASHEVILLE","NC","28801","37021",35.576572566,-82.549143219
11628607,"WATAUGA MEDICAL CENTER, INC.","JC","Primary","336 DEERFIELD ROAD","BOONE","NC","28607","37189",36.1984688580001,-81.651529355
127216,"ALAMANCE REGIONAL MEDICAL CENTER","JC","Primary","1240 HUFFMAN MILL ROAD","BURLINGTON","NC","27216","37001",36.0612038880001,-79.5022435669999
11427511,"WAKEMED CARY HOSPITAL","JC","Primary","1900 KILDAIRE FARM RD.","CARY","NC","27511","37183",35.740224051,-78.781456307
11127514,"UNIVERSITY OF NORTH CAROLINA HOSPITALS","JC","Comprehensive","101 MANNING DR","CHAPEL HILL","NC","27514","37135",35.9045427030001,-79.049689229
184428215,"NOVANT HEALTH MINT HILL MEDICAL CENTER","JC","Acute Stroke Ready","8201 HEALTHCARE LOOP","CHARLOTTE","NC","28215","37119",35.223160125,-80.64781859
4628232,"CAROLINAS MEDICAL CENTER","JC","Comprehensive","1000 BLYTHE BOULEVARD","CHARLOTTE","NC","28232","37119",35.203899886,-80.838901796
2128233,"NOVANT HEALTH PRESPYTERIAN MEDICAL CENTER","JC","Comprehensive","200 HAWTHORNE LANE","CHARLOTTE","NC","28233","37119",35.2118381920001,-80.8241644409999
4528256,"ATRIUM HEALTH UNIVERSITY","JC","Primary","8800 NORTH TRYON STREET","CHARLOTTE","NC","28256","37119",35.306757427,-80.7470479419999
4328025,"ATRIUM HEALTH CABARRUS","JC","Primary","920 CHURCH ST N","CONCORD","NC","28025","37025",35.4361064220001,-80.602508044
6427704,"DUKE REGIONAL HOSPITAL","JC","Primary","3643 NORTH ROXBORO RD","DURHAM","NC","27704","37063",36.0367935940001,-78.900254542
6227710,"DUKE UNIVERSITY HOSPITAL","JC","Comprehensive","2301 ERWIN ROAD","DURHAM","NC","27710","37063",36.0070497990001,-78.937758112
5427932,"VIDANT CHOWAN HOSPITAL","JC","Acute Stroke Ready","211 VIRGINIA ROAD","EDENTON","NC","27932","37041",36.0699792820001,-76.611203527
2427906,"SENTARA ALBEMARLE MEDICAL CENTER","DNV","Primary","1144 NORTH ROAD STREET","ELIZABETH CITY","NC","27906","37139",36.323596314,-76.2179333289999
8228621,"HUGH CHATHAM MEMORIAL HOSPITAL, INC.","JC","Primary","180 PARKWOOD DRIVE","ELKIN","NC","28621","37171",36.261864605,-80.838302665
3928302,"CAPE FEAR VALLEY MEDICAL CENTER","JC","Primary","1638 OWEN DRIVE","FAYETTEVILLE","NC","28302","37051",35.0318387250001,-78.9330536849999
2628744,"ANGEL MEDICAL CENTER","JC","Acute Stroke Ready","120 RIVERVIEW STREET","FRANKLIN","NC","28744","37113",35.184661416,-83.3786889199999
7128053,"CAROMONT REGIONAL MEDICAL CENTER","JC","Primary","2525 COURT DRIVE","GASTONIA","NC","28053","37071",35.2726615020001,-81.139263828
827401,"CONE HEALTH","JC","Comprehensive","1200 NORTH ELM ST","GREENSBORO","NC","27401","37081",36.0908847380001,-79.7864573799999
2027835,"VIDANT MEDICAL CENTER","JC","Comprehensive","2100 STANTONSBURG ROAD","GREENVILLE","NC","27835","37147",35.6078616830001,-77.40403107
7028601,"FRYE REGIONAL MEDICAL CENTER","JC","Primary","420 NORTH CENTER ST","HICKORY","NC","28601","37035",35.737346474,-81.337270844
5028602,"CATAWBA VALLEY MEDICAL CENTER","JC","Primary","810 FAIRGROVE CHURCH ROAD","HICKORY","NC","28602","37035",35.7138555700001,-81.2673419129999
2228078,"NOVANT HEALTH HUNTERSVILLE MEDICAL CENTER","JC","Primary","10030 GILEAD ROAD","HUNTERSVILLE","NC","28078","37119",35.406444182,-80.860260895
1528541,"ONSLOW MEMORIAL HOSPITAL","JC","Primary","317 WESTERN BOULEVARD","JACKSONVILLE","NC","28541","37133",34.7627593280001,-77.384986818
6328349,"VIDANT DUPLIN HOSPITAL","JC","Primary","401 NORTH MAIN ST","KENANSVILLE","NC","28349","37061",34.965279679,-77.961913309
8928503,"UNC LENOIR HEALTH CARE","JC","Primary","100 AIRPORT ROAD","KINSTON","NC","28503","37107",35.290340626,-77.5832828119999
9027293,"LEXINGTON MEMORIAL HOSPITAL","JC","Primary","250 HOSPITAL DRIVE","LEXINGTON","NC","27293","37057",35.8061501510001,-80.2867354159999
4128093,"ATRIUM HEALTH LINCOLN","JC","Primary","433 MCALISTER ROAD","LINCOLNTON","NC","28093","37109",35.4899181390001,-81.2035985799999
10728752,"MISSION HOSPITAL MCDOWELL","JC","Acute Stroke Ready","430 RANKIN DRIVE","MARION","NC","28752","37111",35.66339557,-82.0284762799999
2328106,"NOVANT HEALTH MATTHEWS MEDICAL CENTER","JC","Primary","1500 MATTHEWS TOWNSHIP PARKWAY","MATTHEWS","NC","28106","37119",35.119984808,-80.714078413
4428111,"ATRIUM HEALTH UNION","JC","Primary","600 HOSPITAL DRIVE","MONROE","NC","28111","37179",34.9757067890001,-80.522842414
8828117,"LAKE NORMAN REGIONAL MEDICAL CENTER","JC","Primary","171 FAIRVIEW ROAD","MOORESVILLE","NC","28117","37097",35.549204784,-80.853572296
4928557,"CARTERET GENERAL HOSPITAL","JC","Primary","3500 ARENDELL STREET","MOREHEAD CITY","NC","28557","37031",34.7262094980001,-76.755041171
1427030,"NORTHERN HOSPITAL OF SURRY COUNTY","JC","Primary","830 ROCKFORD STREET","MOUNT AIRY","NC","27030","37171",36.488604093,-80.612168098
10827959,"THE OUTER BANKS HOSPITAL","JC","Acute Stroke Ready","4800 SOUTH CROATAN HIGHWAY","NAGS HEAD","NC","27959","37055",35.9398364990001,-75.61764914
6628374,"FIRSTHEALTH MOORE REG. HOSP. AND PINEHURST TREATMENT","JC","Primary","155 MEMORIAL DRIVE","PINEHURST","NC","28374","37125",35.2052993510001,-79.456438527
14228170,"CAPE FEAR VALLEY HOKE HOSPITAL","JC","Acute Stroke Ready","201 MEDICAL PAVILION DRIVE","RAEFORD","NC","28376","37093",35.0297339100001,-79.107592038
9527607,"REX HOSPITAL","JC","Thrombectomy","4420 LAKE BOONE TRAIL","RALEIGH","NC","27607","37183",35.8174886370001,-78.7031719139999
6127611,"DUKE HEALTH RALEIGH HOSPITAL","JC","Thrombectomy","3400 WAKE FOREST ROAD","RALEIGH","NC","27611","37183",35.828532571,-78.618125956
11327620,"WAKEMED","JC","Primary","3000 NEW BERN AVENUE","RALEIGH","NC","27620","37183",35.784511348,-78.587901971
1027804,"NASH GENERAL HOSPITAL","JC","Primary","2460 CURTIS ELLIS DR.","ROCKY MOUNT","NC","27804","37127",35.97615597,-77.852310808
9728144,"NOVANT HEALTH ROWAN MEDICAL CENTER","JC","Primary","612 MOCKSVILLE AVE","SALISBURY","NC","28144","37159",35.6812698420001,-80.470707938
5127330,"CENTRAL CAROLINA HOSPITAL","JC","Primary","1135 CARTHAGE ST","SANFORD","NC","27330","37105",35.4690744850001,-79.187204878
5528150,"ATRIUM HEALTH CLEVELAND","JC","Primary","201 EAST GROVER ST","SHELBY","NC","28150","37045",35.3029042430001,-81.536394214
8328677,"IREDELL MEMORIAL HOSPITAL, INCORPORATED","JC","Primary","557 BROOKDALE DRIVE","STATESVILLE","NC","28677","37097",35.799261529,-80.8780683369999
7727886,"VIDANTE EDGECOMBE HOSPITAL","JC","Primary","111 HOSPITAL DR","TARBORO","NC","27886","37065",35.9210314060001,-77.555915619
10927360,"NOVANT HEALTH THOMASVILLE MEDICAL CENTER","JC","Primary","207 OLD LEXINGTON ROAD","THOMASVILLE","NC","27360","37057",35.8798851180001,-80.111479564
6527371,"FIRSTHEALTH MONTGOMERY MEMORIAL HOSPITAL","JC","Acute Stroke Ready","520 ALLEN STREET","TROY","NC","27371","37123",35.364811235,-79.890368297
5628472,"COLUMBUS REGIONAL HEALTHCARE SYSTEM","DNV","Acute Stroke Ready","500 JEFFERSON ST","WHITEVILLE","NC","28472","37047",34.337734293,-78.694124088
1128401,"NEW HANOVER REGIONAL MEDICAL CENTER","DNV","Comprehensive","2228 S. 17TH STREET/FISCAL SERVICES","WILMINGTON","NC","28401","37129",34.2054638430001,-77.921284815
11927893,"WILSON MEDICAL CENTER","JC","Primary","1705 TARBORO ST. SW","WILSON","NC","27893","37195",35.71855867,-77.943813092
3227983,"VIDANT BERTIE HOSPITAL","JC","Acute Stroke Ready","1403 SOUTH KING STREET","WINDSOR","NC","27983","37015",35.988647545,-76.9282494889999
6827103,"NOVANT HEALTH FORSYTH MEDICAL CENTER","JC","Comprehensive","3333 SILAS CREEK PKWY","WINSTON-SALEM","NC","27103","37067",36.075550413,-80.2972871599999
1227157,"NORTH CAROLINA BAPTIST HOSPITAL","JC","Comprehensive","MEDICAL CENTER BLVD","WINSTON-SALEM","NC","27157","37067",36.0896496080001,-80.268174833
2012208,"ALBANY MEDICAL CENTER","JC","Comprehensive","43 NEW SCOTLAND AVE","ALBANY","NY","12208","36001",42.653408058,-73.7766574569999
117114810,"IRA DAVENPORT MEMORIAL HOSPITAL INC","JC","Primary","7571 STATE ROUTE 54","BATH","NY","14810","36101",42.3743292,-77.278906628
6711714,"ST. JOSEPH HOSPITAL","JC","Primary","4295 HEMPSTEAD TURNPIKE","BETHPAGE","NY","11714","36059",40.72677129,-73.4787181949999
15210036,"JACOBI MEDICAL CENTER","JC","Primary","1400 PELHAM PARKWAY SOUTH","BRONX","NY","10036","36005",40.8562983570001,-73.847512147
15710451,"LINCOLN HOSPITAL","JC","Primary","234 E 149TH ST","BRONX","NY","10451","36005",40.817173053,-73.924376651
15310466,"MONTEFIORE MEDICAL CENTER - MOSES DIVISION","JC","Comprehensive","111 E 210TH ST","BRONX","NY","10466","36005",40.880079256,-73.879826699
16411203,"KINGS COUNTY HOSPITAL CENTER","JC","Primary","451 CLARKSON AVE","BROOKLYN","NY","11203","36047",40.656616381,-73.94469079
16111212,"BROOKDALE HOSPITAL MEDICAL CENTER","HFAP","Thrombectomy","1 BROOKDALE PLAZA","BROOKLYN","NY","11212","36047",40.655269102,-73.9125565319999
16811219,"MAIMONIDES MEDICAL CENTER","JC","Comprehensive","4802 10TH AVE","BROOKLYN","NY","11219","36047",40.6394788750001,-73.998452635
2114203,"BUFFALO GENERAL MEDICAL CENTER","DNV","Comprehensive","100 HIGH ST","BUFFALO","NY","14203","36029",42.9008684130001,-78.8662097609999
2714217,"KENMORE MERCY HOSPITAL","JC","Primary","2950 ELMWOOD AVE","BUFFALO","NY","14217","36029",42.9775954450001,-78.8801177719999
2414220,"MERCY HOSPITAL","JC","Comprehensive","565 ABBOTT RD","BUFFALO","NY","14220","36029",42.8475014320001,-78.8119710349999
19611373,"ELMHURST HOSPITAL CENTER","JC","Primary","79-01 BROADWAY","ELMHURST","NY","11373","36081",40.7448273630001,-73.886079665
1314905,"ARNOT OGDEN MEDICAL CENTER","JC","Primary","600 ROE AVE","ELMIRA","NY","14905","36015",42.100149419,-76.827759865
20311355,"NEW YORK PRESBYTERIAN QUEENS","JC","Primary","56 45 MAIN ST","FLUSHING","NY","11355","36081",40.7467722760001,-73.8254163829999
8614456,"GENEVA GENERAL HOSPITAL","JC","Primary","196-198 NORTH ST","GENEVA","NY","14456","36069",42.876460481,-76.98776837
13312801,"GLENS FALLS HOSPITAL","DNV","Acute Stroke Ready","100 PARK ST","GLENS FALLS","NY","12801","36113",43.3066293850001,-73.6463127439999
6411030,"NORTH SHORE UNIVERSITY HOSPITAL","JC","Comprehensive","300 COMMUNITY DR","MANHASSET","NY","11030","36059",40.7776359200001,-73.701610944
900000600,"GARNET HEALTH MEDICAL CENTER","DNV","Primary","707 E MAIN ST","MIDDLETOWN","NY","10940",,41.44217453,-74.36887044
14210549,"NORTHERN WESTCHESTER HOSPITAL","JC","Primary","400 E MAIN ST","MOUNT KISCO","NY","10549","36119",41.1970540820001,-73.725700752
18710001,"MOUNT SINAI HOSPITAL","JC","Comprehensive","1 GUSTAVE L LEVY PL","NEW YORK","NY","10001","36061",40.7897675310001,-73.9532142739999
119410016,"NYU HOSPITALS CENTER","JC","Comprehensive","550 FIRST AVENUE","NEW YORK","NY","10016","36061",40.7420469040001,-73.9739293339999
118910021,"NEW YORK PRESBYTERIAN HOSPITAL - NEW YORK WEILL CORNELL CENTER","JC","Comprehensive","525 EAST 68TH STREET","NEW YORK","NY","10021","36061",40.7645499400001,-73.954332262
8712550,"ST. LUKE'S CORNWALL HOSPITAL - NEWBURGH CAMPUS","JC","Primary","70 DUBOIS ST","NEWBURGH","NY","12550","36071",41.5034248490001,-74.014565578
7011510,"SOUTH NASSAU COMMUNITIES HOSPITAL","JC","Primary","1 HEALTHY WAY","OCEANSIDE","NY","11510","36059",40.6509979950001,-73.630839438
12511507,"ST CHARLES HOSPITAL AND REHABILITATION CENTER","JC","Primary","200 BELLE TERRE RD","PORT JEFFERSON","NY","11507","36103",40.9466312260001,-73.060963223
2912601,"VASSAR BROTHERS MEDICAL CENTER","JC","Primary","45 READE PL","POUGHKEEPSIE","NY","12601","36027",41.6938589390001,-73.9357861139999
5514607,"STRONG MEMORIAL HOSPITAL","JC","Comprehensive","601 ELMWOOD AVE","ROCHESTER","NY","14607","36055",43.1228088730001,-77.624259428
5114621,"ROCHESTER GENERAL HOSPITAL","DNV","Comprehensive","1425 PORTLAND AVE","ROCHESTER","NY","14621","36055",43.192241133,-77.586814488
6811530,"MERCY MEDICAL CENTER","JC","Primary","1000 N VILLAGE AVE","ROCKVILLE CENTRE","NY","11530","36059",40.6885130310001,-73.6316038099999
7411548,"SAINT FRANCIS HOSPITAL","JC","Primary","100 PORT WASHINGTON BLVD","ROSLYN","NY","11548","36059",40.804754732,-73.6705896829999
12611787,"ST. CATHERINE OF SIENA MEDICAL CENTER","JC","Primary","50 ROUTE, 25 A","SMITHTOWN","NY","11787","36103",40.8685001860001,-73.2229967279999
20610301,"RICHMOND UNIVERSITY MEDICAL CENTER - MAIN CAMPUS","JC","Primary","355 BARD AVE","STATEN ISLAND","NY","10301","36085",40.6359024070001,-74.105937803
3611790,"UNIVERSITY HOSPITAL- STONEY BROOK","JC","Comprehensive","101 NICOLLS RD","STONY BROOK","NY","11790","36103",40.909194455,-73.115678223
10210901,"GOOD SAMARITAN HOSPITAL - SUFFERN","JC","Primary","255 LAFAYETTE AVE","SUFFERN","NY","10901","36087",41.111595777,-74.134811424
8213203,"ST JOSEPH'S HOSPITAL HEALTH CENTER","DNV","Primary","301 PROSPECT AVE","SYRACUSE","NY","13203","36067",43.055933075,-76.1500616719999
8413210,"CROUSE HOSPITAL","DNV","Comprehensive","736 IRVING AVE","SYRACUSE","NY","13210","36067",43.041299171,-76.138394013
8113215,"UPSTATE UNIVERSITY HOSPITAL - COMMUNITY CAMPUS","DNV","Comprehensive","4900 BROAD RD","SYRACUSE","NY","13215","36067",43.0080376670001,-76.167902182
15110532,"WESTCHESTER MEDICAL CENTER","DNV","Comprehensive","100 WOODS RD","VALHALLA","NY","10532","36119",41.0860907520001,-73.8049547749999
4313601,"SAMARITAN MEDICAL CENTER","JC","Primary","830 WASHINGTON ST","WATERTOWN","NY","13601","36045",43.9650434820001,-75.914557899
12810901,"GOOD SAMARITAN HOSPITAL - WEST ISLIP","JC","Comprehensive","1000 MONTAUK HIGHWAY","WEST ISLIP","NY","10901","36103",40.693880129,-73.294394616
13510601,"WHITE PLAINS HOSPITAL CENTER","JC","Primary","41 E POST RD","WHITE PLAINS","NY","10601","36119",41.02559431,-73.769305098
20914209,"MILLARD FILLMORE SUBURBAN HOSPITAL","DNV","Primary","1540 MAPLE RD","WILLIAMSVILLE","NY","14209","36029",42.9940394830001,-78.730238291
119710701,"SJRH - ST JOHNS DIVISION","JC","Primary","967 NORTH BROADWAY","YONKERS","NY","10701","36119",40.9689135340001,-73.8861469249999
10244307,"AKRON GENERAL MEDICAL CENTER","JC","Thrombectomy","1 AKRON GENERAL AVENUE","AKRON","OH","44307","39153",41.0781231720001,-81.5313967719999
12444309,"SUMMA HEALTH SYSTEMS AKRON HOSPITAL","JC","Thrombectomy","525 EAST MARKET STREET","AKRON","OH","44309","39153",41.0811261860001,-81.499818706
7044004,"ASHTABULA COUNTY MEDICAL CENTER","JC","Primary","2420 LAKE AVENUE","ASHTABULA","OH","44004","39007",41.880536555,-80.7949268
180044011,"CLEVELAND CLINIC AVON HOSPITAL","JC","Primary","33300 CLEVELAND CLINIC BLVD","AVON","OH","44011","39093",41.468906557,-81.9817664449999
8545103,"MERCY HOSPITAL CLERMONT","JC","Acute Stroke Ready","3000 HOSPITAL DRIVE","BATAVIA","OH","45103","39025",39.0804998950001,-84.144528188
10144122,"UNIVERSITY HOSPITALS AHUJA MEDICAL CENTER","JC","Primary","3999 RICHMOND ROAD","BEACHWOOD","OH","44122","39035",41.4521988720001,-81.4946935689999
17645431,"SOIN MEDICAL CENTER","HFAP","Primary","3535 PENTAGON PARK BLVD","BEAVERCREEK","OH","45431","39057",39.77104394,-84.0630529859999
15443110,"DILEY RIDGE MEDICAL CENTER","JC","Acute Stroke Ready","7911 DILEY ROAD","CANAL WINCHESTER","OH","43110","39045",39.8506698950001,-82.784080955
2444708,"MERCY MEDICAL CENTER","JC","Primary","1320 MERCY DRIVE NW","CANTON","OH","44708","39151",40.812157906,-81.3948754629999
7544710,"AULTMAN HOSPITAL","JC","Primary","2600 SIXTH STREET SW","CANTON","OH","44710","39151",40.7973191510001,-81.403062215
2644024,"UH GEAUGA MEDICAL CENTER","JC","Primary","13207 RAVENNA RD","CHARDON","OH","44024","39055",41.5092579970001,-81.1890927919999
7945601,"ADENA REGIONAL MEDICAL CENTER","JC","Primary","272 HOSPITAL ROAD","CHILLICOTHE","OH","45601","39141",39.3964977740001,-82.9676161089999
130245211,"MERCY HEALTH - WEST HOSPITAL","JC","Primary","3300 MERCY HEALTH BLVD","CINCINNATI","OH","45211","39061",39.180620033,-84.596399418
6145219,"CHRIST HOSPITAL","JC","Primary","2139 AUBURN AVENUE","CINCINNATI","OH","45219","39061",39.120930591,-84.510906969
129545219,"UNIVERSITY OF CINCINNATI MEDICAL CENTER, LLC","JC","Comprehensive","234 GOODMAN STREET","CINCINNATI","OH","45219","39061",39.138357662,-84.503716116
9945220,"GOOD SAMARITAN HOSPITAL","JC","Comprehensive","375 DIXMYTH AVENUE","CINCINNATI","OH","45220","39061",39.139933339,-84.5222844049999
127645236,"JEWISH HOSPITAL, LLC","JC","Acute Stroke Ready","4777 EAST GALBRAITH ROAD","CINCINNATI","OH","45236","39061",39.2059509790001,-84.38094165
1145242,"BETHESDA NORTH","JC","Primary","10500 MONTGOMERY ROAD","CINCINNATI","OH","45242","39061",39.251979953,-84.341784686
14945255,"MERCY HOSPITAL ANDERSON","JC","Primary","7500 STATE ROAD","CINCINNATI","OH","45255","39061",39.085685509,-84.348902933
1744106,"UNIVERSITY HOSPITALS OF CLEVELAND","JC","Comprehensive","11100 EUCLID AVENUE","CLEVELAND","OH","44106","39035",41.506142051,-81.605095434
7244109,"METRO HEALTH MEDICAL CENTER","JC","Comprehensive","2500 METROHEALTH DRIVE","CLEVELAND","OH","44109","39035",41.4609127630001,-81.697602076
4444111,"FAIRVIEW HOSPITAL","JC","Thrombectomy","18101 LORAIN AVENUE","CLEVELAND","OH","44111","39035",41.4505420770001,-81.8234252789999
17044195,"CLEVELAND CLINIC","JC","Comprehensive","9500 EUCLID AVENUE","CLEVELAND","OH","44195","39035",41.5027509610001,-81.620792669
10743210,"OHIO STATE UNIVERSITY HOSPITALS","JC","Comprehensive","410 WEST 10TH AVENUE","COLUMBUS","OH","43210","39049",39.994260862,-83.01856537
96,"MT CARMEL EAST HOSPITAL","JC","Comprehensive","6001 E BROAD ST","COLUMBUS","OH","43213","39049",39.9769193320001,-82.8433078309999
9643214,"RIVERSIDE METHODIST HOSPITAL","JC","Comprehensive","3535 OLENTANGY RIVER RD","COLUMBUS","OH","43214","39049",40.0305679890001,-83.0340170859999
1643215,"GRANT MEDICAL CENTER","JC","Primary","111 SOUTH GRANT AVENUE","COLUMBUS","OH","43215","39049",39.9609732750001,-82.991001983
12243228,"DOCTORS HOSPITAL","JC","Primary","5100 WEST BROAD STREET","COLUMBUS","OH","43228","39049",39.952525182,-83.1378653519999
4744223,"SUMMA WESTERN RESERVE HOSPITAL","HFAP","Primary","1900 23RD STREET","CUYAHOGA FALLS","OH","44223","39153",41.1329909660001,-81.511095847
10645405,"GRANDVIEW HOSPITAL & MEDICAL CENTER","HFAP","Primary","405 GRAND AVENUE","DAYTON","OH","45405","39113",39.770040754,-84.2022336219999
17545409,"MIAMI VALLEY HOSPITAL","JC","Comprehensive","ONE WYOMING STREET","DAYTON","OH","45409","39113",39.744893204,-84.185908608
91,"SOUTHVIEW HOSPITAL","HFAP","Primary","1997 MIAMISBURG CENTERVILLE RD","DAYTON","OH","45459","39113",39.6353966140001,-84.203420173
13944622,"UNION HOSPITAL","JC","Primary","659 BOULEVARD","DOVER","OH","44622","39157",40.51436785,-81.455854045
900000659,"PREBLE COUNTY MEDICAL CENTER ED","HFAP","Acute Stroke Ready","450-F WASHINGTON-JACKSON ROAD","EATON","OH","45320",,39.76695833,-84.64587051
13544035,"EMH REGIONAL MEDICAL CENTER","JC","Primary","630 EAST RIVER STREET","ELYRIA","OH","44035","39093",41.3668555890001,-82.097292351
4644119,"EUCLID HOSPITAL","JC","Primary","18901 LAKE SHORE BOULEVARD","EUCLID","OH","44119","39035",41.5988940500001,-81.5487775189999
8645014,"MERCY HOSPITAL FAIRFIELD","JC","Primary","3000 MACK ROAD","FAIRFIELD","OH","45014","39017",39.312699164,-84.517795738
4845840,"BLANCHARD VALLEY HOSPITAL","JC","Primary","1900 SOUTH MAIN STREET","FINDLAY","OH","45840","39063",41.0176526660001,-83.651364192
900000664,"KETTERING HEALTH NETWORK EMERGENCY - FRANKLIN","HFAP","Acute Stroke Ready","100 KETTERING WAY","FRANKLIN","OH","45005",,39.56234423,-84.27233227
17445005,"ATRIUM MEDICAL CENTER","JC","Primary","ONE MEDICAL CENTER DRIVE","FRANKLIN","OH","45005","39165",39.498340495,-84.3142513939999
14443420,"MEMORIAL HOSPITAL","JC","Primary","715 SOUTH TAFT AVENUE","FREMONT","OH","43420","39143",41.339258629,-83.135445451
2144125,"MARYMOUNT HOSPITAL","JC","Primary","12300 MCCRACKEN ROAD","GARFIELD HEIGHTS","OH","44125","39035",41.421163967,-81.598029018
13645013,"FORT HAMILTON HUGHES MEMORIAL HOSPITAL","HFAP","Primary","630 EATON AVENUE","HAMILTON","OH","45013","39017",39.415548233,-84.572707011
900000669,"HUBER HEALTH CENTER ED","HFAP","Acute Stroke Ready","8701 OLD TROY PIKE","HUBER HEIGHTS","OH","45424",,39.87968561,-84.13762934
9745429,"KETTERING MEDICAL CENTER","HFAP","Comprehensive","3535 SOUTHERN BOULEVARD","KETTERING","OH","45429","39113",39.697286574,-84.1924295169999
10543130,"FAIRFIELD MEDICAL CENTER","JC","Primary","401 NORTH EWING STREET","LANCASTER","OH","43130","39045",39.7175512540001,-82.577456609
14645801,"ST RITA'S MEDICAL CENTER","JC","Primary","730 WEST MARKET STREET","LIMA","OH","45801","39003",40.740932887,-84.118445671
745804,"LIMA MEMORIAL HEALTH SYSTEM","JC","Primary","1001 BELLEFONTAINE AVENUE","LIMA","OH","45804","39003",40.7357455980001,-84.085958419
6043140,"MADISON COUNTY HOSPITAL INC","JC","Acute Stroke Ready","210 NORTH MAIN STREET","LONDON","OH","43140","39097",39.8925545980001,-83.454255459
9844053,"MERCY REGIONAL MEDICAL CENTER","JC","Primary","3700 KOLBE ROAD","LORAIN","OH","44053","39093",41.4365245390001,-82.2371635279999
9444903,"OHIOHEALTH MANSFIELD HOSPITAL","JC","Primary","335 GLESSNER AVENUE","MANSFIELD","OH","44903","39139",40.752924353,-82.529472766
10445750,"MARIETTA MEMORIAL HOSPITAL","HFAP","Primary","401 MATTHEW STREET","MARIETTA","OH","45750","39167",39.43170107,-81.464163927
643302,"MARION GENERAL HOSPITAL","JC","Primary","1000 MCKINLEY PARK DRIVE","MARION","OH","43302","39101",40.5713431570001,-83.128727746
12943537,"ST LUKE'S HOSPITAL","DNV","Thrombectomy","5901 MONCLOVA ROAD","MAUMEE","OH","43537","39095",41.557311487,-83.682914446
14144124,"HILLCREST HOSPITAL","JC","Thrombectomy","6780 MAYFIELD ROAD","MAYFIELD HEIGHTS","OH","44124","39035",41.518299927,-81.436247882
544256,"MEDINA HOSPITAL","JC","Primary","1000 EAST WASHINGTON STREET","MEDINA","OH","44256","39103",41.138450875,-81.838292925
129245342,"SYCAMORE MEDICAL CENTER","HFAP","Primary","4000 MIAMISBURG-CENTERVILLE ROAD","MIAMISBURG","OH","45342","39113",39.637702931,-84.249272494
4544130,"SOUTHWEST GENERAL HEALTH CENTER","JC","Primary","18697 BAGLEY ROAD","MIDDLEBURG HEIGHTS","OH","44130","39035",41.3709924350001,-81.8320779909999
900000684,"KETTERING HEALTH NETWORK EMERGENCY-MIDDLETOWN","HFAP","Acute Stroke Ready","6147 STATE ROUTE 122","MIDDLETOWN","OH","45005",,39.49180245,-84.31991396
7844857,"FISHER-TITUS HOSPITAL","HFAP","Primary","272 BENEDICT AVENUE","NORWALK","OH","44857","39077",41.2257042730001,-82.604210251
8043616,"BAY PARK COMMUNITY HOSPITAL","JC","Primary","2801 BAY PARK DRIVE","OREGON","OH","43616","39095",41.6212019920001,-83.4804910559999
7443616,"MERCY ST CHARLES HOSPITAL","JC","Primary","2600 NAVARRE AVENUE","OREGON","OH","43616","39095",41.6351238390001,-83.485225207
15044077,"TRIPOINT MEDICAL CENTER","JC","Primary","7590 AUBURN ROAD","PAINESVILLE","OH","44077","39085",41.6626096360001,-81.247080777
14344129,"PARMA COMMUNITY GENERAL HOSPITAL","JC","Primary","7007 POWERS BOULEVARD","PARMA","OH","44129","39035",41.3821198360001,-81.731394677
14244266,"UH PORTAGE - ROBINSON MEMORIAL HOSPITAL","JC","Primary","6847 N CHESTNUT","RAVENNA","OH","44266","39133",41.1760577540001,-81.2490172989999
7744143,"UHHS RICHMOND HEIGHTS HOSPITAL","JC","Primary","27100 CHARDON ROAD","RICHMOND HEIGHTS","OH","44143","39035",41.5807521290001,-81.4889102339999
5445885,"JOINT TOWNSHIP DISTRICT MEMORIAL HOSPITAL","DNV","Acute Stroke Ready","200 SAINT CLAIR STREET","SAINT MARYS","OH","45885","39011",40.544350846,-84.3707135669999
1844870,"FIRELANDS REGIONAL MEDICAL CENTER","HFAP","Primary","1111 HAYES AVENUE","SANDUSKY","OH","44870","39043",41.445892256,-82.710196917
93,"SPRINGFIELD REGIONAL MEDICAL CTR-ER","JC","Primary","100 MEDICAL CENTER DR","SPRINGFIELD","OH","45504","39023",39.928750064,-83.8167691799999
6243606,"TOLEDO HOSPITAL THE","JC","Comprehensive","2142 NORTH COVE BOULEVARD","TOLEDO","OH","43606","39095",41.6723495590001,-83.5952583869999
6343608,"MERCY ST VINCENT MEDICAL CENTER","JC","Comprehensive","2213 CHERRY STREET","TOLEDO","OH","43608","39095",41.668669951,-83.542789756
8443699,"UNIVERSITY OF TOLEDO MEDICAL CENTER","JC","Primary","3000 ARLINGTON AVENUE","TOLEDO","OH","43699","39095",41.618767238,-83.616032643
8945373,"UPPER VALLEY MEDICAL CENTER","JC","Acute Stroke Ready","3130 NORTH COUNTY ROAD 25A","TROY","OH","45373","39109",40.085874431,-84.229927999
191445373,"KETTERING HEALTH NETWORK TROY HOSPITAL","HFAP","Acute Stroke Ready","600 WEST MAIN STREET","TROY","OH","45373","39109",40.0432322130001,-84.2096864279999
5744122,"SOUTH POINTE HOSPITAL","JC","Primary","20000 HARVARD ROAD","WARRENSVILLE HEIGHTS","OH","44122","39035",41.447903845,-81.537736486
15245069,"WEST CHESTER MEDICAL CENTER","JC","Primary","7700 UNIVERSITY DRIVE","WEST CHESTER","OH","45069","39017",39.358023873,-84.367564951
12043081,"MOUNT CARMEL ST ANN'S HOSPITAL","JC","Primary","500 SOUTH CLEVELAND AVENUE","WESTERVILLE","OH","43081","39049",40.114809833,-82.946704905
8244145,"ST JOHN MEDICAL CENTER","JC","Primary","29000 CENTER RIDGE ROAD","WESTLAKE","OH","44145","39035",41.4356459370001,-81.944736066
13245177,"CLINTON MEMORIAL HOSPITAL","JC","Acute Stroke Ready","610 WEST MAIN STREET","WILMINGTON","OH","45177","39027",39.4438513170001,-83.840020957
4244691,"WOOSTER COMMUNITY HOSPITAL","DNV","Primary","1761 BEALL AVENUE","WOOSTER","OH","44691","39169",40.820887467,-81.932161465
1945385,"GREENE MEMORIAL HOSPITAL","HFAP","Acute Stroke Ready","1141 NORTH MONROE DRIVE","XENIA","OH","45385","39057",39.7001251720001,-83.927740612
1044501,"ST ELIZABETH YOUNGSTOWN HOSPITAL","JC","Primary","1044 BELMONT AVENUE","YOUNGSTOWN","OH","44501","39099",41.114014996,-80.6573145469999
8343701,"GENESIS HOSPITAL","HFAP","Primary","2951 MAPLE AVENUE","ZANESVILLE","OH","43701","39119",39.9748082890001,-82.016500661
4774701,"ALLIANCEHEALTH DURANT","JC","Acute Stroke Ready","1800 UNIVERSITY BOULEVARD","DURANT","OK","74701","40013",34.007151917,-96.3934279169999
9273701,"ST. MARY'S REGIONAL MEDICAL CENTER","JC","Primary","305 SOUTH FIFTH STREET","ENID","OK","73701","40047",36.3937529150001,-97.8712858929999
1773505,"COMANCHE COUNTY MEMORIAL HOSPITAL","JC","Primary","3401 WEST GORE BOULEVARD","LAWTON","OK","73505","40031",34.6097854440001,-98.434260707
7973505,"SOUTHWESTERN MEDICAL CENTER","JC","Primary","5602 SW LEE BOULEVARD","LAWTON","OK","73505","40031",34.592635247,-98.4627401929999
6474501,"MCALESTER REGIONAL HEALTH CENTER","DNV","Primary","ONE CLARK BASS BOULEVARD","MCALESTER","OK","74501","40121",34.9368817440001,-95.750925292
2973110,"ALLIANCEHEALTH MIDWEST","JC","Primary","2825 PARKLAWN DRIVE","MIDWEST CITY","OK","73110","40109",35.4667441780001,-97.39394091
6773070,"NORMAN REGIONAL HEALTH SYSTEM -NORMAN CAMPUS","JC","Primary","901 NORTH PORTER STREET","NORMAN","OK","73070","40027",35.230413878,-97.439293783
8173102,"SSM HEALTH ST. ANTHONY HOSPITAL-OKLAHOMA CITY","JC","Primary","1000 NORTH LEE STREET","OKLAHOMA CITY","OK","73102","40109",35.4779097040001,-97.523429705
130473104,"OU MEDICAL CENTER","JC","Comprehensive","700 NE 13TH STREET","OKLAHOMA CITY","OK","73104","40109",35.480779516,-97.501558798
4273109,"INTEGRIS SOUTHWEST MEDICAL CENTER","JC","Primary","4401 SOUTH WESTERN","OKLAHOMA CITY","OK","73109","40109",35.4213434600001,-97.533772492
3373112,"INTEGRIS BAPTIST MEDICAL CENTER","DNV","Comprehensive","3300 NW EXPRESSWAY","OKLAHOMA CITY","OK","73112","40109",35.5293791440001,-97.576134875
5173120,"OKC-AMG SPECIALTY HOSPITAL","JC","Comprehensive","4300 WEST MEMORIAL ROAD","OKLAHOMA CITY","OK","73120","40109",35.60677594,-97.599427887
5574601,"ALLIANCEHEALTH PONCA CITY","JC","Acute Stroke Ready","1900 NORTH 14TH STREET","PONCA CITY","OK","74601","40071",36.724659091,-97.068356835
8974074,"STILLWATER MEDICAL CENTER","DNV","Primary","1323 WEST SIXTH AVENUE","STILLWATER","OK","74074","40119",36.115011098,-97.0751020659999
1074464,"CHEROKEE NATION W. W. HASTINGS HOSPITAL","DNV","Acute Stroke Ready","100 SOUTH BLISS AVENUE","TAHLEQUAH","OK","74464","40021",35.9118314720001,-94.950538803
8674104,"ST. JOHN MEDICAL CENTER","JC","Comprehensive","1923 SOUTH UTICA AVENUE","TULSA","OK","74104","40143",36.1342000930001,-95.964219693
874104,"HILLCREST MEDICAL CENTER","DNV","Comprehensive","1120 SOUTH UTICA","TULSA","OK","74104","40143",36.147161182,-95.968510827
774133,"HILLCREST HOSPITAL SOUTH","DNV","Primary","8801 SOUTH 101ST EAST AVENUE","TULSA","OK","74133","40143",36.035315504,-95.863559858
7674136,"SAINT FRANCIS HOSPITAL","DNV","Comprehensive","6161 SOUTH YALE AVENUE","TULSA","OK","74136","40143",36.0727658280001,-95.918984274
17519001,"ABINGTON MEMORIAL HOSPITAL","JC","Comprehensive","1200 OLD YORK ROAD","ABINGTON","PA","19001","42091",40.1188949470001,-75.120998973
117,"LEHIGH VALLEY HOSPITAL-17TH ST","JC","Comprehensive","1637 W CHEW ST","ALLENTOWN","PA","18102","42077",40.602138848,-75.4944647089999
12318102,"ST LUKES HOSPITAL SACRED HEART CAMPUS","JC","Primary","421 CHEW STREET","ALLENTOWN","PA","18102","42077",40.608314804,-75.468459857
1916601,"UPMC ALTOONA","JC","Primary","620 HOWARD AVENUE","ALTOONA","PA","16601","42013",40.5218208950001,-78.398697715
9515009,"HERITAGE VALLEY BEAVER","JC","Primary","1000 DUTCH RIDGE ROAD","BEAVER","PA","15009","42007",40.712044516,-80.323298436
3018603,"BERWICK HOSPITAL CENTER","JC","Acute Stroke Ready","701 EAST 16TH STREET","BERWICK","PA","18603","42037",41.070954,-76.2309300009999
21518015,"ST LUKES HOSPITAL OF BETHLEHEM","JC","Comprehensive","801 OSTRUM STREET","BETHLEHEM","PA","18015","42077",40.609357002,-75.393363
9119007,"LOWER BUCKS HOSPITAL","JC","Primary","501 BATH ROAD","BRISTOL","PA","19007","42017",40.1050915550001,-74.8672635349999
17919010,"BRYN MAWR HOSPITAL","JC","Thrombectomy","130 SOUTH BRYN MAWR AVENUE","BRYN MAWR","PA","19010","42091",40.0189444760001,-75.3214288089999
2916001,"BUTLER MEMORIAL HOSPITAL","HFAP","Primary","ONE HOSPITAL WAY","BUTLER","PA","16001","42019",40.8668940000001,-79.881562
19117011,"HOLY SPIRIT HOSPITAL","JC","Primary","503 NORTH 21ST STREET","CAMP HILL","PA","17011","42041",40.2540720000001,-76.921950115
3817105,"UPMC CARLISLE","JC","Primary","361 ALEXANDER SPRING ROAD","CARLISLE","PA","17105","42041",40.1833291940001,-77.2242212089999
3917201,"CHAMBERSBURG HOSPITAL","JC","Primary","112 NORTH 7TH STREET","CHAMBERSBURG","PA","17201","42055",39.933978,-77.646136
4218218,"ST LUKE'S MINERS MEMORIAL HOSPITAL","JC","Primary","360 WEST RUDDLE STREET","COALDALE","PA","18218","42107",40.8213881450001,-75.914030214
3219320,"BRANDYWINE HOSPITAL","JC","Primary","201 REECEVILLE ROAD","COATESVILLE","PA","19320","42029",40.010125794,-75.786130126
6017822,"GEISINGER MEDICAL CENTER","JC","Comprehensive","100 NORTH ACADEMY AVENUE","DANVILLE","PA","17822","42093",40.968144964,-76.6052561079999
20019023,"MERCY CATHOLIC MEDICAL CENTER","JC","Primary","1500 LANSDOWNE AVENUE","DARBY","PA","19023","42045",39.9266997760001,-75.26880683
18518901,"DOYLESTOWN HOSPITAL","JC","Primary","595 WEST STATE STREET","DOYLESTOWN","PA","18901","42017",40.3059017910001,-75.1461010959999
4819026,"DELAWARE COUNTY MEMORIAL HOSPITAL","JC","Primary","501 NORTH LANSDOWNE AVENUE","DREXEL HILL","PA","19026","42045",39.9547580010001,-75.283604
4915801,"PENN HIGHLANDS DUBOIS","JC","Primary","100 HOSPITAL AVENUE, PO BOX 447","DUBOIS","PA","15801","42033",41.115018197,-78.775225392
27719403,"EINSTEIN MEDICAL CENTER MONTGOMERY","JC","Primary","559 W GERMANTOWN PIKE","EAST NORRITON","PA","19403","42091",40.1531434790001,-75.343394181
6618301,"LEHIGH VALLEY HOSPITAL POCONO","JC","Primary","206 EAST BROWN STREET","EAST STROUDSBURG","PA","18301","42089",40.992799001,-75.1745349999999
18718042,"EASTON HOSPITAL","JC","Primary","250 SOUTH 21ST STREET","EASTON","PA","18042","42095",40.687108257,-75.242599255
28418045,"ST LUKE'S HOSPITAL ANDERSON CAMPUS","JC","Primary","1872 ST. LUKE'S BLVD","EASTON","PA","18045","42095",40.6491477640001,-75.287820911
18617522,"WELLSPAN EPHRATA COMMUNITY HOSPITAL","DNV","Primary","169 MARTIN AVENUE, PO BOX 1002","EPHRATA","PA","17522","42071",40.187234001,-76.182196999
23216509,"MILLCREEK COMMUNITY HOSPITAL","HFAP","Primary","5515 PEACH STREET","ERIE","PA","16509","42049",42.074260001,-80.0920419999999
12716544,"SAINT VINCENT HOSPITAL","JC","Primary","232 WEST 25TH STREET","ERIE","PA","16544","42049",42.1113710010001,-80.079538999
6916550,"UPMC HAMOT","DNV","Comprehensive","201 STATE STREET","ERIE","PA","16550","42049",42.1351119990001,-80.0853629379999
24215537,"UPMC BEDFORD","JC","Acute Stroke Ready","10455 LINCOLN HIGHWAY","EVERETT","PA","15537","42009",40.0254040360001,-78.432673001
2517325,"WELLSPAN GETTYSBURG HOSPITAL","DNV","Primary","147 GETTYS STREET, PO BOX 3786","GETTYSBURG","PA","17325","42001",39.824378,-77.234390999
25315601,"EXCELA HEALTH WESTMORELAND HOSPITAL","JC","Primary","532 WEST PITTSBURGH STREET","GREENSBURG","PA","15601","42129",40.300795195,-79.554513288
7017331,"UPMC HANOVER","JC","Primary","300 HIGHLAND AVENUE","HANOVER","PA","17331","42133",39.808793001,-76.983190999
179617105,"UPMC PINNACLE HOSPITAL","JC","Primary","409 SOUTH SECOND STREET","HARRISBURG","PA","17105","42043",40.2568830000001,-76.875824
7318201,"LEHIGH VALLEY HOSPITAL HAZLETON","HFAP","Primary","700 EAST BROAD STREET","HAZLETON","PA","18201","42079",40.9491760010001,-75.964829
9317033,"MILTON S HERSHEY MEDICAL CENTER","JC","Comprehensive","500 UNIVERSITY DRIVE, PO BOX 850","HERSHEY","PA","17033","42043",40.2637540010001,-76.6748420009999
16118431,"WAYNE MEMORIAL HOSPITAL","DNV","Primary","601 PARK STREET","HONESDALE","PA","18431","42127",41.5765610010001,-75.260329
8217740,"GEISINGER JERSEY SHORE HOSPITAL","JC","Acute Stroke Ready","1020 THOMPSON STREET","JERSEY SHORE","PA","17740","42081",41.2018360020001,-77.267931001
3615905,"CONEMAUGH MEMORIAL HOSPITAL","JC","Primary","1086 FRANKLIN STREET","JOHNSTOWN","PA","15905","42021",40.3057497950001,-78.918362413
17716201,"ACMH HOSPITAL","DNV","Primary","ONE NOLTE DRIVE","KITTANNING","PA","16201","42005",40.8088440010001,-79.562016001
8717604,"LANCASTER GENERAL HOSPITAL","JC","Primary","555 NORTH DUKE STREET, PO BOX 3555","LANCASTER","PA","17604","42071",40.047293376,-76.304079267
24719047,"ST MARY MEDICAL CENTER","JC","Primary","1201 LANGHORNE-NEWTOWN ROAD","LANGHORNE","PA","19047","42017",40.2027590000001,-74.923847001
24519446,"LANSDALE HOSPITAL","JC","Primary","100 MEDICAL CAMPUS DRIVE","LANSDALE","PA","19446","42091",40.2503,-75.271421
9015650,"EXCELA HEALTH LATROBE HOSPITAL","JC","Primary","1 MELLON WAY","LATROBE","PA","15650","42129",40.3211439390001,-79.3946601069999
6717042,"WELLSPAN GOOD SAMARITAN HOSPITAL, THE","DNV","Primary","FOURTH & WALNUT STREETS, PO BOX 1281","LEBANON","PA","17042","42075",40.336479001,-76.416234001
5818235,"BLUE MOUNTAIN HOSPITAL GNADEN HUETTEN","JC","Primary","211 NORTH 12TH STREET","LEHIGHTON","PA","18235","42025",40.833084001,-75.725897001
23317837,"EVANGELICAL COMMUNITY HOSPITAL","DNV","Primary","ONE HOSPITAL DRIVE","LEWISBURG","PA","17837","42119",40.9797350010001,-76.886620001
8817044,"GEISINGER -LEWISTOWN HOSPITAL","JC","Acute Stroke Ready","400 HIGHLAND AVENUE","LEWISTOWN","PA","17044","42087",40.617723002,-77.5680179999999
19417543,"UPMC LITITZ","JC","Primary","1500 HIGHLANDS DRIVE","LITITZ","PA","17543","42071",40.1322450010001,-76.311902
8917745,"LOCK HAVEN HOSPITAL","JC","Acute Stroke Ready","24 CREE DRIVE","LOCK HAVEN","PA","17745","42035",41.131598733,-77.470211588
24115132,"UPMC MCKEESPORT","JC","Primary","1500 FIFTH AVENUE","MCKEESPORT","PA","15132","42003",40.3517962060001,-79.849853737
7519046,"HOLY REDEEMER HOSPITAL & MEDICAL CENTER","DNV","Primary","1648 HUNTINGDON PIKE","MEADOWBROOK","PA","19046","42091",40.1095830720001,-75.0823226059999
19616335,"MEADVILLE MEDICAL CENTER","DNV","Primary","751 LIBERTY STREET","MEADVILLE","PA","16335","42039",41.6416480010001,-80.145881999
21019063,"RIDDLE HOSPITAL","JC","Primary","1068 WEST BALTIMORE PIKE","MEDIA","PA","19063","42045",39.912348002,-75.4305409999999
19815552,"CONEMAUGH MEYERSDALE MEDICAL CENTER","JC","Acute Stroke Ready","200 HOSPITAL DRIVE","MEYERSDALE","PA","15552","42111",39.809105,-79.025096001
10115063,"MONONGAHELA VALLEY HOSPITAL","JC","Primary","1163 COUNTRY CLUB ROAD","MONONGAHELA","PA","15063","42125",40.1822060000001,-79.911216001
110,"UPMC EAST","JC","Primary","2775 MOSSIDE BLVD","MONROEVILLE","PA","15146","42003",40.43643038,-79.7598967549999
18815146,"FORBES HOSPITAL","JC","Primary","2570 HAYMAKER ROAD","MONROEVILLE","PA","15146","42003",40.4284430010001,-79.747652
7415666,"EXCELA HEALTH FRICK HOSPITAL","JC","Primary","508 SOUTH CHURCH STREET","MOUNT PLEASANT","PA","15666","42129",40.1451600010001,-79.549295999
9217756,"UPMC SUSQUEHANNA MUNCY","JC","Acute Stroke Ready","215 EAST WATER STREET","MUNCY","PA","17756","42081",41.2097580020001,-76.775342001
25515065,"ALLEGHENY VALLEY HOSPITAL","JC","Primary","1301 CARLISLE STREET","NATRONA HEIGHTS","PA","15065","42003",40.6182848180001,-79.736751349
13319401,"SUBURBAN COMMUNITY HOSPITAL","JC","Primary","2701 DEKALB PIKE","NORRISTOWN","PA","19401","42091",40.1398399280001,-75.315902249
900000789,"GSL HOSPITAL","JC","Primary","100 PARAMOUNT BLVD","ORWIGSBURG","PA","17961",,40.64108608,-76.0917104
11019301,"PAOLI HOSPITAL","JC","Primary","255 WEST LANCASTER AVENUE","PAOLI","PA","19301","42029",40.0441890000001,-75.501087
20819104,"PENN PRESBYTERIAN MEDICAL CENTER","JC","Primary","51 NORTH 39TH STREET","PHILADELPHIA","PA","19104","42101",39.9588724830001,-75.199263683
19219104,"HOSPITAL OF THE UNIVERSITY OF PENNSYLVANIA","JC","Comprehensive","3400 SPRUCE STREET","PHILADELPHIA","PA","19104","42101",39.9499691950001,-75.194202725
11119107,"PENNSYLVANIA HOSPITAL","JC","Primary","800 SPRUCE STREET","PHILADELPHIA","PA","19107","42101",39.9452090550001,-75.1557320969999
13619107,"THOMAS JEFFERSON UNIVERSITY HOSPITAL","JC","Comprehensive","111 SOUTH 11TH STREET","PHILADELPHIA","PA","19107","42101",39.9497083750001,-75.157946045
5619114,"ARIA HEALTH FRANKFORD","JC","Primary","4900 FRANKFORD AVENUE","PHILADELPHIA","PA","19114","42101",40.0195431430001,-75.081875
4019118,"CHESTNUT HILL HOSPITAL","JC","Primary","8835 GERMANTOWN AVENUE","PHILADELPHIA","PA","19118","42101",40.0794680020001,-75.211935
25919128,"ROXBOROUGH MEMORIAL HOSPITAL","JC","Primary","5800 RIDGE AVENUE","PHILADELPHIA","PA","19128","42101",40.02862679,-75.2097723699999
13519140,"TEMPLE UNIVERSITY HOSPITAL","JC","Comprehensive","3401 N BROAD STREET, HOSP ADMIN SUITE D","PHILADELPHIA","PA","19140","42101",40.004834859,-75.1509023199999
17619141,"ALBERT EINSTEIN MEDICAL CENTER","JC","Thrombectomy","5501 OLD YORK ROAD","PHILADELPHIA","PA","19141","42101",40.0367370010001,-75.143342
20319152,"NAZARETH HOSPITAL","JC","Primary","2601 HOLME AVENUE","PHILADELPHIA","PA","19152","42101",40.058971338,-75.0420087379999
20619468,"PHOENIXVILLE HOSPITAL","JC","Primary","140 NUTT ROAD, PO BOX 3001","PHOENIXVILLE","PA","19468","42029",40.123789001,-75.515085001
22515212,"ALLEGHENY GENERAL HOSPITAL","JC","Comprehensive","320 EAST NORTH AVENUE","PITTSBURGH","PA","15212","42003",40.4570630010001,-80.0034019989999
12615215,"UPMC ST MARGARET","JC","Primary","815 FREEPORT ROAD","PITTSBURGH","PA","15215","42003",40.4894183050001,-79.8960707319999
9715219,"UPMC MERCY","JC","Comprehensive","1400 LOCUST STREET","PITTSBURGH","PA","15219","42003",40.4360990000001,-79.985113999
16715224,"WESTERN PENNSYLVANIA HOSPITAL","JC","Primary","4800 FRIENDSHIP AVENUE","PITTSBURGH","PA","15224","42003",40.4618760010001,-79.946221999
108,"UPMC SHADYSIDE-ER","JC","Comprehensive","5230 CENTRE AVE","PITTSBURGH","PA","15232","42003",40.454588352,-79.939767752
24915236,"JEFFERSON REGIONAL MEDICAL CENTER","JC","Primary","565 COAL VALLEY ROAD, P O BOX 18119","PITTSBURGH","PA","15236","42003",40.3174455910001,-79.933649767
20415237,"UPMC PASSAVANT","JC","Primary","9100 BABCOCK BOULEVARD","PITTSBURGH","PA","15237","42003",40.5733930010001,-80.013992999
16615243,"ST CLAIR MEMORIAL HOSPITAL","JC","Primary","1000 BOWER HILL ROAD","PITTSBURGH","PA","15243","42003",40.3780950010001,-80.066629999
11219464,"POTTSTOWN MEMORIAL MEDICAL CENTER","JC","Primary","1600 EAST HIGH STREET","POTTSTOWN","PA","19464","42091",40.242617001,-75.612217001
20717901,"LEHIGH VALLEY HOSPITAL SCHUYLKILL","JC","Primary","420 SOUTH JACKSON STREET","POTTSVILLE","PA","17901","42107",40.683794989,-76.188270045
11618951,"ST LUKE'S QUAKERTOWN HOSPITAL","JC","Primary","1021 PARK AVENUE","QUAKERTOWN","PA","18951","42017",40.4381371440001,-75.3485949289999
118,"ST JOSEPH MEDICAL CENTER-MAIN","JC","Primary","2500 BERNVILLE RD","READING","PA","19605","42011",40.37514586,-75.978182706
20919612,"READING HOSPITAL","JC","Primary","420 S FIFTH AVENUE","READING","PA","19612","42011",40.3305170020001,-75.950164
10416673,"CONEMAUGH NASON MEDICAL CENTER","JC","Acute Stroke Ready","105 NASON DRIVE","ROARING SPRING","PA","16673","42013",40.3389280000001,-78.388433
21118840,"ROBERT PACKER HOSPITAL","JC","Primary","ONE GUTHRIE SQUARE","SAYRE","PA","18840","42015",41.9802300010001,-76.520727001
4418510,"GEISINGER COMMUNITY MEDICAL CENTER","JC","Primary","1800 MULBERRY STREET","SCRANTON","PA","18510","42069",41.4002060010001,-75.646223001
10018510,"MOSES TAYLOR HOSPITAL","JC","Primary","700 QUINCY AVENUE","SCRANTON","PA","18510","42069",41.4106949550001,-75.650568144
24418510,"REGIONAL HOSPITAL OF SCRANTON","JC","Primary","746 JEFFERSON AVENUE","SCRANTON","PA","18510","42069",41.412335264,-75.6539615149999
5918960,"GRAND VIEW HOSPITAL","JC","Primary","700 LAWN AVENUE","SELLERSVILLE","PA","18960","42017",40.3629220010001,-75.326040001
23416346,"UPMC NORTHWEST - SENECA","JC","Primary","100 FAIRFIELD DRIVE","SENECA","PA","16346","42121",41.3613834130001,-79.700627738
12815143,"HERITAGE VALLEY SEWICKLEY","JC","Primary","720 BLACKBURN ROAD","SEWICKLEY","PA","15143","42003",40.542576002,-80.177979001
13016146,"SHARON REGIONAL HEALTH SYSTEM","JC","Primary","740 EAST STATE STREET","SHARON","PA","16146","42085",41.2326610010001,-80.496213
13215501,"UPMC SOMERSET","JC","Primary","225 SOUTH CENTER AVENUE","SOMERSET","PA","15501","42111",40.0070480000001,-79.077821
22916803,"MOUNT NITTANY MEDICAL CENTER","JC","Primary","1800 EAST PARK AVENUE","STATE COLLEGE","PA","16803","42027",40.8185483410001,-77.842589845
179418360,"ST LUKES HOSPITAL MONROE CAMPUS","JC","Primary","100 ST LUKES LANE","STROUDSBURG","PA","18360","42089",40.997531,-75.259981
21818657,"TYLER MEMORIAL HOSPITAL","JC","Acute Stroke Ready","880 SR 6","TUNKHANNOCK","PA","18657","42131",41.577597113,-75.969414742
22115401,"UNIONTOWN HOSPITAL","JC","Primary","500 WEST BERKELEY STREET","UNIONTOWN","PA","15401","42051",39.9018090010001,-79.738082999
4519013,"CROZER-CHESTER MEDICAL CENTER","JC","Comprehensive","ONE MEDICAL CENTER BOULEVARD","UPLAND","PA","19013","42045",39.8564980020001,-75.367645
16015301,"WASHINGTON HOSPITAL","JC","Primary","155 WILSON AVENUE","WASHINGTON","PA","15301","42125",40.1838751080001,-80.246606178
16317268,"WAYNESBORO HOSPITAL","JC","Primary","501 EAST MAIN STREET","WAYNESBORO","PA","17268","42055",39.751691002,-77.5682800009999
12216901,"UPMC SUSQUEHANNA SOLDIERS & SAILORS","JC","Acute Stroke Ready","32-36 CENTRAL AVENUE","WELLSBORO","PA","16901","42117",41.7451130000001,-77.300430999
18019380,"CHESTER COUNTY HOSPITAL","JC","Primary","701 EAST MARSHALL STREET","WEST CHESTER","PA","19380","42029",39.9712065690001,-75.602145072
10718711,"GEISINGER WYOMING VALLEY MEDICAL CENTER","JC","Comprehensive","1000 EAST MOUNTAIN DRIVE","WILKES-BARRE","PA","18711","42079",41.257365,-75.8089899989999
16818764,"WILKES-BARRE GENERAL HOSPITAL","JC","Primary","575 NORTH RIVER STREET","WILKES-BARRE","PA","18764","42079",41.258691431,-75.867063674
16917701,"WILLIAMSPORT REGIONAL MEDICAL CENTER","JC","Primary","700 HIGH STREET","WILLIAMSPORT","PA","17701","42081",41.2470106280001,-77.015966971
8619096,"MAIN LINE HOSPITAL LANKENAU","JC","Primary","100 LANCASTER AVENUE","WYNNEWOOD","PA","19096","42091",39.988434001,-75.260865001
17217405,"YORK HOSPITAL","JC","Comprehensive","1001 SOUTH GEORGE STREET","YORK","PA","17405","42133",39.945698,-76.7185010009999
188217408,"UPMC MEMORIAL","HFAP","Primary","1701 INNOVATION DRIVE","YORK","PA","17408","42133",39.9821930000001,-76.7690449999999
6629801,"AIKEN REGIONAL MEDICAL CENTER","JC","Primary","302 UNIVERSITY PKWY","AIKEN","SC","29801","45003",33.571197892,-81.761802981
529621,"ANMED HEALTH MEDICAL CENTER","JC","Primary","800 N FANT ST","ANDERSON","SC","29621","45007",34.511484239,-82.6464867509999
8129902,"BEAUFORT MEMORIAL HOSPITAL","JC","Primary","955 RIBAUT RD","BEAUFORT","SC","29902","45013",32.4173297730001,-80.687520971
6729401,"ROPER HOSPITAL","JC","Primary","316 CALHOUN ST","CHARLESTON","SC","29401","45019",32.782793918,-79.949276415
7829414,"BON SECOURS-ST FRANCIS XAVIER HOSPITAL","JC","Primary","2095 HENRY TECKLENBURG DR","CHARLESTON","SC","29414","45019",32.8083710670001,-80.042457693
6929425,"MUSC MEDICAL CENTER","JC","Comprehensive","169 ASHLEY AVE","CHARLESTON","SC","29425","45019",32.785882041,-79.947921358
2629520,"MCLEOD HEALTH CHERAW","DNV","Acute Stroke Ready","711 CHESTERFIELD HWY","CHERAW","SC","29520","45025",34.6945760510001,-79.919753714
1429203,"PRISMA HEALTH RICHLAND","JC","Comprehensive","5 RICHLAND MEDICAL PARK DR","COLUMBIA","SC","29203","45079",34.0286016480001,-81.0330541719999
2829526,"CONWAY MEDICAL CENTER","DNV","Primary","300 SINGLETON RIDGE RD","CONWAY","SC","29526","45051",33.785521837,-79.001827808
1229536,"MCLEOD MEDICAL CENTER-DILLON","DNV","Acute Stroke Ready","301 E JACKSON ST","DILLON","SC","29536","45033",34.4217105910001,-79.365532437
7429505,"MUSC HEALTH FLORENCE MEDICAL CENTER","JC","Primary","805 PAMPLICO HWY","FLORENCE","SC","29505","45041",34.160066151,-79.7520554019999
929506,"MCLEOD REGIONAL MEDICAL CENTER","DNV","Primary","555 E CHEVES ST","FLORENCE","SC","29506","45041",34.1971149710001,-79.75897472
6429440,"TIDELANDS GEORGETOWN MEMORIAL HOSPITAL","JC","Primary","606 BLACK RIVER RD","GEORGETOWN","SC","29440","45043",33.3796426850001,-79.284553409
9229601,"ST FRANCIS-DOWNTOWN","JC","Comprehensive","1 SAINT FRANCIS DR","GREENVILLE","SC","29601","45045",34.8404389680001,-82.4213904219999
129605,"PRISMA HEALTH GREENVILLE MEMORIAL HOSPITAL","JC","Comprehensive","701 GROVE RD","GREENVILLE","SC","29605","45045",34.81864389,-82.412648587
1529646,"SELF REGIONAL HEALTHCARE","DNV","Primary","1325 SPRING ST","GREENWOOD","SC","29646","45047",34.1756436160001,-82.1565781899999
9529650,"PRISMA HEALTH GREER MEMORIAL HOSPITAL","JC","Primary","830 S BUNCOMBE RD","GREER","SC","29650","45045",34.920043972,-82.244231202
9429651,"PELHAM MEDICAL CENTER","DNV","Primary","250 WESTMORELAND RD","GREER","SC","29651","45083",34.862483583,-82.218591297
6529927,"COASTAL CAROLINA HOSPITAL","JC","Primary","1000 MEDICAL CENTER DR","HARDEEVILLE","SC","29927","45053",32.3150337970001,-81.0539623499999
5429550,"CAROLINA PINES REGIONAL MEDICAL CENTER","JC","Primary","1304 W BOBO NEWSOM HWY","HARTSVILLE","SC","29550","45031",34.349818864,-80.1041200239999
8229926,"HILTON HEAD HOSPITAL","JC","Primary","25 HOSPITAL CENTER BLVD","HILTON HEAD ISLAND","SC","29926","45013",32.224045317,-80.715057337
2529720,"MUSC HEALTH LANCASTER MEDICAL CENTER","JC","Primary","800 W MEETING ST","LANCASTER","SC","29720","45057",34.717687073,-80.7877213739999
10229566,"MCLEOD SEACOAST","DNV","Acute Stroke Ready","4000 HWY 9 E","LITTLE RIVER","SC","29566","45051",33.865712235,-78.66354577
1329569,"MCLEOD LORIS","DNV","Acute Stroke Ready","3655 MITCHELL ST","LORIS","SC","29569","45051",34.0574707000001,-78.898893137
8429102,"MCLEOD HEALTH CLARENDON","DNV","Acute Stroke Ready","10 E HOSPITAL ST","MANNING","SC","29102","45027",33.6867129820001,-80.2115390279999
8829464,"EAST COOPER MEDICAL CENTER","JC","Primary","2000 HOSPITAL DR","MOUNT PLEASANT","SC","29464","45019",32.8211808660001,-79.850553518
8929466,"MOUNT PLEASANT HOSPITAL","JC","Acute Stroke Ready","3500 HWY 17 N","MOUNT PLEASANT","SC","29466","45019",32.877829305,-79.7691314159999
8329576,"TIDELANDS WACCAMAW COMMUNITY HOSPITAL","JC","Primary","4070 HWY 17 BYPASS","MURRELLS INLET","SC","29576","45043",33.5604687530001,-79.042725301
7629572,"GRAND STRAND REGIONAL MEDICAL CENTER","DNV","Comprehensive","809 82ND PKWY","MYRTLE BEACH","SC","29572","45051",33.758439434,-78.820106779
4129406,"TRIDENT MEDICAL CENTER","JC","Thrombectomy","9330 MEDICAL PLAZA DR","N CHARLESTON","SC","29406","45019",32.975962495,-80.0730751089999
7929118,"REGIONAL MEDICAL CENTER OF ORANGEBURG & CALHOUN COUNTIES","JC","Primary","3000 SAINT MATTHEWS RD","ORANGEBURG","SC","29118","45075",33.5402674520001,-80.830458172
1729732,"PIEDMONT MEDICAL CENTER","JC","Primary","222 S HERLONG AVE","ROCK HILL","SC","29732","45091",34.956609449,-81.05177374
2129672,"PRISMA HEALTH OCONEE MEMORIAL HOSPITAL","JC","Primary","298 MEMORIAL DR","SENECA","SC","29672","45073",34.6955306900001,-82.98721979
7229303,"SPARTANBURG REGIONAL MEDICAL CENTER","DNV","Primary","101 E WOOD ST","SPARTANBURG","SC","29303","45083",34.9666004540001,-81.9394644929999
900000874,"ROPER ST. FRANCIS HOSPITAL - BERKELEY INC.","JC","Acute Stroke Ready","100 CALLEN BLVD","SUMMERVILLE","SC","29486",,33.068856,-80.09543978
6329379,"UNION MEDICAL CENTER","DNV","Acute Stroke Ready","322 W SOUTH ST","UNION","SC","29379","45087",34.7121601330001,-81.629300789
429944,"HAMPTON REGIONAL MEDICAL CENTER","JC","Acute Stroke Ready","595 W CAROLINA AVE","VARNVILLE","SC","29944","45049",32.852848076,-81.0900305119999
2429169,"LEXINGTON MEDICAL CENTER","DNV","Thrombectomy","2720 SUNSET BLVD","WEST COLUMBIA","SC","29169","45063",34.005961895,-81.114198991
16638133,"SAINT FRANCIS HOSPITAL BARTLETT","JC","Primary","2986 KATE BOND RD","BARTLETT","TN","38133","47157",35.2069920540001,-89.8005827599999
11337620,"BRISTOL REGIONAL MEDICAL CENTER","JC","Primary","1 MEDICAL PARK BOULEVARD","BRISTOL","TN","37620","47163",36.585516446,-82.256923265
2737403,"ERLANGER MEDICAL CENTER","DNV","Comprehensive","975 EAST THIRD STREET","CHATTANOOGA","TN","37403","47065",35.0488941250001,-85.2900474479999
7837404,"MEMORIAL HEALTH CARE SYSTEM","JC","Primary","2525 DESALES AVENUE","CHATTANOOGA","TN","37404","47065",35.0415746140001,-85.2600266219999
7337404,"PARKRIDGE MEDICAL CENTER","JC","Primary","2333 MCCALLIE AVENUE","CHATTANOOGA","TN","37404","47065",35.0349294910001,-85.267482278
3037421,"ERLANGER EAST HOSPITAL","DNV","Acute Stroke Ready","1755 GUNBARREL ROAD","CHATTANOOGA","TN","37421","47065",35.02255862,-85.160624109
8038401,"MAURY REGIONAL HOSPITAL","JC","Primary","1224 TROTWOOD AVENUE","COLUMBIA","TN","38401","47119",35.6071638650001,-87.0668911079999
5738501,"COOKEVILLE REGIONAL MEDICAL CENTER","JC","Primary","1 MEDICAL CENTER BOULEVARD","COOKEVILLE","TN","38501","47141",36.169326788,-85.508762582
1938555,"CUMBERLAND MEDICAL CENTER","JC","Primary","421 SOUTH MAIN STREET","CROSSVILLE","TN","38555","47035",35.9433250020001,-85.022031362
16037055,"TRISTAR HORIZON MEDICAL CENTER","JC","Primary","111 HIGHWAY 70 EAST","DICKSON","TN","37055","47043",36.0733061660001,-87.375727161
1137643,"SYCAMORE SHOALS HOSPITAL","JC","Acute Stroke Ready","1501 WEST ELK AVENUE","ELIZABETHTON","TN","37643","47019",36.345867056,-82.2500016709999
9937066,"SUMNER REGIONAL MEDICAL CENTER","JC","Primary","555 HARTSVILLE PIKE","GALLATIN","TN","37066","47165",36.390014088,-86.434095825
9238138,"METHODIST HOSPITAL GERMANTOWN","DNV","Primary","7691 POPLAR AVENUE","GERMANTOWN","TN","38138","47157",35.089818161,-89.8083662289999
17237748,"ROANE MEDICAL CENTER","JC","Primary","8045 ROANE MEDICAL CENTER DRIVE","HARRIMAN","TN","37748","47145",35.8886048620001,-84.556007063
11837075,"TRISTAR HENDERSONVILLE MEDICAL CENTER","JC","Primary","355 NEW SHACKLE ISLAND ROAD","HENDERSONVILLE","TN","37075","47165",36.32481862,-86.62223383
3237076,"TRISTAR SUMMIT MEDICAL CENTER","JC","Primary","5655 FRIST BOULEVARD","HERMITAGE","TN","37076","47037",36.176379426,-86.608375157
8238301,"JACKSON - MADISON COUNTY GENERAL HOSPITAL","JC","Primary","620 SKYLINE DRIVE","JACKSON","TN","38301","47113",35.636732657,-88.831789686
14037760,"TENNOVA HEALTHCARE - JEFFERSON MEMORIAL HOSPITAL","JC","Acute Stroke Ready","110 HOSPITAL DRIVE","JEFFERSON CITY","TN","37760","47089",36.1066384390001,-83.518909411
10237604,"JOHNSON CITY MEDICAL CENTER","JC","Comprehensive","400 NORTH STATE OF FRANKLIN ROAD","JOHNSON CITY","TN","37604","47179",36.307843099,-82.384562638
11537660,"HOLSTON VALLEY MEDICAL CENTER","JC","Primary","130 WEST RAVINE ROAD","KINGSPORT","TN","37660","47163",36.554103173,-82.554607246
3937916,"FORT SANDERS REGIONAL MEDICAL CENTER","JC","Comprehensive","1901 CLINCH AVENUE","KNOXVILLE","TN","37916","47093",35.9570317210001,-83.9372099029999
4137920,"THE UNIVERSITY OF TENNESSEE MEDICAL CENTER","JC","Comprehensive","1924 ALCOA HIGHWAY","KNOXVILLE","TN","37920","47093",35.9404473380001,-83.943884128
3837923,"PARKWEST MEDICAL CENTER","JC","Primary","9352 PARK WEST BOULEVARD","KNOXVILLE","TN","37923","47093",35.917072445,-84.100643793
737766,"TENNOVA HEALTHCARE - LAFOLLETTE MEDICAL CENTER","JC","Acute Stroke Ready","923 EAST CENTRAL AVENUE","LAFOLLETTE","TN","37766","47013",36.3888710420001,-84.111469777
12237087,"VANDERBILT WILSON COUNTY HOSPITAL","JC","Primary","1411 BADDOUR PARKWAY","LEBANON","TN","37087","47189",36.2216056500001,-86.3276203189999
14937772,"FORT LOUDOUN MEDICAL CENTER","JC","Primary","550 FORT LOUDOUN MEDICAL CENTER DR","LENOIR CITY","TN","37772","47105",35.8251721670001,-84.2701807939999
15037804,"BLOUNT MEMORIAL HOSPITAL","JC","Primary","907 E LAMAR ALEXANDER PARKWAY","MARYVILLE","TN","37804","47009",35.756462239,-83.95871505
9138104,"METHODIST HEALTHCARE - MEMPHIS HOSPITAL","DNV","Comprehensive","1265 UNION AVENUE","MEMPHIS","TN","38104","47157",35.1366685450001,-90.019467514
9438116,"METHODIST HOSPITAL-SOUTH","DNV","Primary","1300 WESLEY DRIVE","MEMPHIS","TN","38116","47157",35.032982873,-90.0212006949999
81,"SAINT FRANCIS HOSPITAL MEMPHIS","JC","Thrombectomy","5959 PARK AVE","MEMPHIS","TN","38119","47157",35.0982050320001,-89.8648751919999
8738120,"BAPTIST MEMORIAL HOSPITAL","JC","Primary","6019 WALNUT GROVE ROAD","MEMPHIS","TN","38120","47157",35.129521959,-89.861558854
9338128,"METHODIST HOSPITAL-NORTH","DNV","Primary","3960 NEW COVINGTON PIKE","MEMPHIS","TN","38128","47157",35.2340702450001,-89.8928209279999
14137814,"MORRISTOWN-HAMBLEN HEALTHCARE SYSTEM","JC","Primary","908 WEST FOURTH NORTH STREET","MORRISTOWN","TN","37814","47063",36.212965696,-83.305316375
6137130,"SAINT THOMAS RUTHERFORD HOSPITAL","JC","Primary","1700 MEDICAL CENTER PARKWAY","MURFREESBORO","TN","37130","47149",35.860579123,-86.4250313759999
11937203,"TRISTAR CENTENNIAL MEDICAL CENTER","JC","Primary","2300 PATTERSON STREET","NASHVILLE","TN","37203","47037",36.15375182,-86.809004864
2337205,"SAINT THOMAS WEST HOSPITAL","JC","Comprehensive","4220 HARDING ROAD","NASHVILLE","TN","37205","47037",36.129401966,-86.844516459
2237207,"TRISTAR SKYLINE MEDICAL CENTER","JC","Comprehensive","3441 DICKERSON PIKE","NASHVILLE","TN","37207","47037",36.2453409300001,-86.7496189839999
2037211,"TRISTAR SOUTHERN HILLS MEDICAL CENTER","JC","Primary","391 WALLACE ROAD","NASHVILLE","TN","37211","47037",36.076382374,-86.7218921309999
15837232,"VANDERBILT UNIVERSITY HOSPITAL","JC","Comprehensive","1211 MEDICAL CENTER DRIVE","NASHVILLE","TN","37232","47037",36.1408360080001,-86.8021666989999
1537821,"TENNOVA HEALTHCARE - NEWPORT MEDICAL CENTER","JC","Acute Stroke Ready","435 SECOND STREET","NEWPORT","TN","37821","47029",35.964203916,-83.182198673
137830,"METHODIST MEDICAL CENTER OF OAK RIDGE","JC","Primary","990 OAK RIDGE TURNPIKE","OAK RIDGE","TN","37830","47001",36.024545109,-84.245085527
13937849,"TENNOVA HEALTHCARE NORTH KNOXVILLE MEDICAL CENTER","JC","Primary","7565 DANNAHER DRIVE","POWELL","TN","37849","47093",36.052842366,-83.997802755
8637862,"LECONTE MEDICAL CENTER","JC","Primary","742 MIDDLE CREEK ROAD","SEVIERVILLE","TN","37862","47155",35.855923213,-83.5352199769999
10737167,"TRISTAR STONECREST MEDICAL CENTER","JC","Primary","200 STONECREST BOULEVARD","SMYRNA","TN","37167","47149",35.9750342580001,-86.565202155
6037172,"NORTHCREST MEDICAL CENTER","JC","Primary","100 NORTHCREST DRIVE","SPRINGFIELD","TN","37172","47147",36.478480081,-86.886901925
1337879,"CLAIBORNE COUNTY HOSPITAL","JC","Acute Stroke Ready","1850 OLD KNOXVILLE ROAD","TAZEWELL","TN","37879","47025",36.4528338850001,-83.572275718
2079601,"HENDRICK MEDICAL CENTER","JC","Primary","1900 PINE","ABILENE","TX","79601","48441",32.472176468,-99.733954404
475013,"TEXAS HEALTH PRESBYTERIAN HOSPITAL ALLEN","JC","Acute Stroke Ready","1105 CENTRAL EXPRESSWAY NORTH","ALLEN","TX","75013","48085",33.115977318,-96.673101053
679106,"BAPTIST ST. ANTHONY'S HEALTH SYSTEM - BAPTIST CAMPUS","DNV","Primary","1600 WALLACE BOULEVARD","AMARILLO","TX","79106","48375",35.196451987,-101.920315509
5979175,"NORTHWEST TEXAS HOSPITAL","JC","Primary","1501 SOUTH COULTER STREET","AMARILLO","TX","79175","48375",35.1996694310001,-101.920234741
1276012,"TEXAS HEALTH ARLINGTON MEMORIAL HOSPITAL","JC","Primary","800 WEST RANDOL MILL ROAD","ARLINGTON","TX","76012","48439",32.748897293,-97.11581999
4176015,"MEDICAL CITY OF ARLINGTON","JC","Primary","3301 MATLOCK ROAD","ARLINGTON","TX","76015","48439",32.6923253090001,-97.1127163799999
171078701,"DELL SETON MEDICAL CENTER AT THE UNIVERSITY OF TEXAS","DNV","Comprehensive","1500 RED RIVER STREET","AUSTIN","TX","78701","48453",30.276389884,-97.733847731
2578704,"ST. DAVID'S SOUTH AUSTIN MEDICAL CENTER","JC","Primary","901 WEST BEN WHITE BOULEVARD","AUSTIN","TX","78704","48453",30.2259300590001,-97.77459614
2378705,"ST. DAVID'S MEDICAL CENTER","JC","Primary","919 EAST 32ND STREET","AUSTIN","TX","78705","48453",30.2898922050001,-97.7260463699999
2478705,"ASCENSION SETON MEDICAL CENTER AUSTIN","DNV","Comprehensive","1201 WEST 38TH STREET","AUSTIN","TX","78705","48453",30.305001846,-97.7456083179999
6778758,"NORTH AUSTIN MEDICAL CENTER","JC","Primary","12221 MOPAC SERVICE ROAD","AUSTIN","TX","78758","48453",30.4114880280001,-97.7062274049999
4677521,"HOUSTON METHODIST BAYTOWN HOSPITAL","DNV","Primary","4401 GARTH ROAD","BAYTOWN","TX","77521","48201",29.769116266,-94.979716606
4977702,"CHRISTUS DUBUIS HOSPITAL OF BEAUMONT","JC","Primary","2830 CALDER AVENUE, 4TH FLOOR","BEAUMONT","TX","77702","48245",30.0872567700001,-94.132927864
5676022,"TEXAS HEALTH HARRIS METHODIST HOSPITAL HURST-EULESS-BEDFORD","JC","Primary","1600 HOSPITAL PARKWAY","BEDFORD","TX","76022","48439",32.835154968,-97.123136701
9178523,"VALLEY REGIONAL MEDICAL CENTER","JC","Primary","100 EAST ALTON GLOOR BOULEVARD","BROWNSVILLE","TX","78523","48061",25.9776129860001,-97.51480112
9078523,"VALLEY BAPTIST MEDICAL CENTER - BROWNSVILLE","JC","Primary","1040 WEST JEFFERSON STREET","BROWNSVILLE","TX","78523","48061",25.9178480640001,-97.510696549
8277802,"ST. JOSEPH REGIONAL HEALTH CENTER","JC","Primary","2801 FRANCISCAN DRIVE","BRYAN","TX","77802","48041",30.6561370050001,-96.345972906
10078613,"CEDAR PARK REGIONAL MEDICAL CENTER","JC","Primary","1401 MEDICAL PARKWAY","CEDAR PARK","TX","78613","48491",30.532362714,-97.812190954
11377842,"COLLEGE STATION MEDICAL CENTER","JC","Primary","1604 ROCK PRAIRIE ROAD","COLLEGE STATION","TX","77842","48041",30.5813238120001,-96.2899901489999
141177845,"BAYLOR SCOTT & WHITE MEDICAL CENTER - COLLEGE STATION","JC","Primary","700 SCOTT & WHITE DRIVE","COLLEGE STATION","TX","77845","48041",30.5823183950001,-96.279395347
11877304,"HCA HOUSTON HEALTHCARE CONROE","JC","Primary","504 MEDICAL CENTER BOULEVARD","CONROE","TX","77304","48339",30.284723924,-95.468004921
12578404,"THE CORPUS CHRISTI MEDICAL CENTER - BAY AREA","JC","Primary","7101 SOUTH PADRE ISLAND DRIVE","CORPUS CHRISTI","TX","78404","48355",27.6932807040001,-97.345413561
13575835,"NAVARRO REGIONAL HOSPITAL","JC","Primary","3201 TEXAS 22","CORSICANA","TX","75835","48349",32.083631278,-96.5035989199999
58575218,"CITY HOSPITAL AT WHITE ROCK","JC","Primary","9440 POPPY DRIVE","DALLAS","TX","75218","48113",32.834782913,-96.704932017
58375230,"MEDICAL CITY DALLAS HOSPITAL","DNV","Comprehensive","7777 FOREST LANE","DALLAS","TX","75230","48113",32.911932882,-96.7740738699999
58175231,"TEXAS HEALTH PRESBYTERIAN HOSPITAL DALLAS","DNV","Comprehensive","8200 WALNUT HILL LANE","DALLAS","TX","75231","48113",32.8811341840001,-96.7624376649999
57875235,"WILLIAM P. CLEMENTS JR. UNIVERSITY HOSPITAL","JC","Comprehensive","6161 HARRY HINES BOULEVARD, SUITE 100","DALLAS","TX","75235","48113",32.818967222,-96.848837491
58475237,"METHODIST CHARLTON MEDICAL CENTER","JC","Primary","3500 WEST WHEATLAND ROAD","DALLAS","TX","75237","48113",32.6457618630001,-96.876848616
168275246,"BAYLOR UNIVERSITY MEDICAL CENTER","DNV","Comprehensive","3500 GASTON AVENUE","DALLAS","TX","75246","48113",32.789585163,-96.780272645
59275265,"METHODIST DALLAS MEDICAL CENTER","DNV","Comprehensive","1441 N. BECKLEY AVENUE","DALLAS","TX","75265","48113",32.7603738120001,-96.826023549
14475390,"UNIVERSITY OF TEXAS SOUTHWESTERN MEDICAL CENTER","JC","Comprehensive","5323 HARRY HINES BOULEVARD","DALLAS","TX","75390","48113",32.8119803070001,-96.839731405
15576234,"WISE REGIONAL HEALTH SYSTEM","JC","Primary","609 MEDICAL CENTER DR","DECATUR","TX","76234","48497",33.2171070300001,-97.593715695
15875020,"TEXOMA MEDICAL CENTER","JC","Primary","5016 SOUTH US HIGHWAY 75","DENISON","TX","75020","48181",33.709717821,-96.585087028
15976201,"TEXAS HEALTH PRESBYTERIAN HOSPITAL DENTON","JC","Primary","3000 I-35","DENTON","TX","76201","48121",33.2176153820001,-97.166588955
15776210,"MEDICAL CITY DENTON","JC","Primary","3535 SOUTH INTERSTATE 35 EAST","DENTON","TX","76210","48121",33.1778745340001,-97.091433303
17578539,"DOCTOR'S HOSPITAL AT RENAISSANCE","JC","Comprehensive","5501 SOUTH MCCOLL","EDINBURG","TX","78539","48215",26.2527124380001,-98.20495353
17378539,"EDINBURG REGIONAL MEDICAL CENTER","JC","Acute Stroke Ready","1102 WEST TRENTON ROAD","EDINBURG","TX","78539","48215",26.261190533,-98.182666599
18079902,"LAS PALMAS MEDICAL CENTER","JC","Primary","1801 NORTH OREGON STREET","EL PASO","TX","79902","48141",31.769835867,-106.499075548
17979902,"THE HOSPITALS OF PROVIDENCE MEMORIAL CAMPUS","JC","Primary","2001 NORTH OREGON STREET","EL PASO","TX","79902","48141",31.7710037580001,-106.499873446
18179902,"THE HOSPITALS OF PROVIDENCE SIERRA CAMPUS","JC","Primary","1625 MEDICAL CENTER DRIVE","EL PASO","TX","79902","48141",31.777492427,-106.480867452
169079911,"THE HOSPITALS OF PROVIDENCE TRANSMOUNTAIN CAMPUS","JC","Primary","2000 TRANSMOUNTAIN RD","EL PASO","TX","79911","48141",31.904574482,-106.564962759
17879998,"UNIVERSITY MEDICAL CENTER OF EL PASO","JC","Comprehensive","4815 ALAMEDA AVENUE","EL PASO","TX","79998","48141",31.7716110870001,-106.435355201
20176101,"BAYLOR SCOTT & WHITE ALL SAINTS MEDICAL CENTER FORT WORTH","JC","Primary","1400 8TH AVENUE","FORT WORTH","TX","76101","48439",32.6650680070001,-97.41721975
19976104,"TEXAS HEALTH HARRIS METHODIST HOSPITAL FORT WORTH","JC","Comprehensive","1301 PENNSYLVANIA AVENUE","FORT WORTH","TX","76104","48439",32.7367556730001,-97.3389969839999
20076104,"JOHN PETER SMITH HOSPITAL","DNV","Comprehensive","1500 SOUTH MAIN STREET","FORT WORTH","TX","76104","48439",32.727080034,-97.327101276
20276104,"MEDICAL CITY FORT WORTH","DNV","Comprehensive","900 EIGHTH AVENUE","FORT WORTH","TX","76104","48439",32.735669016,-97.3452753079999
20376115,"TEXAS HEALTH HUGULEY HOSPITAL","JC","Primary","11801 SOUTH FREEWAY","FORT WORTH","TX","76115","48439",32.586628079,-97.316955107
20576132,"TEXAS HEALTH HARRIS METHODIST HOSPITAL SOUTHWEST FORT WORTH","JC","Primary","6100 HARRIS PARKWAY","FORT WORTH","TX","76132","48439",32.6578356090001,-97.421075953
21575035,"BAYLOR SCOTT & WHITE MEDICAL CENTER - CENTENNIAL","JC","Primary","12505 LEBANON ROAD","FRISCO","TX","75035","48085",33.114273976,-96.770914664
22277550,"UNIVERSITY OF TEXAS MEDICAL BRANCH HOSPITAL","DNV","Comprehensive","301 UNIVERSITY BOULEVARD","GALVESTON","TX","77550","48167",29.311200962,-94.777159432
26677024,"MEMORIAL HERMANN MEMORIAL CITY MEDICAL CENTER","JC","Primary","921 GESSNER ROAD","GONZALES","TX","77024","48201",29.7814474690001,-95.546759685
22676051,"BAYLOR SCOTT & WHITE MEDICAL CENTER AT GRAPEVINE","JC","Primary","1650 WEST COLLEGE STREET","GROESBECK","TX","76051","48439",32.93443023,-97.0943835039999
140776548,"SETON MEDICAL CENTER HARKER HEIGHTS","JC","Primary","850 WEST CENTRAL TEXAS EXPRESSWAY","HARKER HEIGHTS","TX","76548","48027",31.0726036840001,-97.682925427
23978550,"HARLINGEN MEDICAL CENTER","JC","Primary","5501 SOUTH EXPRESSWAY 77","HARLINGEN","TX","78550","48061",26.157450307,-97.675302863
24178551,"VALLEY BAPTIST MEDICAL CENTER - HARLINGEN","DNV","Comprehensive","2101 PEASE STREET","HARLINGEN","TX","78551","48061",26.174964835,-97.669956653
25377002,"ST. JOSEPH MEDICAL CENTER","DNV","Primary","1401 ST JOSEPH PARKWAY","HOUSTON","TX","77002","48201",29.7481161270001,-95.366148139
26277008,"MEMORIAL HERMANN GREATER HEIGHTS HOSPITAL","JC","Primary","1635 NORTH LOOP WEST","HOUSTON","TX","77008","48201",29.8107356580001,-95.430335546
25577030,"MEMORIAL HERMANN TEXAS MEDICAL CENTER","JC","Comprehensive","6411 FANNIN STREET","HOUSTON","TX","77030","48201",29.7145511730001,-95.3962820259999
14977030,"MICHAEL E. DEBAKEY VA MEDICAL CENTER","JC","Primary","2002 HOLCOMBE BLVD","HOUSTON","TX","77030","48201",29.6997657490001,-95.388773445
191677030,"BAYLOR ST LUKES MEDICAL CENTER - MCNAIR CAMPUS","DNV","Comprehensive","7200 CAMBRIDGE STREET","HOUSTON","TX","77030","48201",29.69898929,-95.3940632379999
26777030,"HARRIS HEALTH SYSTEM BEN TAUB GENERAL HOSPITAL","DNV","Comprehensive","1504 TAUB LOOP","HOUSTON","TX","77030","48201",29.710982363,-95.3945517
137877030,"HOUSTON METHODIST HOSPTIAL","DNV","Comprehensive","6565 FANNIN STREET","HOUSTON","TX","77030","48201",29.7105231410001,-95.398938882
138177070,"HOUSTON METHODIST WILLOWBROOK HOSPITAL","DNV","Primary","18220 TOMBALL PARKWAY","HOUSTON","TX","77070","48201",29.9664687710001,-95.551144526
26177082,"HCA HOUSTON HEALTHCARE WEST","JC","Primary","12141 RICHMOND AVENUE","HOUSTON","TX","77082","48201",29.7293416570001,-95.594483618
25777090,"HCA HOUSTON HEALTHCARE NORTHWEST MEDICAL CENTER","JC","Primary","710 FM 1960 WEST","HOUSTON","TX","77090","48201",30.020440498,-95.4427141799999
136077094,"HOUSTON METHODIST WEST HOSPITAL","DNV","Primary","18500 KATY FREEWAY","HOUSTON","TX","77094","48201",29.7871566220001,-95.697828078
29877091,"MEMORIAL HERMANN NORTHEAST HOSPITAL","JC","Primary","18951 MEMORIAL NORTH","HUMBLE","TX","77091","48201",29.995512041,-95.2761288889999
30377338,"HUNTSVILLE MEMORIAL HOSPITAL","JC","Primary","110 MEMORIAL HOSPITAL DRIVE","HUNTSVILLE","TX","77338","48471",30.698549991,-95.558986955
30875039,"MEDICAL CITY LAS COLINAS","JC","Primary","6800 NORTH MACARTHUR BOULEVARD","IRVING","TX","75039","48113",32.901732984,-96.95656507
30775061,"BAYLOR SCOTT & WHITE MEDICAL CENTER - IRVING","JC","Primary","1901 NORTH MACARTHUR BOULEVARD","IRVING","TX","75061","48113",32.8345893910001,-96.9602493959999
31677494,"MEMORIAL HERMANN KATY HOSPITAL","JC","Primary","23900 KATY FREEWAY","KATY","TX","77494","48201",29.787310995,-95.786254532
32478028,"PETERSON REGIONAL MEDICAL CENTER","DNV","Acute Stroke Ready","551 HILL COUNTRY DIRVE","KERRVILLE","TX","78028","48265",30.043465994,-99.152868896
32376549,"ADVENTHEALTH CENTRAL TEXAS","JC","Primary","2201 SOUTH CLEAR CREEK ROAD","KILLEEN","TX","76549","48027",31.1134499070001,-97.801670811
33177339,"HCA HOUSTON HEALTHCARE KINGWOOD","JC","Primary","22999 U.S. HIGHWAY 59 N","KINGWOOD","TX","77339","48339",30.0500684840001,-95.255075582
32978640,"ASCENSION SETON MEDICAL CENTER HAYS","DNV","Primary","6001 KYLE PARKWAY","KYLE","TX","78640","48209",30.0084099860001,-97.852977451
33077566,"CHI ST LUKES HEALTH - BRAZOSPORT","JC","Primary","100 MEDICAL DRIVE","LAKE JACKSON","TX","77566","48039",29.029500677,-95.452744815
33878044,"LAREDO MEDICAL CENTER","JC","Primary","1700 EAST SAUNDERS STREET","LAREDO","TX","78044","48479",27.532859758,-99.478291693
33378045,"DOCTORS HOSPITAL OF LAREDO","JC","Primary","10700 MCPHERSON ROAD","LAREDO","TX","78045","48479",27.6069144840001,-99.478475609
34075057,"MEDICAL CITY OF LEWISVILLE","JC","Primary","500 WEST MAIN STREET","LEWISVILLE","TX","75057","48121",33.0452460390001,-97.004762802
34875601,"CHRISTUS GOOD SHEPHERD MEDICAL CENTER - LONGVIEW","JC","Primary","700 EAST MARSHALL AVENUE","LONGVIEW","TX","75601","48183",32.500749856,-94.7298539939999
35075607,"LONGVIEW REGIONAL MEDICAL CENTER","JC","Primary","2901 N 4TH STREET","LONGVIEW","TX","75607","48183",32.532885036,-94.7305140989999
35279408,"COVENANT MEDICAL CENTER","JC","Primary","3615 19TH STREET","LUBBOCK","TX","79408","48303",33.5769391330001,-101.891995039
35479415,"UNIVERSITY MEDICAL CENTER","DNV","Primary","602 INDIANA AVENUE","LUBBOCK","TX","79415","48303",33.587967135,-101.891298508
36475902,"CHI ST LUKES HEALTH MEMORIAL LUFKIN","JC","Primary","1201 WEST FRANK AVENUE","LUFKIN","TX","75902","48005",31.3361913320001,-94.7418546809999
36075904,"WOODLAND HEIGHTS MEDICAL CENTER","JC","Primary","505 S. JOHN REDDITT DR.","LUFKIN","TX","75904","48005",31.328399474,-94.754058839
36976063,"METHODIST MANSFIELD MEDICAL CENTER","JC","Primary","2700 EAST BROAD STREET","MANSFIELD","TX","76063","48439",32.5679899420001,-97.0944448449999
72778654,"BAYLOR SCOTT & WHITE MEDICAL CENTER - MARBLE FALLS","JC","Primary","810 W HIGHWAY 71","MARBLE FALLS","TX","78654","48053",30.5128112470001,-98.3045379609999
37278503,"RIO GRANDE REGIONAL HOSPITAL","JC","Primary","101 EAST RIDGE ROAD","MCALLEN","TX","78503","48215",26.186362489,-98.220773774
78178503,"MCCALLEN MEDICAL CENTER","DNV","Comprehensive","301 WEST EXPRESSWAY 83","MCALLEN","TX","78503","48215",26.1869923680001,-98.225730111
37475069,"MEDICAL CITY MCKINNEY","JC","Primary","4500 MEDICAL CENTER DRIVE","MCKINNEY","TX","75069","48085",33.1597266420001,-96.636693378
134475071,"BAYLOR SCOTT & WHITE MEDICAL CENTER - MCKINNEY","JC","Primary","5252 WEST UNIVERSITY DRIVE","MCKINNEY","TX","75071","48085",33.2209716130001,-96.6826010199999
37975149,"DALLAS REGIONAL MEDICAL CENTER","JC","Primary","1011 NORTH GALLOWAY AVENUE","MESQUITE","TX","75149","48113",32.7787904750001,-96.6005102949999
39275455,"TITUS REGIONAL MEDICAL CENTER","JC","Primary","2001 NORTH JEFFERSON AVENUE","MOUNT PLEASANT","TX","75455","48449",33.175599387,-94.971174939
40375965,"NACOGDOCHES MEDICAL CENTER","JC","Primary","4920 N. E. STALLINGS DRIVE","NACOGDOCHES","TX","75965","48347",31.653144314,-94.653873115
39377058,"HOUSTON METHODIST CLEAR LAKE HOSPITAL","DNV","Primary","18300 HOUSTON METHODIST DRIVE","NASSAU BAY","TX","77058","48201",29.549248517,-95.086763633
40276180,"MEDICAL CITY NORTH HILLS","JC","Primary","4401 BOOTH CALLOWAY ROAD","NORTH RICHLAND HILLS","TX","76180","48439",32.8290807160001,-97.213505557
40579760,"ODESSA REGIONAL MEDICAL CENTER","DNV","Primary","520 EAST 6TH STREET","ODESSA","TX","79760","48135",31.8517284660001,-102.364203014
41479065,"PAMPA REGIONAL MEDICAL CENTER","JC","Acute Stroke Ready","ONE MEDICAL PLAZA","PAMPA","TX","79065","48179",35.5724721620001,-100.964796468
41275460,"PARIS REGIONAL MEDICAL CENTER - SOUTH CAMPUS","JC","Primary","820 CLARKSVILLE STREET","PARIS","TX","75460","48277",33.6596691980001,-95.547228929
41577504,"HCA HOUSTON HEALTHCARE SOUTHEAST","JC","Primary","4000 SPENCER HIGHWAY","PASADENA","TX","77504","48201",29.661060268,-95.183814699
72577584,"HCA HOUSTON HEALTHCARE PEARLAND MEDICAL CENTER","JC","Primary","11100 SHADOW CREEK PARKWAY","PEARLAND","TX","77584","48039",29.577792118,-95.390197525
191778660,"BAYLOR SCOTT & WHITE MEDICAL CENTER - PFLUGERVILLE","JC","Acute Stroke Ready","2600 EAST PFLUGERVILLE PARKWAY","PFLUGERVILLE","TX","78660","48453",30.4516312480001,-97.5914115099999
42275075,"MEDICAL CITY OF PLANO","DNV","Comprehensive","3901 WEST 15TH STREET","PLANO","TX","75075","48085",33.020893003,-96.766015199
43175093,"BAYLOR SCOTT & WHITE MEDICAL CENTER - PLANO","DNV","Comprehensive","4700 ALLIANCE BOULEVARD","PLANO","TX","75093","48085",33.0132922,-96.790366026
42375093,"TEXAS HEALTH PRESBYTERIAN HOSPITAL PLANO","DNV","Comprehensive","6200 WEST PARKER ROAD","PLANO","TX","75093","48085",33.0436635520001,-96.836470947
43577640,"THE MEDICAL CENTER OF SOUTHEAST TEXAS","DNV","Primary","2555 JIMMY JOHNSON BOULEVARD","PORT ARTHUR","TX","77640","48245",29.9355020260001,-93.989534534
73475082,"METHODIST RICHARDSON MEDICAL CENTER","JC","Primary","2831 E PRESIDENT GEORGE BUSH HWY","RICHARDSON","TX","75082","48085",32.996081561,-96.666490315
44377469,"OAKBEND MEDICAL CENTER","JC","Primary","1705 JACKSON STREET","RICHMOND","TX","77469","48157",29.5763288420001,-95.7709370219999
44878665,"BAYLOR SCOTT AND WHITE HOSPITAL - ROUND ROCK","JC","Primary","300 UNIVERSITY BOULEVARD","ROUND ROCK","TX","78665","48491",30.563395843,-97.684782286
45078665,"ASCENSION SETON MEDICAL CENTER WILLIAMSON","DNV","Thrombectomy","201 SETON PARKWAY","ROUND ROCK","TX","78665","48491",30.566762318,-97.651387347
44678681,"ROUND ROCK MEDICAL CENTER","JC","Primary","2400 ROUND ROCK AVENUE","ROUND ROCK","TX","78681","48491",30.5111077650001,-97.713608397
45275088,"BAYLOR SCOTT & WHITE MEDICAL CENTER - LAKE POINTE","JC","Primary","6800 SCENIC DRIVE","ROWLETT","TX","75088","48397",32.918019332,-96.508719073
45778205,"BAPTIST MEDICAL CENTER","JC","Primary","111 DALLAS STREET","SAN ANTONIO","TX","78205","48029",29.4335889390001,-98.492640783
46478224,"SOUTHWEST GENERAL HOSPITAL","DNV","Primary","7400 BARLITE BOULEVARD","SAN ANTONIO","TX","78224","48029",29.3535371450001,-98.5447077169999
45878229,"UNIVERSITY HOSPITAL","JC","Comprehensive","4502 MEDICAL DRIVE","SAN ANTONIO","TX","78229","48029",29.50700957,-98.578337042
134978229,"CHRISTUS SANTA ROSA - MEDICAL CENTER","JC","Primary","2827 BABCOCK ROAD","SAN ANTONIO","TX","78229","48029",29.5128125680001,-98.590137273
46278229,"METHODIST HOSPITAL","JC","Primary","7700 FLOYD CURL DRIVE","SAN ANTONIO","TX","78229","48029",29.5082133000001,-98.572477589
50,"ST LUKE'S BAPTIST HOSPITAL","DNV","Comprehensive","7930 FLOYD CURL DR","SAN ANTONIO","TX","78229","48029",29.5125494050001,-98.574910873
47878258,"METHODIST STONE OAK HOSPITAL","JC","Primary","1139 EAST SONTERRA BOULEVARD","SAN ANTONIO","TX","78258","48029",29.6158622130001,-98.474434773
48278666,"CENTRAL TEXAS MEDICAL CENTER","JC","Primary","1301 WONDER WORLD DRIVE","SAN MARCOS","TX","78666","48209",29.8524819890001,-97.9459039399999
48975092,"WILSON N JONES REGIONAL MEDICAL CENTER","JC","Primary","500 NORTH HIGHLAND AVENUE","SHERMAN","TX","75092","48181",33.6370973860001,-96.623821654
50277479,"MEMORIAL HERMANN SUGAR LAND","JC","Primary","17500 WEST GRAND PARKWAY SOUTH","SUGAR LAND","TX","77479","48157",29.564402204,-95.6903726909999
50677479,"HOUSTON METHODIST SUGAR LAND HOSPITAL","DNV","Primary","16655 SOUTHWEST FREEWAY","SUGAR LAND","TX","77479","48157",29.5895861550001,-95.630165598
52575483,"CHRISTUS MOTHER FRANCES HOSPITAL - SULPHUR SPRINGS","JC","Primary","115 AIRPORT ROAD","SULPHUR SPRINGS","TX","75483","48223",33.157628022,-95.600144706
51476508,"BAYLOR SCOTT & WHITE MEDICAL CENTER TEMPLE","JC","Comprehensive","2401 SOUTH 31ST STREET","TEMPLE","TX","76508","48027",31.0774474470001,-97.363447989
51775501,"WADLEY REGIONAL MEDICAL CENTER","JC","Primary","1000 PINE STREET","TEXARKANA","TX","75501","48037",33.428914165,-94.047627123
53075504,"CHRISTUS ST. MICHAEL HEALTH SYSTEM","JC","Primary","2600 SAINT MICHAEL DRIVE","TEXARKANA","TX","75504","48037",33.4641788930001,-94.075493398
51977380,"MEMORIAL HERMANN THE WOODLANDS HOSPITAL","DNV","Comprehensive","9250 PINECROFT DRIVE","THE WOODLANDS","TX","77380","48339",30.1743354450001,-95.454341996
52177384,"ST. LUKE'S THE WOODLANDS HOSPITAL","DNV","Comprehensive","17200 ST LUKES WAY","THE WOODLANDS","TX","77384","48339",30.205701769,-95.458133145
169177385,"HOUSTON METHODIST THE WOODLANDS HOSPITAL","DNV","Comprehensive","17201 I-45 SOUTH","THE WOODLANDS","TX","77385","48339",30.205594693,-95.453800147
52377375,"HCA HOUSTON HEALTHCARE TOMBALL","JC","Primary","605 HOLDERRIETH BOULEVARD","TOMBALL","TX","77375","48201",30.087304078,-95.623695582
53375701,"CHRISTUS MOTHER FRANCES HOSPITAL - TYLER","JC","Comprehensive","800 EAST DAWSON","TYLER","TX","75701","48423",32.342769446,-95.291640259
53975711,"UT HEALTH EAST TEXAS MEDICAL CENTER","JC","Comprehensive","1000 SOUTH BECKHAM AVENUE","TYLER","TX","75711","48423",32.338479523,-95.2907682049999
54777901,"CITIZENS MEDICAL CENTER","DNV","Primary","2701 HOSPITAL DRIVE","VICTORIA","TX","77901","48469",28.8128772630001,-96.977738743
81977904,"DETAR NORTH","JC","Primary","101 MEDICAL DRIVE","VICTORIA","TX","77904","48469",28.854340359,-97.019686306
55276702,"ASCENSION PROVIDENCE HEALTH CENTER","JC","Primary","6901 MEDICAL PARKWAY","WACO","TX","76702","48309",31.5142506550001,-97.199490968
51,"BAYLOR SCOTT & WHITE MEDICAL CENTER - HILLCREST","JC","Primary","100 HILLCREST MEDICAL BLVD","WACO","TX","76712","48309",31.489183064,-97.1575429929999
55475165,"BAYLOR MEDICAL CENTER AT WAXAHACHIE","JC","Primary","1405 WEST JEFFERSON STREET","WAXAHACHIE","TX","75165","48139",32.3963420270001,-96.865393879
55776086,"MEDICAL CITY WEATHERFORD","JC","Primary","713 EAST ANDERSON STREET","WEATHERFORD","TX","76086","48367",32.7481182230001,-97.7858105179999
900001063,"UNIVERSITY OF TEXAS MEDICAL BRANCH CLEAR LAKE CAMPUS","DNV","Primary","200 BLOSSOM ST","WEBSTER","TX","77598",,29.54591987,-95.12622623
55577598,"HCA HOUSTON HEALTHCARE CLEAR LAKE","JC","Primary","500 MEDICAL CENTER BOULEVARD","WEBSTER","TX","77598","48201",29.54130675,-95.1278151449999
56278599,"KNAPP MEDICAL CENTER","JC","Primary","1401 EAST 8TH STREET","WESLACO","TX","78599","48215",26.153228402,-97.9776193709999
56676301,"UNITED REGIONAL HEALTH CARE SYSTEM","JC","Primary","1600 11TH STREET","WICHITA FALLS","TX","76301","48485",33.902430581,-98.5019807909999
2522304,"INOVA ALEXANDRIA HOSPITAL","JC","Thrombectomy","4320 SEMINARY ROAD","ALEXANDRIA","VA","22304","51510",38.8221236430001,-77.105534721
3222306,"INOVA MOUNT VERNON HOSPITAL","JC","Primary","2501 PARKERS LANE","ALEXANDRIA","VA","22306","51059",38.7397300690001,-77.077046098
2622205,"VIRGINIA HOSPITAL CENTER","JC","Primary","1701 NORTH GEORGE MASON DRIVE","ARLINGTON","VA","22205","51013",38.8888817930001,-77.127277656
144624060,"LEWISGALE HOSPITAL MONTGOMERY","JC","Acute Stroke Ready","3700 SOUTH MAIN STREET","BLACKSBURG","VA","24060","51121",37.187206368,-80.4110116959999
2222908,"UNIVERSITY OF VIRGINIA MEDICAL CENTER","JC","Comprehensive","1215 LEE STREET","CHARLOTTESVILLE","VA","22906","51540",38.0313397960001,-78.498687078
1922911,"MARTHA JEFFERSON HOSPITAL","DNV","Thrombectomy","500 MARTHA JEFFERSON DR.","CHARLOTTESVILLE","VA","22911","51003",38.0225811810001,-78.444389616
11923320,"CHESAPEAKE REGIONAL MEDICAL CENTER","HFAP","Primary","736 BATTLEFIELD BOULEVARD NORTH","CHESAPEAKE","VA","23327","51550",36.745509252,-76.246039466
900001074,"CJW MEDICAL CENTER - SWIFT CREEK","DNV","Acute Stroke Ready","4720 HANCOCK VILLAGE STREET","CHESTERFIELD","VA","23832",,37.40255361,-77.6783525
7624541,"SOVAH HEALTH DANVILLE","JC","Primary","142 SOUTH MAIN STREET","DANVILLE","VA","24541","51590",36.577713847,-79.4054597539999
19620166,"STONE SPRINGS HOSPITAL CENTER","JC","Primary","24440 STONE SPRINGS BLVD","DULLES","VA","20166","51107",38.94013168,-77.542722575
3022033,"INOVA FAIR OAKS HOSPITAL","JC","Primary","3600 JOSEPH SIEWICK DRIVE","FAIRFAX","VA","22033","51059",38.8845886220001,-77.379848989
3122042,"INOVA FAIRFAX HOSPITAL","JC","Primary","3300 GALLOWS ROAD","FALLS CHURCH","VA","22042","51059",38.8581985180001,-77.227680116
122939,"AUGUSTA MEDICAL CENTER","JC","Primary","78 MEDICAL CENTER DRIVE","FISHERSVILLE","VA","22939","51015",38.0945244050001,-78.986837327
1222401,"MARY WASHINGTON HOSPITAL","JC","Primary","1001 SAM PERRY BOULEVARD","FREDERICKSBURG","VA","22401","51630",38.3115218880001,-77.483228601
1322408,"SPOTSYLVANIA REGIONAL MEDICAL CENTER","JC","Primary","4600 SPOTSYLVANIA PARKWAY","FREDERICKSBURG","VA","22408","51177",38.21751607,-77.4959513589999
6924333,"TWIN COUNTY REGIONAL HOSPITAL","JC","Primary","200 HOSPITAL DRIVE","GALAX","VA","24333","51640",36.670661974,-80.923928695
15023061,"RIVERSIDE WALTER REED HOSPITAL","DNV","Primary","7519 HOSPITAL DRIVE","GLOUCESTER","VA","23061","51073",37.419816579,-76.541775784
12323666,"SENTARA CAREPLEX HOSPITAL","DNV","Primary","3000 COLISEUM DRIVE","HAMPTON","VA","23666","51650",37.057292225,-76.39033356
9523860,"JOHN RANDOLPH MEDICAL CENTER","JC","Primary","411 WEST RANDOLPH ROAD","HOPEWELL","VA","23860","51670",37.308037771,-77.2912638729999
14822482,"BON SECOURS RAPPAHANNOCK GENERAL HOSPITAL","JC","Primary","101 HARRIS DRIVE","KILMARNOCK","VA","22482","51103",37.7012208690001,-76.387494609
4020176,"INOVA LOUDOUN HOSPITAL","JC","Primary","44045 RIVERSIDE PARKWAY","LEESBURG","VA","20176","51107",39.0739514200001,-77.478022014
144124501,"CENTRA LYNCHBURG GENERAL HOSPITAL","JC","Primary","1901 TATE SPRINGS ROAD","LYNCHBURG","VA","24501","51680",37.4170152720001,-79.171577989
4220110,"NOVANT HEALTH PRINCE WILLIAM MEDICAL CENTER","JC","Primary","8700 SUDLEY ROAD","MANASSAS","VA","20110","51683",38.7673136080001,-77.487526218
183223116,"BON SECOURS MEMORIAL REGIONAL MEDICAL CENTER","JC","Primary","8260 ATLEE ROAD","MECHANICSVILLE","VA","23116","51085",37.6290480000001,-77.388211
8423114,"BON SECOURS ST. FRANCIS MEDICAL CENTER","JC","Primary","13710 ST. FRANCIS BOULEVARD","MIDLOTHIAN","VA","23114","51041",37.466694606,-77.658639514
12123413,"RIVERSIDE SHORE MEMORIAL HOSPITAL","DNV","Primary","9507 HOSPITAL AVENUE","NASSAWADOX","VA","23413","51131",37.4754289270001,-75.8640725819999
14123601,"RIVERSIDE REGIONAL MEDICAL CENTER","DNV","Comprehensive","500 J. CLYDE MORRIS BLVD","NEWPORT NEWS","VA","23601","51700",37.064243456,-76.483034281
13423602,"BON SECOURS MARY IMMACULATE HOSPITAL","JC","Primary","2 BERNARDINE DRIVE","NEWPORT NEWS","VA","23602","51700",37.1444726230001,-76.511671925
13123502,"SENTARA LEIGH HOSPITAL","DNV","Primary","830 KEMPSVILLE ROAD","NORFOLK","VA","23502","51710",36.8508426700001,-76.189629473
13223507,"SENTARA NORFOLK GENERAL HOSPITAL","DNV","Comprehensive","600 GRESHAM DRIVE","NORFOLK","VA","23507","51710",36.862179869,-76.302844164
9723805,"SOUTHSIDE REGIONAL MEDICAL CENTER","JC","Primary","200 MEDICAL PARK BOULEVARD","PETERSBURG","VA","23805","51730",37.1824930240001,-77.3592538729999
14623707,"BON SECOURS MARYVIEW MEDICAL CENTER","JC","Primary","3636 HIGH STREET","PORTSMOUTH","VA","23707","51740",36.836636361,-76.3474318739999
3620190,"RESTON HOSPITAL CENTER","JC","Primary","1850 TOWN CENTER PARKWAY","RESTON","VA","20190","51059",38.962223554,-77.364165998
900001100,"BON SECOURS ST. MARY'S HOSPITAL OF RICHMOND INC.","JC","Comprehensive","5801 BREMO RD","RICHMOND","VA","23226",,37.58459363,-77.51271668
10823223,"BON SECOURS RICHMOND COMMUNITY HOSPITAL","JC","Primary","1500 NORTH 28TH STREET","RICHMOND","VA","23223","51760",37.5401660420001,-77.406939844
11023225,"CJW MEDICAL CENTER CHIPPENHAM CAMPUS","DNV","Primary","7101 JAHNKE ROAD","RICHMOND","VA","23225","51760",37.513898183,-77.526393887
10123229,"HENRICO DOCTORS' HOSPITAL","JC","Primary","1602 SKIPWITH ROAD","RICHMOND","VA","23229","51087",37.6043794180001,-77.539885666
8523235,"CJW MEDICAL CENTER JOHNSTON WILLIS CAMPUS","DNV","Comprehensive","1401 JOHNSTON-WILLIS DRIVE","RICHMOND","VA","23235","51041",37.510688283,-77.594941144
195023298,"VCU HEALTH SYSTEM","JC","Comprehensive","1250 EAST MARSHALL STREET","RICHMOND","VA","23298","51760",37.540128178,-77.42950068
7924014,"CARILION MEDICAL CENTER","JC","Primary","1906 BELLVIEW AVE","ROANOKE","VA","24033","51770",37.2511981860001,-79.9425437519999
4824153,"LEWISGALE MEDICAL CENTER","JC","Primary","1900 ELECTRIC ROAD","SALEM","VA","24153","51775",37.263332371,-80.031669098
11723970,"VCU HEALTH COMMUNITY MEMORIAL HEALTHCENTER","JC","Primary","125 BUENA VISTA CIRCLE","SOUTH HILL","VA","23970","51117",36.7336009360001,-78.133448385
900001109,"SENTARA BELLEHARBOUR","DNV","Acute Stroke Ready","3920A BRIDGE RD","SUFFOLK","VA","23435",,36.86499444,-76.44959977
15823434,"SENTARA OBICI HOSPITAL","DNV","Primary","2800 GODWIN BOULEVARD","SUFFOLK","VA","23434","51800",36.773314677,-76.581111175
15323454,"SENTARA VIRGINIA BEACH GENERAL HOSPITAL","DNV","Primary","1060 FIRST COLONIAL ROAD","VIRGINIA BEACH","VA","23454","51810",36.8645736070001,-76.0264938019999
147423456,"SENTARA PRINCESS ANNE HOSPITAL","DNV","Primary","2025 GLENN MITCHELL DRIVE","VIRGINIA BEACH","VA","23456","51810",36.7752182300001,-76.0980182919999
1820186,"FAUQUIER HOSPITAL","JC","Primary","500 HOSPITAL DRIVE","WARRENTON","VA","20186","51061",38.7127659560001,-77.8090621009999
19523185,"RIVERSIDE DOCTORS' HOSPITAL WILLIAMSBURG","DNV","Primary","1500 COMMONWEALTH AVENUE","WILLIAMSBURG","VA","23185","51830",37.250895477,-76.668381197
14423188,"SENTARA WILLIAMSBURG REGIONAL MEDICAL CENTER","DNV","Primary","100 SENTARA CIRCLE","WILLIAMSBURG","VA","23188","51199",37.3363209780001,-76.740891796
922601,"VALLEY HEALTH WINCHESTER MEDICAL CENTER","JC","Primary","1840 AMHERST STREET","WINCHESTER","VA","22601","51840",39.194280813,-78.193225098
4322191,"SENTARA NORTHERN VIRGINIA MEDICAL CENTER","DNV","Primary","2300 OPITZ BOULEVARD","WOODBRIDGE","VA","22191","51153",38.6370725360001,-77.286349424
4125801,"RALEIGH GENERAL HOSPITAL","JC","Primary","1710 HARPER ROAD","BECKLEY","WV","25801","54081",37.787554395,-81.201931585
1125801,"BECKLEY ARH HOSPITAL","DNV","Acute Stroke Ready","306 STANAFORD ROAD","BECKLEY","WV","25801","54081",37.798832695,-81.168183745
225301,"CHARLSTON AREA MEDICAL CENTER","DNV","Thrombectomy","501 MORRIS STREET","CHARLESTON","WV","25301","54039",38.34792179,-81.627199753
1925701,"CABELL-HUNTINGTON HOSPITAL","JC","Primary","1340 HAL GREER BOULEVARD","HUNTINGTON","WV","25701","54011",38.409767032,-82.4274022989999
1825701,"ST MARY'S MEDICAL CENTER","HFAP","Comprehensive","2900 1ST AVENUE","HUNTINGTON","WV","25701","54011",38.430550451,-82.4004127269999
3926537,"PRESTON MEMORIAL HOSPITAL","JC","Acute Stroke Ready","300 S PRICE STREET","KINGWOOD","WV","26537","54077",39.46507784,-79.687857503
2325401,"BERKELEY MEDICAL CENTER","JC","Primary","2500 HOSPITAL DRIVE","MARTINSBURG","WV","25401","54003",39.476243465,-77.9802371769999
6326506,"WEST VIRGINIA UNIVERSITY HOSPITALS","JC","Comprehensive","1 MEDICAL CENTER DRIVE","MORGANTOWN","WV","26506","54061",39.6544225740001,-79.958022141
126101,"CAMDEN CLARK MEDICAL CENTER","JC","Primary","800 GARFIELD AVE","PARKERSBURG","WV","26101","54107",39.2694240100001,-81.56010635
